{
"type": "FeatureCollection",
"name": "point",
"crs": { "type": "name", "properties": { "name": "urn:ogc:def:crs:OGC:1.3:CRS84" } },
"features": [
{ "type": "Feature", "properties": { "id": "00751881301", "state": "District of Columbia", "state_abb": "DC", "state_id": "11", "county": "District of Columbia", "county_id": "001", "operator": "CoreSite", "ref": null, "name": "CoreSite DC1", "sqft": null, "lon": -77.0291491, "lat": 38.9028879, "type": "point" }, "geometry": { "type": "Point", "coordinates": [ -77.0291491, 38.902887900000046 ] } },
{ "type": "Feature", "properties": { "id": "01825907839", "state": "New Mexico", "state_abb": "NM", "state_id": "35", "county": "Bernalillo County", "county_id": "001", "operator": null, "ref": null, "name": "Southwest Cyberport", "sqft": null, "lon": -106.5893487, "lat": 35.1032925, "type": "point" }, "geometry": { "type": "Point", "coordinates": [ -106.5893487, 35.10329250000003 ] } },
{ "type": "Feature", "properties": { "id": "02590601520", "state": "Oregon", "state_abb": "OR", "state_id": "41", "county": "Josephine County", "county_id": "033", "operator": null, "ref": null, "name": "FCR", "sqft": null, "lon": -123.3286299, "lat": 42.4378824, "type": "point" }, "geometry": { "type": "Point", "coordinates": [ -123.3286299, 42.437882400000021 ] } },
{ "type": "Feature", "properties": { "id": "02607827436", "state": "California", "state_abb": "CA", "state_id": "06", "county": "San Diego County", "county_id": "073", "operator": null, "ref": null, "name": "SDSU Computer Room", "sqft": null, "lon": -117.070888, "lat": 32.7750252, "type": "point" }, "geometry": { "type": "Point", "coordinates": [ -117.070888, 32.77502519999998 ] } },
{ "type": "Feature", "properties": { "id": "03406467087", "state": "Florida", "state_abb": "FL", "state_id": "12", "county": "Miami-Dade County", "county_id": "086", "operator": null, "ref": null, "name": "NocRoom Miami IT Services", "sqft": null, "lon": -80.3177484, "lat": 25.7915453, "type": "point" }, "geometry": { "type": "Point", "coordinates": [ -80.3177484, 25.7915453 ] } },
{ "type": "Feature", "properties": { "id": "03406476814", "state": "Florida", "state_abb": "FL", "state_id": "12", "county": "Miami-Dade County", "county_id": "086", "operator": null, "ref": null, "name": "NocRoom Miami IT Services", "sqft": null, "lon": -80.4234346, "lat": 25.6465617, "type": "point" }, "geometry": { "type": "Point", "coordinates": [ -80.4234346, 25.646561700000035 ] } },
{ "type": "Feature", "properties": { "id": "03468203102", "state": "Louisiana", "state_abb": "LA", "state_id": "22", "county": "East Baton Rouge Parish", "county_id": "033", "operator": null, "ref": null, "name": "Center for Computation & Technology (CCT)", "sqft": null, "lon": -91.1725454, "lat": 30.407446, "type": "point" }, "geometry": { "type": "Point", "coordinates": [ -91.1725454, 30.407446 ] } },
{ "type": "Feature", "properties": { "id": "03732415309", "state": "Oregon", "state_abb": "OR", "state_id": "41", "county": "Multnomah County", "county_id": "051", "operator": "Alco Properties", "ref": null, "name": "The Pittock Internet Exchange", "sqft": null, "lon": -122.680562, "lat": 45.5214248, "type": "point" }, "geometry": { "type": "Point", "coordinates": [ -122.680562, 45.521424800000027 ] } },
{ "type": "Feature", "properties": { "id": "04879481820", "state": "Georgia", "state_abb": "GA", "state_id": "13", "county": "Fulton County", "county_id": "121", "operator": "Google", "ref": null, "name": "Google Fiber", "sqft": null, "lon": -84.3668585, "lat": 33.7715677, "type": "point" }, "geometry": { "type": "Point", "coordinates": [ -84.3668585, 33.771567699999963 ] } },
{ "type": "Feature", "properties": { "id": "05146323411", "state": "California", "state_abb": "CA", "state_id": "06", "county": "Alameda County", "county_id": "001", "operator": null, "ref": null, "name": "Open Computing Facility", "sqft": null, "lon": -122.2598231, "lat": 37.8698521000001, "type": "point" }, "geometry": { "type": "Point", "coordinates": [ -122.25982310000002, 37.869852100000053 ] } },
{ "type": "Feature", "properties": { "id": "05225685660", "state": "Virginia", "state_abb": "VA", "state_id": "51", "county": "Lynchburg city", "county_id": "680", "operator": null, "ref": null, "name": "Lumos Networks", "sqft": null, "lon": -79.1427063, "lat": 37.415688, "type": "point" }, "geometry": { "type": "Point", "coordinates": [ -79.1427063, 37.415688 ] } },
{ "type": "Feature", "properties": { "id": "06401035673", "state": "Oklahoma", "state_abb": "OK", "state_id": "40", "county": "Oklahoma County", "county_id": "109", "operator": null, "ref": null, "name": "Rack59 Data Center", "sqft": null, "lon": -97.6497453, "lat": 35.4672049, "type": "point" }, "geometry": { "type": "Point", "coordinates": [ -97.6497453, 35.4672049 ] } },
{ "type": "Feature", "properties": { "id": "06625492701", "state": "New Mexico", "state_abb": "NM", "state_id": "35", "county": "Bernalillo County", "county_id": "001", "operator": "Oso Grande", "ref": "OSO", "name": "Oso Grande", "sqft": null, "lon": -106.6536712, "lat": 35.0925015, "type": "point" }, "geometry": { "type": "Point", "coordinates": [ -106.6536712, 35.0925015 ] } },
{ "type": "Feature", "properties": { "id": "06685432442", "state": "Nevada", "state_abb": "NV", "state_id": "32", "county": "Storey County", "county_id": "029", "operator": "Switch", "ref": null, "name": "Switch Tahoe Reno - The Citadel Campus", "sqft": null, "lon": -119.4795921, "lat": 39.5140963, "type": "point" }, "geometry": { "type": "Point", "coordinates": [ -119.4795921, 39.514096299999949 ] } },
{ "type": "Feature", "properties": { "id": "06793837329", "state": "West Virginia", "state_abb": "WV", "state_id": "54", "county": "Morgan County", "county_id": "065", "operator": null, "ref": null, "name": "Morgan Wireless", "sqft": null, "lon": -78.2253196, "lat": 39.6309851, "type": "point" }, "geometry": { "type": "Point", "coordinates": [ -78.2253196, 39.6309851 ] } },
{ "type": "Feature", "properties": { "id": "06856057098", "state": "Texas", "state_abb": "TX", "state_id": "48", "county": "Dallas County", "county_id": "113", "operator": null, "ref": null, "name": "VIRTBIZ", "sqft": null, "lon": -96.7828145, "lat": 32.7825463, "type": "point" }, "geometry": { "type": "Point", "coordinates": [ -96.7828145, 32.7825463 ] } },
{ "type": "Feature", "properties": { "id": "07171975407", "state": "Maine", "state_abb": "ME", "state_id": "23", "county": "Cumberland County", "county_id": "005", "operator": "FirstLight", "ref": null, "name": "FirstLight Data Center", "sqft": null, "lon": -70.2613785, "lat": 43.6578388, "type": "point" }, "geometry": { "type": "Point", "coordinates": [ -70.261378500000021, 43.657838799999986 ] } },
{ "type": "Feature", "properties": { "id": "07264976228", "state": "Indiana", "state_abb": "IN", "state_id": "18", "county": "Tippecanoe County", "county_id": "157", "operator": null, "ref": null, "name": "Learning GIS!", "sqft": null, "lon": -86.9141546, "lat": 40.42179, "type": "point" }, "geometry": { "type": "Point", "coordinates": [ -86.9141546, 40.42179 ] } },
{ "type": "Feature", "properties": { "id": "07264976991", "state": "Indiana", "state_abb": "IN", "state_id": "18", "county": "Tippecanoe County", "county_id": "157", "operator": null, "ref": null, "name": "Agricultural and Biological Engineering", "sqft": null, "lon": -86.9165454, "lat": 40.4218543, "type": "point" }, "geometry": { "type": "Point", "coordinates": [ -86.9165454, 40.4218543 ] } },
{ "type": "Feature", "properties": { "id": "07324132050", "state": "North Carolina", "state_abb": "NC", "state_id": "37", "county": "Durham County", "county_id": "063", "operator": null, "ref": null, "name": "Windstream Communications", "sqft": null, "lon": -78.851552, "lat": 35.881397, "type": "point" }, "geometry": { "type": "Point", "coordinates": [ -78.851552, 35.881397 ] } },
{ "type": "Feature", "properties": { "id": "07324132051", "state": "North Carolina", "state_abb": "NC", "state_id": "37", "county": "Durham County", "county_id": "063", "operator": null, "ref": null, "name": "Level 3 Communications", "sqft": null, "lon": -78.8515726, "lat": 35.881364, "type": "point" }, "geometry": { "type": "Point", "coordinates": [ -78.8515726, 35.881364 ] } },
{ "type": "Feature", "properties": { "id": "07557854384", "state": "Arizona", "state_abb": "AZ", "state_id": "04", "county": "Maricopa County", "county_id": "013", "operator": null, "ref": null, "name": "OptimumHQ", "sqft": null, "lon": -111.7526684, "lat": 33.3804149, "type": "point" }, "geometry": { "type": "Point", "coordinates": [ -111.7526684, 33.380414900000012 ] } },
{ "type": "Feature", "properties": { "id": "07557868585", "state": "Arizona", "state_abb": "AZ", "state_id": "04", "county": "Maricopa County", "county_id": "013", "operator": null, "ref": null, "name": "The Chatfield Group", "sqft": null, "lon": -111.7528888, "lat": 33.380601, "type": "point" }, "geometry": { "type": "Point", "coordinates": [ -111.7528888, 33.380601 ] } },
{ "type": "Feature", "properties": { "id": "07578821329", "state": "Arizona", "state_abb": "AZ", "state_id": "04", "county": "Maricopa County", "county_id": "013", "operator": null, "ref": null, "name": "All About Serving Process Server", "sqft": null, "lon": -111.809686, "lat": 33.3199157, "type": "point" }, "geometry": { "type": "Point", "coordinates": [ -111.809686, 33.319915700000038 ] } },
{ "type": "Feature", "properties": { "id": "07737996606", "state": "Arizona", "state_abb": "AZ", "state_id": "04", "county": "Maricopa County", "county_id": "013", "operator": null, "ref": null, "name": "Emailage", "sqft": null, "lon": -111.8405386, "lat": 33.302965, "type": "point" }, "geometry": { "type": "Point", "coordinates": [ -111.8405386, 33.302965 ] } },
{ "type": "Feature", "properties": { "id": "07821940847", "state": "Arizona", "state_abb": "AZ", "state_id": "04", "county": "Maricopa County", "county_id": "013", "operator": null, "ref": null, "name": "Alliance Technology", "sqft": null, "lon": -111.728405, "lat": 33.3799862, "type": "point" }, "geometry": { "type": "Point", "coordinates": [ -111.728405, 33.3799862 ] } },
{ "type": "Feature", "properties": { "id": "07985753364", "state": "Virginia", "state_abb": "VA", "state_id": "51", "county": "Fairfax County", "county_id": "059", "operator": "Digital Realty", "ref": null, "name": "8100 Boone Boulevard", "sqft": null, "lon": -77.2258825, "lat": 38.9137236, "type": "point" }, "geometry": { "type": "Point", "coordinates": [ -77.2258825, 38.913723600000012 ] } },
{ "type": "Feature", "properties": { "id": "08017899486", "state": "Florida", "state_abb": "FL", "state_id": "12", "county": "Alachua County", "county_id": "001", "operator": "University of Florida", "ref": "Version 3.0", "name": "HiPerGator", "sqft": null, "lon": -82.2997617, "lat": 29.6728187, "type": "point" }, "geometry": { "type": "Point", "coordinates": [ -82.2997617, 29.672818699999958 ] } },
{ "type": "Feature", "properties": { "id": "08109664813", "state": "Georgia", "state_abb": "GA", "state_id": "13", "county": "Fulton County", "county_id": "121", "operator": "Digital Realty", "ref": "ATL13", "name": "Atlanta ATL13", "sqft": null, "lon": -84.3914814, "lat": 33.7555186, "type": "point" }, "geometry": { "type": "Point", "coordinates": [ -84.3914814, 33.7555186 ] } },
{ "type": "Feature", "properties": { "id": "08165754026", "state": "Wisconsin", "state_abb": "WI", "state_id": "55", "county": "Milwaukee County", "county_id": "079", "operator": null, "ref": null, "name": "Data Holdings Data Center", "sqft": null, "lon": -87.9539794, "lat": 43.0439408, "type": "point" }, "geometry": { "type": "Point", "coordinates": [ -87.9539794, 43.043940799999973 ] } },
{ "type": "Feature", "properties": { "id": "08238715059", "state": "California", "state_abb": "CA", "state_id": "06", "county": "Santa Clara County", "county_id": "085", "operator": "Stack Infrastructure, Incorporated", "ref": null, "name": "STACK Infrastructure", "sqft": null, "lon": -121.891051, "lat": 37.4027449, "type": "point" }, "geometry": { "type": "Point", "coordinates": [ -121.891051, 37.402744900000016 ] } },
{ "type": "Feature", "properties": { "id": "08238715061", "state": "California", "state_abb": "CA", "state_id": "06", "county": "Santa Clara County", "county_id": "085", "operator": "Stack Infrastructure, Incorporated", "ref": null, "name": "STACK Infrastructure", "sqft": null, "lon": -121.891057, "lat": 37.4026341, "type": "point" }, "geometry": { "type": "Point", "coordinates": [ -121.891057, 37.4026341 ] } },
{ "type": "Feature", "properties": { "id": "08477460442", "state": "California", "state_abb": "CA", "state_id": "06", "county": "San Luis Obispo County", "county_id": "079", "operator": null, "ref": null, "name": "Digital West Data Center", "sqft": null, "lon": -120.6415128, "lat": 35.2553162, "type": "point" }, "geometry": { "type": "Point", "coordinates": [ -120.641512800000015, 35.255316199999982 ] } },
{ "type": "Feature", "properties": { "id": "08641856300", "state": "Michigan", "state_abb": "MI", "state_id": "26", "county": "Macomb County", "county_id": "099", "operator": "Dennis Sampier", "ref": null, "name": "Chick-fil-A Hiring Center", "sqft": null, "lon": -82.9883939, "lat": 42.6279424, "type": "point" }, "geometry": { "type": "Point", "coordinates": [ -82.98839390000002, 42.627942400000038 ] } },
{ "type": "Feature", "properties": { "id": "08767284091", "state": "Connecticut", "state_abb": "CT", "state_id": "09", "county": "Capitol Planning Region", "county_id": "110", "operator": null, "ref": null, "name": "Ergonomic Group", "sqft": null, "lon": -72.5898636, "lat": 41.7070776, "type": "point" }, "geometry": { "type": "Point", "coordinates": [ -72.5898636, 41.7070776 ] } },
{ "type": "Feature", "properties": { "id": "08897151054", "state": "California", "state_abb": "CA", "state_id": "06", "county": "Santa Clara County", "county_id": "085", "operator": "CoreSite", "ref": "SV1", "name": "San Jose Colocation Center", "sqft": null, "lon": -121.891646, "lat": 37.3341181, "type": "point" }, "geometry": { "type": "Point", "coordinates": [ -121.891646, 37.3341181 ] } },
{ "type": "Feature", "properties": { "id": "09092482804", "state": "Virginia", "state_abb": "VA", "state_id": "51", "county": "Loudoun County", "county_id": "107", "operator": "Amazon Web Services", "ref": "IAD69", "name": "Amazon Web Services IAD69", "sqft": null, "lon": -77.4146998, "lat": 39.0254851, "type": "point" }, "geometry": { "type": "Point", "coordinates": [ -77.4146998, 39.025485100000012 ] } },
{ "type": "Feature", "properties": { "id": "09190480200", "state": "Texas", "state_abb": "TX", "state_id": "48", "county": "Montgomery County", "county_id": "339", "operator": null, "ref": null, "name": "Stream Data Centers Houston", "sqft": null, "lon": -95.4860464, "lat": 30.1781365, "type": "point" }, "geometry": { "type": "Point", "coordinates": [ -95.4860464, 30.178136500000015 ] } },
{ "type": "Feature", "properties": { "id": "09669340912", "state": "Maryland", "state_abb": "MD", "state_id": "24", "county": "Baltimore city", "county_id": "510", "operator": "Crown Castle Fiber", "ref": "Baltimore", "name": "Crown Castle Baltimore", "sqft": null, "lon": -76.6064893, "lat": 39.2877017, "type": "point" }, "geometry": { "type": "Point", "coordinates": [ -76.6064893, 39.2877017 ] } },
{ "type": "Feature", "properties": { "id": "09669405859", "state": "Maryland", "state_abb": "MD", "state_id": "24", "county": "Baltimore city", "county_id": "510", "operator": "AiNET", "ref": "BW1", "name": "AiNET One Market Center", "sqft": null, "lon": -76.6203737, "lat": 39.2917583, "type": "point" }, "geometry": { "type": "Point", "coordinates": [ -76.6203737, 39.2917583 ] } },
{ "type": "Feature", "properties": { "id": "09669639033", "state": "Virginia", "state_abb": "VA", "state_id": "51", "county": "Fairfax County", "county_id": "059", "operator": "Lumen Technologies", "ref": null, "name": "Lumen McLean", "sqft": null, "lon": -77.2115713, "lat": 38.9208538, "type": "point" }, "geometry": { "type": "Point", "coordinates": [ -77.2115713, 38.9208538 ] } },
{ "type": "Feature", "properties": { "id": "09721703993", "state": "Wisconsin", "state_abb": "WI", "state_id": "55", "county": "Milwaukee County", "county_id": "079", "operator": null, "ref": null, "name": "TierPoint Milwaukee", "sqft": null, "lon": -87.9610618, "lat": 43.0093779, "type": "point" }, "geometry": { "type": "Point", "coordinates": [ -87.9610618, 43.009377899999947 ] } },
{ "type": "Feature", "properties": { "id": "09736262934", "state": "New York", "state_abb": "NY", "state_id": "36", "county": "Erie County", "county_id": "029", "operator": null, "ref": null, "name": "Frontier Science", "sqft": null, "lon": -78.8123836, "lat": 42.9902011, "type": "point" }, "geometry": { "type": "Point", "coordinates": [ -78.8123836, 42.990201099999986 ] } },
{ "type": "Feature", "properties": { "id": "09808044830", "state": "New Mexico", "state_abb": "NM", "state_id": "35", "county": "Bernalillo County", "county_id": "001", "operator": null, "ref": null, "name": "505 Marquette", "sqft": null, "lon": -106.6526456, "lat": 35.0886289, "type": "point" }, "geometry": { "type": "Point", "coordinates": [ -106.652645600000014, 35.088628899999954 ] } },
{ "type": "Feature", "properties": { "id": "09808044840", "state": "New Mexico", "state_abb": "NM", "state_id": "35", "county": "Bernalillo County", "county_id": "001", "operator": "bigbyte.cc", "ref": null, "name": "123 Central", "sqft": null, "lon": -106.6489853, "lat": 35.0844494, "type": "point" }, "geometry": { "type": "Point", "coordinates": [ -106.6489853, 35.084449400000018 ] } },
{ "type": "Feature", "properties": { "id": "09861806598", "state": "Missouri", "state_abb": "MO", "state_id": "29", "county": "Jackson County", "county_id": "095", "operator": null, "ref": null, "name": null, "sqft": null, "lon": -94.5788209, "lat": 39.1011816000001, "type": "point" }, "geometry": { "type": "Point", "coordinates": [ -94.578820900000011, 39.101181600000075 ] } },
{ "type": "Feature", "properties": { "id": "09922928085", "state": "Missouri", "state_abb": "MO", "state_id": "29", "county": "Jackson County", "county_id": "095", "operator": null, "ref": null, "name": "Netrality Data Centers", "sqft": null, "lon": -94.5811452, "lat": 39.1009071, "type": "point" }, "geometry": { "type": "Point", "coordinates": [ -94.5811452, 39.100907099999979 ] } },
{ "type": "Feature", "properties": { "id": "10014176940", "state": "Puerto Rico", "state_abb": "PR", "state_id": "72", "county": "Guaynabo Municipio", "county_id": "061", "operator": "Microsoft", "ref": null, "name": "Microsoft", "sqft": null, "lon": -66.1089895, "lat": 18.4174359, "type": "point" }, "geometry": { "type": "Point", "coordinates": [ -66.108989500000021, 18.417435900000012 ] } },
{ "type": "Feature", "properties": { "id": "10537283366", "state": "Illinois", "state_abb": "IL", "state_id": "17", "county": "Cook County", "county_id": "031", "operator": "Netrality", "ref": null, "name": "Netrality", "sqft": null, "lon": -87.63344, "lat": 41.8728811, "type": "point" }, "geometry": { "type": "Point", "coordinates": [ -87.63344, 41.872881100000015 ] } },
{ "type": "Feature", "properties": { "id": "10567817971", "state": "North Carolina", "state_abb": "NC", "state_id": "37", "county": "Durham County", "county_id": "063", "operator": "Duke Libraries", "ref": null, "name": "Brandaleone Lab for Data and Visualization", "sqft": null, "lon": -78.9385323, "lat": 36.0030993, "type": "point" }, "geometry": { "type": "Point", "coordinates": [ -78.9385323, 36.003099299999967 ] } },
{ "type": "Feature", "properties": { "id": "10648552506", "state": "Tennessee", "state_abb": "TN", "state_id": "47", "county": "Roane County", "county_id": "145", "operator": "Oak Ridge National Laboratory", "ref": null, "name": "Frontier (supercomputer)", "sqft": null, "lon": -84.310567, "lat": 35.9295133, "type": "point" }, "geometry": { "type": "Point", "coordinates": [ -84.310567, 35.929513299999982 ] } },
{ "type": "Feature", "properties": { "id": "10780794741", "state": "California", "state_abb": "CA", "state_id": "06", "county": "San Francisco County", "county_id": "075", "operator": "Ntirety", "ref": null, "name": null, "sqft": null, "lon": -122.3940005, "lat": 37.7796531, "type": "point" }, "geometry": { "type": "Point", "coordinates": [ -122.3940005, 37.7796531 ] } },
{ "type": "Feature", "properties": { "id": "10796113031", "state": "Arizona", "state_abb": "AZ", "state_id": "04", "county": "Maricopa County", "county_id": "013", "operator": null, "ref": null, "name": "VaultLogix", "sqft": null, "lon": -111.9017033, "lat": 33.627367, "type": "point" }, "geometry": { "type": "Point", "coordinates": [ -111.9017033, 33.627367 ] } },
{ "type": "Feature", "properties": { "id": "10796113033", "state": "Arizona", "state_abb": "AZ", "state_id": "04", "county": "Maricopa County", "county_id": "013", "operator": null, "ref": null, "name": "Profit Finder Pro Software", "sqft": null, "lon": -111.9020476, "lat": 33.6272477, "type": "point" }, "geometry": { "type": "Point", "coordinates": [ -111.9020476, 33.6272477 ] } },
{ "type": "Feature", "properties": { "id": "10798644674", "state": "Arizona", "state_abb": "AZ", "state_id": "04", "county": "Maricopa County", "county_id": "013", "operator": null, "ref": null, "name": "DataPro USA Web Development", "sqft": null, "lon": -111.9139825, "lat": 33.6116624, "type": "point" }, "geometry": { "type": "Point", "coordinates": [ -111.9139825, 33.611662399999972 ] } },
{ "type": "Feature", "properties": { "id": "10880725408", "state": "California", "state_abb": "CA", "state_id": "06", "county": "Contra Costa County", "county_id": "013", "operator": null, "ref": null, "name": "e360", "sqft": null, "lon": -122.0437382, "lat": 37.9710809, "type": "point" }, "geometry": { "type": "Point", "coordinates": [ -122.0437382, 37.971080899999976 ] } },
{ "type": "Feature", "properties": { "id": "10910879064", "state": "Illinois", "state_abb": "IL", "state_id": "17", "county": "Cook County", "county_id": "031", "operator": "Digital Realty", "ref": "ORD10", "name": "Digital Realty ORD10", "sqft": null, "lon": -87.6183067, "lat": 41.8533507, "type": "point" }, "geometry": { "type": "Point", "coordinates": [ -87.6183067, 41.853350700000014 ] } },
{ "type": "Feature", "properties": { "id": "10910879065", "state": "Illinois", "state_abb": "IL", "state_id": "17", "county": "Cook County", "county_id": "031", "operator": "Centersquare", "ref": "ORD1", "name": "Centersquare Chicago Data Center - ORD1", "sqft": null, "lon": -87.6186071, "lat": 41.8533827, "type": "point" }, "geometry": { "type": "Point", "coordinates": [ -87.6186071, 41.853382700000033 ] } },
{ "type": "Feature", "properties": { "id": "10938672218", "state": "Arizona", "state_abb": "AZ", "state_id": "04", "county": "Maricopa County", "county_id": "013", "operator": null, "ref": null, "name": "K-Motion Interactive", "sqft": null, "lon": -111.8843457, "lat": 33.6344843, "type": "point" }, "geometry": { "type": "Point", "coordinates": [ -111.8843457, 33.634484299999968 ] } },
{ "type": "Feature", "properties": { "id": "10945121336", "state": "Illinois", "state_abb": "IL", "state_id": "17", "county": "Cook County", "county_id": "031", "operator": null, "ref": null, "name": "West Monroe", "sqft": null, "lon": -87.6359383, "lat": 41.8805271, "type": "point" }, "geometry": { "type": "Point", "coordinates": [ -87.6359383, 41.8805271 ] } },
{ "type": "Feature", "properties": { "id": "11018926315", "state": "Arizona", "state_abb": "AZ", "state_id": "04", "county": "Maricopa County", "county_id": "013", "operator": null, "ref": null, "name": "Iron Mountain Data Centers AZS-1", "sqft": null, "lon": -111.8960985, "lat": 33.6446663, "type": "point" }, "geometry": { "type": "Point", "coordinates": [ -111.8960985, 33.644666300000033 ] } },
{ "type": "Feature", "properties": { "id": "11098469355", "state": "Illinois", "state_abb": "IL", "state_id": "17", "county": "Cook County", "county_id": "031", "operator": "CoreSite", "ref": "CH1", "name": "CoreSite Chicago Data Center (CH1)", "sqft": null, "lon": -87.6314655, "lat": 41.8759405, "type": "point" }, "geometry": { "type": "Point", "coordinates": [ -87.6314655, 41.8759405 ] } },
{ "type": "Feature", "properties": { "id": "11113161710", "state": "Arizona", "state_abb": "AZ", "state_id": "04", "county": "Maricopa County", "county_id": "013", "operator": null, "ref": null, "name": "Accelera Data Systems", "sqft": null, "lon": -112.1117142, "lat": 33.6647455, "type": "point" }, "geometry": { "type": "Point", "coordinates": [ -112.1117142, 33.664745499999945 ] } },
{ "type": "Feature", "properties": { "id": "11167641842", "state": "Maryland", "state_abb": "MD", "state_id": "24", "county": "Baltimore County", "county_id": "005", "operator": "Expedient", "ref": null, "name": "Expedient Owings Mills", "sqft": null, "lon": -76.8115503, "lat": 39.4273178, "type": "point" }, "geometry": { "type": "Point", "coordinates": [ -76.8115503, 39.4273178 ] } },
{ "type": "Feature", "properties": { "id": "11168593074", "state": "Maryland", "state_abb": "MD", "state_id": "24", "county": "Baltimore city", "county_id": "510", "operator": "Lumen Technologies", "ref": null, "name": "Lumen Baltimore", "sqft": null, "lon": -76.6204024, "lat": 39.2917592, "type": "point" }, "geometry": { "type": "Point", "coordinates": [ -76.6204024, 39.291759200000023 ] } },
{ "type": "Feature", "properties": { "id": "11168593094", "state": "Maryland", "state_abb": "MD", "state_id": "24", "county": "Baltimore city", "county_id": "510", "operator": "Expedient", "ref": null, "name": "Expedient Tidepoint", "sqft": null, "lon": -76.5916709, "lat": 39.2746554, "type": "point" }, "geometry": { "type": "Point", "coordinates": [ -76.5916709, 39.2746554 ] } },
{ "type": "Feature", "properties": { "id": "11400893880", "state": "Colorado", "state_abb": "CO", "state_id": "08", "county": "Arapahoe County", "county_id": "005", "operator": "Flexential", "ref": null, "name": "Flexential - Denver - Centennial Data Center", "sqft": null, "lon": -104.8431597, "lat": 39.5938733, "type": "point" }, "geometry": { "type": "Point", "coordinates": [ -104.8431597, 39.593873300000013 ] } },
{ "type": "Feature", "properties": { "id": "11526819452", "state": "Oregon", "state_abb": "OR", "state_id": "41", "county": "Lane County", "county_id": "039", "operator": null, "ref": null, "name": "EarthClick.net LLC", "sqft": null, "lon": -123.0559456, "lat": 43.7971554, "type": "point" }, "geometry": { "type": "Point", "coordinates": [ -123.055945600000015, 43.7971554 ] } },
{ "type": "Feature", "properties": { "id": "11666916913", "state": "Arizona", "state_abb": "AZ", "state_id": "04", "county": "Maricopa County", "county_id": "013", "operator": "EdgeConneX", "ref": null, "name": "EdgeConneX Data Center", "sqft": null, "lon": -111.9700762, "lat": 33.3955855, "type": "point" }, "geometry": { "type": "Point", "coordinates": [ -111.9700762, 33.395585500000017 ] } },
{ "type": "Feature", "properties": { "id": "11815482844", "state": "Michigan", "state_abb": "MI", "state_id": "26", "county": "Monroe County", "county_id": "115", "operator": null, "ref": null, "name": null, "sqft": null, "lon": -83.6276287, "lat": 41.8072817, "type": "point" }, "geometry": { "type": "Point", "coordinates": [ -83.6276287, 41.8072817 ] } },
{ "type": "Feature", "properties": { "id": "11924506303", "state": "California", "state_abb": "CA", "state_id": "06", "county": "Riverside County", "county_id": "065", "operator": null, "ref": null, "name": "IT", "sqft": null, "lon": -117.5030207, "lat": 33.9102899, "type": "point" }, "geometry": { "type": "Point", "coordinates": [ -117.5030207, 33.9102899 ] } },
{ "type": "Feature", "properties": { "id": "11938614120", "state": "Arizona", "state_abb": "AZ", "state_id": "04", "county": "Maricopa County", "county_id": "013", "operator": null, "ref": null, "name": "Alembic Computer Services, Inc.", "sqft": null, "lon": -111.9773353, "lat": 33.4051307, "type": "point" }, "geometry": { "type": "Point", "coordinates": [ -111.9773353, 33.40513069999998 ] } },
{ "type": "Feature", "properties": { "id": "11938631189", "state": "Arizona", "state_abb": "AZ", "state_id": "04", "county": "Maricopa County", "county_id": "013", "operator": null, "ref": null, "name": "J-Curve Technologies", "sqft": null, "lon": -111.9711539, "lat": 33.4131856, "type": "point" }, "geometry": { "type": "Point", "coordinates": [ -111.9711539, 33.413185599999956 ] } },
{ "type": "Feature", "properties": { "id": "12112201416", "state": "Ohio", "state_abb": "OH", "state_id": "39", "county": "Butler County", "county_id": "017", "operator": "Flexential", "ref": null, "name": "Flexential Cincinnati", "sqft": null, "lon": -84.4494638, "lat": 39.3159313, "type": "point" }, "geometry": { "type": "Point", "coordinates": [ -84.449463800000018, 39.315931300000031 ] } },
{ "type": "Feature", "properties": { "id": "12112236372", "state": "Colorado", "state_abb": "CO", "state_id": "08", "county": "Denver County", "county_id": "031", "operator": "Flexential", "ref": null, "name": "Flexential Denver - Downtown", "sqft": null, "lon": -104.9941589, "lat": 39.7459702, "type": "point" }, "geometry": { "type": "Point", "coordinates": [ -104.9941589, 39.745970200000023 ] } },
{ "type": "Feature", "properties": { "id": "12112238944", "state": "Texas", "state_abb": "TX", "state_id": "48", "county": "Dallas County", "county_id": "113", "operator": "Flexential", "ref": null, "name": "Flexential Dallas - Downtown Dallas", "sqft": null, "lon": -96.8193707, "lat": 32.8004101, "type": "point" }, "geometry": { "type": "Point", "coordinates": [ -96.8193707, 32.800410099999986 ] } },
{ "type": "Feature", "properties": { "id": "12112266917", "state": "Florida", "state_abb": "FL", "state_id": "12", "county": "Duval County", "county_id": "031", "operator": "Flexential", "ref": null, "name": "Flexential Jacksonville", "sqft": null, "lon": -81.5817226, "lat": 30.2457482, "type": "point" }, "geometry": { "type": "Point", "coordinates": [ -81.5817226, 30.2457482 ] } },
{ "type": "Feature", "properties": { "id": "12112270180", "state": "Colorado", "state_abb": "CO", "state_id": "08", "county": "Arapahoe County", "county_id": "005", "operator": "Flexential", "ref": null, "name": "Flexential - Denver - Aurora", "sqft": null, "lon": -104.8488321, "lat": 39.6610488, "type": "point" }, "geometry": { "type": "Point", "coordinates": [ -104.8488321, 39.661048800000017 ] } },
{ "type": "Feature", "properties": { "id": "12112295055", "state": "Tennessee", "state_abb": "TN", "state_id": "47", "county": "Williamson County", "county_id": "187", "operator": "Flexential", "ref": null, "name": "Flexential Nashville - Brentwood", "sqft": null, "lon": -86.8084949, "lat": 35.9727294, "type": "point" }, "geometry": { "type": "Point", "coordinates": [ -86.8084949, 35.972729399999956 ] } },
{ "type": "Feature", "properties": { "id": "12112361725", "state": "North Carolina", "state_abb": "NC", "state_id": "37", "county": "Wake County", "county_id": "183", "operator": "Flexential", "ref": null, "name": "Flexential Raleigh", "sqft": null, "lon": -78.8291431, "lat": 35.8505281, "type": "point" }, "geometry": { "type": "Point", "coordinates": [ -78.8291431, 35.8505281 ] } },
{ "type": "Feature", "properties": { "id": "12112380995", "state": "Florida", "state_abb": "FL", "state_id": "12", "county": "Hillsborough County", "county_id": "057", "operator": "Flexential", "ref": null, "name": "Flexential Tampa - West", "sqft": null, "lon": -82.5399781, "lat": 28.0372991, "type": "point" }, "geometry": { "type": "Point", "coordinates": [ -82.5399781, 28.037299100000027 ] } },
{ "type": "Feature", "properties": { "id": "12112382397", "state": "Utah", "state_abb": "UT", "state_id": "49", "county": "Utah County", "county_id": "049", "operator": "Flexential", "ref": null, "name": "Flexential Salt Lake City - Lindon", "sqft": null, "lon": -111.7278754, "lat": 40.332648, "type": "point" }, "geometry": { "type": "Point", "coordinates": [ -111.7278754, 40.332648 ] } },
{ "type": "Feature", "properties": { "id": "12221811811", "state": "New York", "state_abb": "NY", "state_id": "36", "county": "New York County", "county_id": "061", "operator": "Digital Realty", "ref": "JFK13", "name": "Digital Realty New York JFK13", "sqft": null, "lon": -74.0044583, "lat": 40.719928, "type": "point" }, "geometry": { "type": "Point", "coordinates": [ -74.00445830000001, 40.719928 ] } },
{ "type": "Feature", "properties": { "id": "12221880448", "state": "New York", "state_abb": "NY", "state_id": "36", "county": "New York County", "county_id": "061", "operator": "Digital Realty", "ref": "JFK12", "name": "Digital Realty New York JFK12", "sqft": null, "lon": -74.0084414, "lat": 40.7176766, "type": "point" }, "geometry": { "type": "Point", "coordinates": [ -74.0084414, 40.7176766 ] } },
{ "type": "Feature", "properties": { "id": "12331366645", "state": "Georgia", "state_abb": "GA", "state_id": "13", "county": "Fulton County", "county_id": "121", "operator": "CoreSite", "ref": "AT1", "name": "CoreSite AT1", "sqft": null, "lon": -84.3911712, "lat": 33.7559857, "type": "point" }, "geometry": { "type": "Point", "coordinates": [ -84.3911712, 33.755985699999989 ] } },
{ "type": "Feature", "properties": { "id": "12387534800", "state": "New Mexico", "state_abb": "NM", "state_id": "35", "county": "Bernalillo County", "county_id": "001", "operator": "UNM", "ref": "UNM", "name": "UNM Data Center", "sqft": null, "lon": -106.6153476, "lat": 35.0867385, "type": "point" }, "geometry": { "type": "Point", "coordinates": [ -106.6153476, 35.086738499999981 ] } },
{ "type": "Feature", "properties": { "id": "12437277166", "state": "California", "state_abb": "CA", "state_id": "06", "county": "Santa Clara County", "county_id": "085", "operator": "Prime", "ref": null, "name": "Prime Santa Clara", "sqft": null, "lon": -121.9628653, "lat": 37.3666621, "type": "point" }, "geometry": { "type": "Point", "coordinates": [ -121.9628653, 37.3666621 ] } },
{ "type": "Feature", "properties": { "id": "12452254071", "state": "New Jersey", "state_abb": "NJ", "state_id": "34", "county": "Middlesex County", "county_id": "023", "operator": null, "ref": null, "name": "Open Data Centers Piscataway", "sqft": null, "lon": -74.4568563, "lat": 40.5503501, "type": "point" }, "geometry": { "type": "Point", "coordinates": [ -74.4568563, 40.550350100000031 ] } },
{ "type": "Feature", "properties": { "id": "12471740457", "state": "New Jersey", "state_abb": "NJ", "state_id": "34", "county": "Hudson County", "county_id": "017", "operator": "H5", "ref": null, "name": "H5 Secaucus", "sqft": null, "lon": -74.0750122, "lat": 40.7853948, "type": "point" }, "geometry": { "type": "Point", "coordinates": [ -74.0750122, 40.7853948 ] } },
{ "type": "Feature", "properties": { "id": "12550746951", "state": "California", "state_abb": "CA", "state_id": "06", "county": "Santa Clara County", "county_id": "085", "operator": null, "ref": null, "name": "Forescout Technologies, Inc.", "sqft": null, "lon": -121.9474176, "lat": 37.3228675, "type": "point" }, "geometry": { "type": "Point", "coordinates": [ -121.9474176, 37.322867500000015 ] } },
{ "type": "Feature", "properties": { "id": "12682482760", "state": "New York", "state_abb": "NY", "state_id": "36", "county": "Albany County", "county_id": "001", "operator": "Lumen Technologies", "ref": null, "name": "Lumen Albany 4", "sqft": null, "lon": -73.818665, "lat": 42.7356308, "type": "point" }, "geometry": { "type": "Point", "coordinates": [ -73.818665, 42.73563079999996 ] } },
{ "type": "Feature", "properties": { "id": "12695496267", "state": "Illinois", "state_abb": "IL", "state_id": "17", "county": "Cook County", "county_id": "031", "operator": "Equinix", "ref": "CH1", "name": "Equinix Chicago Data Center - CH1", "sqft": null, "lon": -87.6180475, "lat": 41.8535578, "type": "point" }, "geometry": { "type": "Point", "coordinates": [ -87.6180475, 41.8535578 ] } },
{ "type": "Feature", "properties": { "id": "12708029111", "state": "New Jersey", "state_abb": "NJ", "state_id": "34", "county": "Mercer County", "county_id": "021", "operator": null, "ref": null, "name": "501 West", "sqft": null, "lon": -74.6688514, "lat": 40.315558, "type": "point" }, "geometry": { "type": "Point", "coordinates": [ -74.6688514, 40.315558 ] } },
{ "type": "Feature", "properties": { "id": "12766117170", "state": "New York", "state_abb": "NY", "state_id": "36", "county": "Kings County", "county_id": "047", "operator": "Dataverge", "ref": null, "name": "Dataverge", "sqft": null, "lon": -74.0048163, "lat": 40.6576957, "type": "point" }, "geometry": { "type": "Point", "coordinates": [ -74.0048163, 40.6576957 ] } },
{ "type": "Feature", "properties": { "id": "12793428582", "state": "Oklahoma", "state_abb": "OK", "state_id": "40", "county": "Tulsa County", "county_id": "143", "operator": null, "ref": null, "name": "TulsaConnect DC3", "sqft": null, "lon": -95.8382826, "lat": 36.0994735, "type": "point" }, "geometry": { "type": "Point", "coordinates": [ -95.8382826, 36.099473499999952 ] } },
{ "type": "Feature", "properties": { "id": "13019681063", "state": "Arizona", "state_abb": "AZ", "state_id": "04", "county": "Maricopa County", "county_id": "013", "operator": null, "ref": null, "name": "Comarch", "sqft": null, "lon": -111.6352356, "lat": 33.3566787, "type": "point" }, "geometry": { "type": "Point", "coordinates": [ -111.6352356, 33.356678700000032 ] } },
{ "type": "Feature", "properties": { "id": "13042311881", "state": "California", "state_abb": "CA", "state_id": "06", "county": "Los Angeles County", "county_id": "037", "operator": "CoreSite", "ref": "LA2", "name": "CoreSite - LA2", "sqft": null, "lon": -118.2359144, "lat": 34.0584789, "type": "point" }, "geometry": { "type": "Point", "coordinates": [ -118.235914399999984, 34.0584789 ] } },
{ "type": "Feature", "properties": { "id": "13154826377", "state": "Virginia", "state_abb": "VA", "state_id": "51", "county": "Loudoun County", "county_id": "107", "operator": "Equinix", "ref": "DC22", "name": "Equinix", "sqft": null, "lon": -77.4537977, "lat": 39.0137917, "type": "point" }, "geometry": { "type": "Point", "coordinates": [ -77.45379770000001, 39.0137917 ] } },
{ "type": "Feature", "properties": { "id": "13154826378", "state": "Virginia", "state_abb": "VA", "state_id": "51", "county": "Loudoun County", "county_id": "107", "operator": "NTT", "ref": "VA7", "name": "NTT Ashburn VA7 Data Center", "sqft": null, "lon": -77.471954, "lat": 39.0160142, "type": "point" }, "geometry": { "type": "Point", "coordinates": [ -77.471954, 39.016014199999958 ] } },
{ "type": "Feature", "properties": { "id": "13154826379", "state": "Virginia", "state_abb": "VA", "state_id": "51", "county": "Prince William County", "county_id": "153", "operator": "NTT", "ref": "VA11", "name": "NTT VA11 Data Center", "sqft": null, "lon": -77.6099636, "lat": 38.7999731, "type": "point" }, "geometry": { "type": "Point", "coordinates": [ -77.6099636, 38.799973099999953 ] } },
{ "type": "Feature", "properties": { "id": "13226718075", "state": "Wisconsin", "state_abb": "WI", "state_id": "55", "county": "Dane County", "county_id": "025", "operator": "Lumen Technologies", "ref": null, "name": "Lumen Madison 1 Data Center", "sqft": null, "lon": -89.3922794, "lat": 43.0677161, "type": "point" }, "geometry": { "type": "Point", "coordinates": [ -89.3922794, 43.0677161 ] } },
{ "type": "Feature", "properties": { "id": "13311012216", "state": "Nevada", "state_abb": "NV", "state_id": "32", "county": "Clark County", "county_id": "003", "operator": "Fiberhub", "ref": "LAS1", "name": "Fiberhub LAS1", "sqft": null, "lon": -115.1398835, "lat": 36.0659405, "type": "point" }, "geometry": { "type": "Point", "coordinates": [ -115.1398835, 36.065940500000025 ] } },
{ "type": "Feature", "properties": { "id": "13409186015", "state": "Pennsylvania", "state_abb": "PA", "state_id": "42", "county": "Montgomery County", "county_id": "091", "operator": null, "ref": null, "name": "DāStor: 3400 Horizon Drive", "sqft": null, "lon": -75.3397205, "lat": 40.0879189, "type": "point" }, "geometry": { "type": "Point", "coordinates": [ -75.3397205, 40.0879189 ] } },
{ "type": "Feature", "properties": { "id": "13465438761", "state": "Texas", "state_abb": "TX", "state_id": "48", "county": "Dallas County", "county_id": "113", "operator": null, "ref": null, "name": "Rad Web Hosting", "sqft": null, "lon": -96.798496, "lat": 32.7784469, "type": "point" }, "geometry": { "type": "Point", "coordinates": [ -96.798496, 32.7784469 ] } },
{ "type": "Feature", "properties": { "id": "13527396782", "state": "Washington", "state_abb": "WA", "state_id": "53", "county": "Snohomish County", "county_id": "061", "operator": null, "ref": null, "name": null, "sqft": null, "lon": -122.1915316, "lat": 47.9587441, "type": "point" }, "geometry": { "type": "Point", "coordinates": [ -122.191531600000019, 47.958744099999969 ] } }
]
}
