{
"type": "FeatureCollection",
"name": "analysis_units_screening",
"crs": { "type": "name", "properties": { "name": "urn:ogc:def:crs:OGC:1.3:CRS84" } },
"features": [
{ "type": "Feature", "properties": { "analysis_unit_id": "aligned_northlake_ord01_ord02", "canonical_name": "Aligned Northlake ORD-01/ORD-02 campus", "operator": "Aligned Data Centers", "taxonomy_group_id": "large_purpose_built_data_center", "scope_disposition": "included", "review_state": "automated_screened_document_checked", "identity_confidence": "high", "construction_start": "2021-04-28", "construction_start_precision": "day", "operational_or_completion": "2022-04-19", "timeline_summary": "ORD01 broke ground 28 Apr 2021; ORD01 launched and adjacent ORD02 broke ground 19 Apr 2022.", "predevelopment_land_use": "previously_developed_site", "predevelopment_confidence": "medium", "nlcd_2001_agriculture_pct": 0.0, "nlcd_2001_developed_pct": 100.0, "cdl_2008_crops_pct": 0.0, "cdl_2008_pasture_hay_pct": 0.0, "dynamic_world_screening_result": "predates_dynamic_world_or_mature_by_2016", "dynamic_world_candidate_start_lower_year": null, "dynamic_world_candidate_start_upper_year": 2016, "neighbor_contamination_flag": false, "source_geometry_class": "mapped_roof_or_roof_union", "source_geometry_area_m2": 28407.2, "source_geometry_area_acres": 7.02, "mapped_roof_area_m2": 28407.2, "mapped_roof_area_sqft": 305773.0, "overture_candidate_count": 5, "overture_candidate_area_m2": 103055.2, "dynamic_world_2026_built_surface_area_m2": 94525.1, "dynamic_world_2026_built_surface_area_acres": 23.36, "approved_plan_roof_area_m2": null, "disturbed_area_m2": null, "disturbed_area_acres": null, "disturbance_status": "pending_site_scale_delineation" }, "geometry": { "type": "MultiPolygon", "coordinates": [ [ [ [ -87.9164992, 41.9126793 ], [ -87.9183238, 41.912675799999974 ], [ -87.9183244, 41.912839399999946 ], [ -87.9186789, 41.912838699999959 ], [ -87.9186797, 41.913072299999982 ], [ -87.918321700000021, 41.91307310000002 ], [ -87.9183223, 41.913246400000013 ], [ -87.9165012, 41.913249900000025 ], [ -87.9164992, 41.9126793 ] ] ], [ [ [ -87.9190228, 41.9142497 ], [ -87.9178437, 41.9142435 ], [ -87.91785, 41.914353499999962 ], [ -87.9161383, 41.914347200000037 ], [ -87.916115100000013, 41.9142372 ], [ -87.9160031, 41.9142356 ], [ -87.9159976, 41.91365320000002 ], [ -87.9190351, 41.9136617 ], [ -87.9190228, 41.9142497 ] ] ] ] } },
{ "type": "Feature", "properties": { "analysis_unit_id": "aurora_cyrusone_chi1_chi2", "canonical_name": "CyrusOne Aurora CHI1-CHI2", "operator": "CyrusOne", "taxonomy_group_id": "large_purpose_built_data_center", "scope_disposition": "included", "review_state": "qa_complete_reference", "identity_confidence": "high", "construction_start": "2016", "construction_start_precision": "year", "operational_or_completion": null, "timeline_summary": "Aurora proof-of-concept timeline and phase metrics retained as the reviewed regression fixture.", "predevelopment_land_use": "agricultural", "predevelopment_confidence": "high", "nlcd_2001_agriculture_pct": 23.1, "nlcd_2001_developed_pct": 61.8, "cdl_2008_crops_pct": 0.5, "cdl_2008_pasture_hay_pct": 1.7, "dynamic_world_screening_result": "candidate_construction_or_major_redevelopment", "dynamic_world_candidate_start_lower_year": 2016.0, "dynamic_world_candidate_start_upper_year": 2017, "neighbor_contamination_flag": false, "source_geometry_class": "mapped_roof_or_roof_union", "source_geometry_area_m2": 60573.5, "source_geometry_area_acres": 14.97, "mapped_roof_area_m2": 60573.483206059405, "mapped_roof_area_sqft": 652008.0, "overture_candidate_count": 4, "overture_candidate_area_m2": 61775.9, "dynamic_world_2026_built_surface_area_m2": 147719.7, "dynamic_world_2026_built_surface_area_acres": 36.5, "approved_plan_roof_area_m2": null, "disturbed_area_m2": 165078.94332736099, "disturbed_area_acres": 40.791895263104102, "disturbance_status": "reviewed_aurora_poc_estimate" }, "geometry": { "type": "MultiPolygon", "coordinates": [ [ [ [ -88.2477189, 41.795982099999989 ], [ -88.2472447, 41.7960596 ], [ -88.247197900000018, 41.7959005 ], [ -88.2470904, 41.795918 ], [ -88.2471012, 41.7959548 ], [ -88.2470863, 41.795957199999933 ], [ -88.2469582, 41.7959782 ], [ -88.246974, 41.796031099999979 ], [ -88.2469938, 41.796100099999947 ], [ -88.246876, 41.796118800000031 ], [ -88.2465207, 41.7961771 ], [ -88.2464736, 41.796016899999934 ], [ -88.2464305, 41.796024 ], [ -88.2464267, 41.7960111 ], [ -88.24640260000001, 41.795929199999946 ], [ -88.2464004, 41.7959215 ], [ -88.246452, 41.795913099999936 ], [ -88.246146, 41.7948719 ], [ -88.24615, 41.794871199999974 ], [ -88.2461714, 41.794867700000026 ], [ -88.2461846, 41.794865600000044 ], [ -88.2461532, 41.794758799999983 ], [ -88.2462119, 41.7947492 ], [ -88.2462984, 41.794735 ], [ -88.2463092, 41.794771700000048 ], [ -88.2471729, 41.79463060000004 ], [ -88.247162, 41.79459350000004 ], [ -88.2472457, 41.794579800000015 ], [ -88.2472516, 41.7945789 ], [ -88.2472644, 41.794576799999966 ], [ -88.2472959, 41.794684299999972 ], [ -88.2473148, 41.7946812 ], [ -88.2473338, 41.7946781 ], [ -88.2476416, 41.795725500000017 ], [ -88.2477081, 41.795714699999984 ], [ -88.2477836, 41.795971599999952 ], [ -88.2477189, 41.795982099999989 ] ] ], [ [ [ -88.2436272, 41.796160499999971 ], [ -88.2437699, 41.796160499999971 ], [ -88.2437698, 41.796037400000024 ], [ -88.2445939, 41.796036899999983 ], [ -88.244594, 41.796119400000023 ], [ -88.2446914, 41.796119299999951 ], [ -88.2446914, 41.796159200000027 ], [ -88.2450326, 41.796159 ], [ -88.245034, 41.7974449 ], [ -88.2450856, 41.797444899999981 ], [ -88.2450856, 41.797506799999979 ], [ -88.2450856, 41.797516799999968 ], [ -88.2453255, 41.797516599999952 ], [ -88.2453256, 41.797597699999955 ], [ -88.245293500000017, 41.797597699999983 ], [ -88.2452596, 41.797597699999962 ], [ -88.2452597, 41.797644599999963 ], [ -88.2448536, 41.797644799999951 ], [ -88.2448536, 41.797676 ], [ -88.2448016, 41.797676 ], [ -88.2447429, 41.797676 ], [ -88.2447429, 41.7976427 ], [ -88.244418, 41.7976429 ], [ -88.244418, 41.797652399999961 ], [ -88.2443574, 41.797652399999961 ], [ -88.2440495, 41.7976526 ], [ -88.2440495, 41.797642 ], [ -88.2437914, 41.797642200000034 ], [ -88.2437913, 41.797594399999973 ], [ -88.2437244, 41.797594399999973 ], [ -88.2437244, 41.7975167 ], [ -88.2436329, 41.797516799999968 ], [ -88.243633, 41.797589099999961 ], [ -88.2432202, 41.797589399999985 ], [ -88.2426353, 41.79758970000001 ], [ -88.2426353, 41.79760480000003 ], [ -88.2425524, 41.797604800000038 ], [ -88.2425525, 41.79761 ], [ -88.2426022, 41.79761 ], [ -88.2426023, 41.797623 ], [ -88.2426023, 41.797653500000052 ], [ -88.2425543, 41.797653500000052 ], [ -88.2425543, 41.797660300000032 ], [ -88.242497, 41.7976604 ], [ -88.242497, 41.797654099999932 ], [ -88.2424179, 41.797654200000046 ], [ -88.2424178, 41.797604900000046 ], [ -88.2423253, 41.7976049 ], [ -88.2423251, 41.797471599999987 ], [ -88.2423426, 41.7974716 ], [ -88.2423407, 41.7956713 ], [ -88.242321, 41.7956713 ], [ -88.2423208, 41.7955397 ], [ -88.2426292, 41.795539499999975 ], [ -88.2426292, 41.795552399999934 ], [ -88.243626600000013, 41.795551899999957 ], [ -88.2436272, 41.796160499999971 ] ] ] ] } },
{ "type": "Feature", "properties": { "analysis_unit_id": "edgeconnex_elk_grove_chi01_chi02", "canonical_name": "EdgeConneX Elk Grove CHI01-CHI02 campus", "operator": "EdgeConneX", "taxonomy_group_id": "industrial_park_warehouse_style_colo", "scope_disposition": "included", "review_state": "automated_screened_document_checked", "identity_confidence": "high", "construction_start": null, "construction_start_precision": null, "operational_or_completion": null, "timeline_summary": "CHI01 and CHI02 are documented as one operating Chicago campus; exact conversion/construction dates remain unresolved.", "predevelopment_land_use": "previously_developed_industrial_area", "predevelopment_confidence": "medium", "nlcd_2001_agriculture_pct": 0.0, "nlcd_2001_developed_pct": 100.0, "cdl_2008_crops_pct": 0.0, "cdl_2008_pasture_hay_pct": 0.0, "dynamic_world_screening_result": "predates_dynamic_world_or_mature_by_2016", "dynamic_world_candidate_start_lower_year": null, "dynamic_world_candidate_start_upper_year": 2016, "neighbor_contamination_flag": true, "source_geometry_class": "mapped_roof_or_roof_union", "source_geometry_area_m2": 17134.2, "source_geometry_area_acres": 4.23, "mapped_roof_area_m2": 17134.2, "mapped_roof_area_sqft": 184431.0, "overture_candidate_count": 19, "overture_candidate_area_m2": 172520.1, "dynamic_world_2026_built_surface_area_m2": 154509.6, "dynamic_world_2026_built_surface_area_acres": 38.18, "approved_plan_roof_area_m2": null, "disturbed_area_m2": null, "disturbed_area_acres": null, "disturbance_status": "pending_site_scale_delineation" }, "geometry": { "type": "MultiPolygon", "coordinates": [ [ [ [ -87.9496339, 42.001060099999947 ], [ -87.9496173, 42.0005297 ], [ -87.9519034, 42.0004902 ], [ -87.9519199, 42.001020799999985 ], [ -87.9496339, 42.001060099999947 ] ] ], [ [ [ -87.9522691, 42.0020239 ], [ -87.9522392, 42.000973299999977 ], [ -87.9528598, 42.0009665 ], [ -87.9528856, 42.00201609999997 ], [ -87.9522691, 42.0020239 ] ] ] ] } },
{ "type": "Feature", "properties": { "analysis_unit_id": "element_critical_wood_dale_ch1_ch2", "canonical_name": "Element Critical Wood Dale CH1-CH2 campus", "operator": "Element Critical", "taxonomy_group_id": "industrial_park_warehouse_style_colo", "scope_disposition": "included", "review_state": "automated_screened_document_checked", "identity_confidence": "high", "construction_start": "2014", "construction_start_precision": "year_acquisition_modernization", "operational_or_completion": null, "timeline_summary": "Former ComDisco/SunGard facilities were purchased in 2014 and modernized; this is reuse, not greenfield construction.", "predevelopment_land_use": "previously_developed_data_center_industrial", "predevelopment_confidence": "high", "nlcd_2001_agriculture_pct": 0.0, "nlcd_2001_developed_pct": 100.0, "cdl_2008_crops_pct": 0.0, "cdl_2008_pasture_hay_pct": 0.0, "dynamic_world_screening_result": "predates_dynamic_world_or_mature_by_2016", "dynamic_world_candidate_start_lower_year": null, "dynamic_world_candidate_start_upper_year": 2016, "neighbor_contamination_flag": false, "source_geometry_class": "mapped_roof_or_roof_union", "source_geometry_area_m2": 12667.1, "source_geometry_area_acres": 3.13, "mapped_roof_area_m2": 12667.1, "mapped_roof_area_sqft": 136348.0, "overture_candidate_count": 33, "overture_candidate_area_m2": 82648.5, "dynamic_world_2026_built_surface_area_m2": 135863.3, "dynamic_world_2026_built_surface_area_acres": 33.57, "approved_plan_roof_area_m2": null, "disturbed_area_m2": null, "disturbed_area_acres": null, "disturbance_status": "pending_site_scale_delineation" }, "geometry": { "type": "MultiPolygon", "coordinates": [ [ [ [ -87.966802, 41.974522 ], [ -87.9667786, 41.973942200000018 ], [ -87.9675492, 41.9739318 ], [ -87.9675725, 41.9745133 ], [ -87.966802, 41.974522 ] ] ], [ [ [ -87.9648093, 41.975222 ], [ -87.9648093, 41.9751562 ], [ -87.9650266, 41.9751542 ], [ -87.9650373, 41.975305700000035 ], [ -87.9650963, 41.975303700000012 ], [ -87.9651044, 41.975381499999983 ], [ -87.9651339, 41.975377500000022 ], [ -87.9651365, 41.975632700000055 ], [ -87.9650427, 41.97563270000007 ], [ -87.9650534, 41.975802199999961 ], [ -87.9651178, 41.975810200000019 ], [ -87.9651339, 41.976227 ], [ -87.965107, 41.976227 ], [ -87.965107, 41.976296800000014 ], [ -87.9642514, 41.976310700000035 ], [ -87.9642461, 41.975882 ], [ -87.964270200000016, 41.975878 ], [ -87.9642514, 41.9752379 ], [ -87.9648093, 41.975222 ] ] ] ] } },
{ "type": "Feature", "properties": { "analysis_unit_id": "meta_dekalb_campus", "canonical_name": "Meta DeKalb Data Center campus", "operator": "Meta Platforms", "taxonomy_group_id": "hyperscale_greenfield_campus", "scope_disposition": "included", "review_state": "automated_screened_document_checked", "identity_confidence": "high", "construction_start": "2020", "construction_start_precision": "year", "operational_or_completion": "2023-11-29", "timeline_summary": "Meta broke ground in 2020; Building 2 received final occupancy in summer 2023; the campus began serving traffic in Nov 2023 while later buildings remained under construction.", "predevelopment_land_use": "agricultural_row_crop", "predevelopment_confidence": "high", "nlcd_2001_agriculture_pct": 97.3, "nlcd_2001_developed_pct": 2.7, "cdl_2008_crops_pct": 96.3, "cdl_2008_pasture_hay_pct": 0.1, "dynamic_world_screening_result": "candidate_construction_or_major_redevelopment", "dynamic_world_candidate_start_lower_year": 2019.0, "dynamic_world_candidate_start_upper_year": 2020, "neighbor_contamination_flag": false, "source_geometry_class": "mapped_campus_boundary", "source_geometry_area_m2": 1188182.6, "source_geometry_area_acres": 293.61, "mapped_roof_area_m2": null, "mapped_roof_area_sqft": null, "overture_candidate_count": 5, "overture_candidate_area_m2": 144152.0, "dynamic_world_2026_built_surface_area_m2": 90801.3, "dynamic_world_2026_built_surface_area_acres": 22.44, "approved_plan_roof_area_m2": null, "disturbed_area_m2": null, "disturbed_area_acres": null, "disturbance_status": "pending_site_scale_delineation" }, "geometry": { "type": "Polygon", "coordinates": [ [ [ -88.7361482, 41.889740699999969 ], [ -88.73618, 41.892678 ], [ -88.7317684, 41.8927059 ], [ -88.7289038, 41.892715900000042 ], [ -88.7263691, 41.8926959 ], [ -88.724902, 41.89262609999998 ], [ -88.7243146, 41.892630100000034 ], [ -88.7241536, 41.892526199999963 ], [ -88.7237325, 41.892520200000078 ], [ -88.7236467, 41.8926081 ], [ -88.7234536, 41.892662 ], [ -88.7232363, 41.892682 ], [ -88.7218845, 41.89269 ], [ -88.7194008, 41.8926979 ], [ -88.7193793, 41.88558160000003 ], [ -88.7388518, 41.8857091 ], [ -88.7387675, 41.889749799999976 ], [ -88.7361482, 41.889740699999969 ] ] ] } },
{ "type": "Feature", "properties": { "analysis_unit_id": "microsoft_elk_grove_campus", "canonical_name": "Microsoft Elk Grove CHI10-CHI12 campus", "operator": "Microsoft", "taxonomy_group_id": "industrial_park_warehouse_style_colo", "scope_disposition": "included", "review_state": "automated_screened_document_checked", "identity_confidence": "high", "construction_start": "2020", "construction_start_precision": "year_site_development", "operational_or_completion": null, "timeline_summary": "Village reporting says Microsoft began site development in 2020 on a 38-acre former Busse Farm tract; a second of three buildings was reported in 2024.", "predevelopment_land_use": "former_agricultural_then_serviced_industrial_park", "predevelopment_confidence": "high", "nlcd_2001_agriculture_pct": 0.0, "nlcd_2001_developed_pct": 100.0, "cdl_2008_crops_pct": 0.0, "cdl_2008_pasture_hay_pct": 0.0, "dynamic_world_screening_result": "candidate_construction_or_major_redevelopment", "dynamic_world_candidate_start_lower_year": 2017.0, "dynamic_world_candidate_start_upper_year": 2018, "neighbor_contamination_flag": true, "source_geometry_class": "mapped_roof_or_roof_union", "source_geometry_area_m2": 10256.6, "source_geometry_area_acres": 2.53, "mapped_roof_area_m2": 10256.6, "mapped_roof_area_sqft": 110401.0, "overture_candidate_count": 82, "overture_candidate_area_m2": 155698.6, "dynamic_world_2026_built_surface_area_m2": 381769.5, "dynamic_world_2026_built_surface_area_acres": 94.34, "approved_plan_roof_area_m2": null, "disturbed_area_m2": null, "disturbed_area_acres": null, "disturbance_status": "pending_site_scale_delineation" }, "geometry": { "type": "Polygon", "coordinates": [ [ [ -87.9732264, 42.022878799999965 ], [ -87.9711498, 42.022870600000012 ], [ -87.9711459, 42.0234077 ], [ -87.9732224, 42.0234162 ], [ -87.9732264, 42.022878799999965 ] ] ] } },
{ "type": "Feature", "properties": { "analysis_unit_id": "ntt_itasca_chicago_campus", "canonical_name": "NTT Itasca Chicago campus", "operator": "NTT", "taxonomy_group_id": "large_purpose_built_data_center", "scope_disposition": "included", "review_state": "automated_screened_document_checked", "identity_confidence": "high", "construction_start": "2019", "construction_start_precision": "imagery_interval_lower_bound", "operational_or_completion": "2021-02-25", "timeline_summary": "Dynamic World nominates 2019–2020 site change; NTT announced the first building open in Feb 2021 and documents a multi-building 19-acre campus.", "predevelopment_land_use": "previously_developed_site", "predevelopment_confidence": "medium", "nlcd_2001_agriculture_pct": 0.0, "nlcd_2001_developed_pct": 91.7, "cdl_2008_crops_pct": 0.0, "cdl_2008_pasture_hay_pct": 0.0, "dynamic_world_screening_result": "candidate_construction_or_major_redevelopment", "dynamic_world_candidate_start_lower_year": 2019.0, "dynamic_world_candidate_start_upper_year": 2020, "neighbor_contamination_flag": false, "source_geometry_class": "mapped_roof_or_roof_union", "source_geometry_area_m2": 38468.9, "source_geometry_area_acres": 9.51, "mapped_roof_area_m2": 38468.9, "mapped_roof_area_sqft": 414076.0, "overture_candidate_count": 13, "overture_candidate_area_m2": 67140.1, "dynamic_world_2026_built_surface_area_m2": 204574.1, "dynamic_world_2026_built_surface_area_acres": 50.55, "approved_plan_roof_area_m2": null, "disturbed_area_m2": null, "disturbed_area_acres": null, "disturbance_status": "pending_site_scale_delineation" }, "geometry": { "type": "MultiPolygon", "coordinates": [ [ [ [ -88.0083877, 41.987242700000017 ], [ -88.0070705, 41.986919400000019 ], [ -88.0072615, 41.986476 ], [ -88.007274700000011, 41.9864466 ], [ -88.0074412, 41.98648849999995 ], [ -88.0074275, 41.98651689999997 ], [ -88.0079199, 41.98664440000001 ], [ -88.0079336, 41.986613700000021 ], [ -88.0081019, 41.986657299999962 ], [ -88.0080896, 41.986684799999985 ], [ -88.0085315, 41.986797700000011 ], [ -88.008545400000017, 41.986766499999966 ], [ -88.0088987, 41.986860399999969 ], [ -88.00863, 41.987435 ], [ -88.0083334, 41.987359900000072 ], [ -88.0083877, 41.987242700000017 ] ] ], [ [ [ -88.0080947, 41.9881497 ], [ -88.0060345, 41.988132300000032 ], [ -88.006038600000011, 41.98768890000003 ], [ -88.0060254, 41.98768890000003 ], [ -88.0060264, 41.987648099999973 ], [ -88.0062033, 41.987649599999941 ], [ -88.0062033, 41.987681299999963 ], [ -88.0067013, 41.987685100000043 ], [ -88.0067013, 41.987654099999986 ], [ -88.0068771, 41.987654900000024 ], [ -88.0068761, 41.987685100000057 ], [ -88.0073975, 41.987691100000028 ], [ -88.0073975, 41.987658699999947 ], [ -88.0075757, 41.987660800000022 ], [ -88.0075757, 41.987689699999969 ], [ -88.0080429, 41.987693599999957 ], [ -88.0080429, 41.987660800000022 ], [ -88.008418, 41.9876673 ], [ -88.008406, 41.988275599999966 ], [ -88.0080927, 41.988273600000056 ], [ -88.0080947, 41.9881497 ] ] ], [ [ [ -88.008090100000018, 41.989200899999986 ], [ -88.0060308, 41.989185699999979 ], [ -88.006037400000011, 41.988688100000012 ], [ -88.0061903, 41.988689200000017 ], [ -88.0061898, 41.9887239 ], [ -88.0067132, 41.9887278 ], [ -88.0067137, 41.988693799999972 ], [ -88.0068633, 41.9886949 ], [ -88.0068628, 41.988727700000027 ], [ -88.0073996, 41.9887318 ], [ -88.0074002, 41.988693199999986 ], [ -88.0075666, 41.9886945 ], [ -88.0075661, 41.988731499999986 ], [ -88.0080388, 41.9887351 ], [ -88.0080393, 41.988696599999976 ], [ -88.0083954, 41.9886992 ], [ -88.0083868, 41.98934179999997 ], [ -88.0080882, 41.9893396 ], [ -88.008090100000018, 41.989200899999986 ] ] ], [ [ [ -88.0044461, 41.9899229 ], [ -88.0044562, 41.989552799999984 ], [ -88.0044145, 41.9895525 ], [ -88.0044173, 41.989421899999968 ], [ -88.0044579, 41.989422900000029 ], [ -88.0044712, 41.98903540000002 ], [ -88.0044276, 41.989035099999981 ], [ -88.0044322, 41.9889027 ], [ -88.0044711, 41.988903 ], [ -88.004481, 41.988555799999979 ], [ -88.0044368, 41.988555500000025 ], [ -88.004449300000019, 41.9882767 ], [ -88.0051022, 41.988288599999969 ], [ -88.0050511, 41.989926 ], [ -88.0044461, 41.9899229 ] ] ] ] } },
{ "type": "Feature", "properties": { "analysis_unit_id": "site_00614", "canonical_name": "Stream Chicago I", "operator": "Stream", "taxonomy_group_id": "industrial_park_warehouse_style_colo", "scope_disposition": "included", "review_state": "automated_screened_document_checked", "identity_confidence": "medium", "construction_start": "2017-12", "construction_start_precision": "month_acquisition_reconstruction", "operational_or_completion": "2020", "timeline_summary": "Stream acquired Chicago I in Dec 2017, reconstructed it, and reported full lease-up/expansion by the end of 2020; another expansion followed in 2024.", "predevelopment_land_use": "previously_developed_industrial_building", "predevelopment_confidence": "high", "nlcd_2001_agriculture_pct": 0.0, "nlcd_2001_developed_pct": 100.0, "cdl_2008_crops_pct": 0.0, "cdl_2008_pasture_hay_pct": 0.0, "dynamic_world_screening_result": "predates_dynamic_world_or_mature_by_2016", "dynamic_world_candidate_start_lower_year": null, "dynamic_world_candidate_start_upper_year": 2016, "neighbor_contamination_flag": true, "source_geometry_class": "mapped_roof_or_roof_union", "source_geometry_area_m2": 11198.4, "source_geometry_area_acres": 2.77, "mapped_roof_area_m2": 11198.4, "mapped_roof_area_sqft": 120538.0, "overture_candidate_count": 7, "overture_candidate_area_m2": 27483.2, "dynamic_world_2026_built_surface_area_m2": 111018.7, "dynamic_world_2026_built_surface_area_acres": 27.43, "approved_plan_roof_area_m2": null, "disturbed_area_m2": null, "disturbed_area_acres": null, "disturbance_status": "pending_site_scale_delineation" }, "geometry": { "type": "Polygon", "coordinates": [ [ [ -87.9522469, 42.0029153 ], [ -87.9522256, 42.002307200000033 ], [ -87.9499769, 42.0023508 ], [ -87.949993, 42.002809200000016 ], [ -87.9501967, 42.0028053 ], [ -87.9502019, 42.002953599999962 ], [ -87.9503658, 42.002950500000011 ], [ -87.9503631, 42.00287430000003 ], [ -87.9519132, 42.002844600000024 ], [ -87.9519159, 42.0029217 ], [ -87.9522469, 42.0029153 ] ] ] } },
{ "type": "Feature", "properties": { "analysis_unit_id": "site_00616", "canonical_name": "Stream Chicago II", "operator": "Stream", "taxonomy_group_id": "industrial_park_warehouse_style_colo", "scope_disposition": "included", "review_state": "automated_screened_document_checked", "identity_confidence": "medium", "construction_start": "2021-02", "construction_start_precision": "month", "operational_or_completion": "2022-Q3", "timeline_summary": "Stream acquired a 215,000-square-foot industrial property in 2020, planned construction for Feb 2021, and commissioned phase one in Q3 2022.", "predevelopment_land_use": "previously_developed_industrial_building", "predevelopment_confidence": "high", "nlcd_2001_agriculture_pct": 0.0, "nlcd_2001_developed_pct": 100.0, "cdl_2008_crops_pct": 0.0, "cdl_2008_pasture_hay_pct": 0.0, "dynamic_world_screening_result": "predates_dynamic_world_or_mature_by_2016", "dynamic_world_candidate_start_lower_year": null, "dynamic_world_candidate_start_upper_year": 2016, "neighbor_contamination_flag": true, "source_geometry_class": "mapped_roof_or_roof_union", "source_geometry_area_m2": 20047.0, "source_geometry_area_acres": 4.95, "mapped_roof_area_m2": 20047.0, "mapped_roof_area_sqft": 215784.0, "overture_candidate_count": 1, "overture_candidate_area_m2": 20047.0, "dynamic_world_2026_built_surface_area_m2": 134031.5, "dynamic_world_2026_built_surface_area_acres": 33.12, "approved_plan_roof_area_m2": null, "disturbed_area_m2": null, "disturbed_area_acres": null, "disturbance_status": "pending_site_scale_delineation" }, "geometry": { "type": "Polygon", "coordinates": [ [ [ -87.959003100000018, 41.999546700000046 ], [ -87.9589732, 41.998656600000025 ], [ -87.9565262, 41.998701900000015 ], [ -87.9565561, 41.999592299999961 ], [ -87.959003100000018, 41.999546700000046 ] ] ] } },
{ "type": "Feature", "properties": { "analysis_unit_id": "site_00617", "canonical_name": "T5 Chicago II", "operator": "T5 Data Centers", "taxonomy_group_id": "industrial_park_warehouse_style_colo", "scope_disposition": "included", "review_state": "automated_screened_document_checked", "identity_confidence": "medium", "construction_start": "2022", "construction_start_precision": "year_phase_announcement", "operational_or_completion": null, "timeline_summary": "T5 documents conversion of an existing 164,000-square-foot warehouse and announced the final phase in Nov 2022; the automated 2017–2018 signal is neighbor-contaminated.", "predevelopment_land_use": "previously_developed_warehouse", "predevelopment_confidence": "high", "nlcd_2001_agriculture_pct": 0.0, "nlcd_2001_developed_pct": 100.0, "cdl_2008_crops_pct": 0.0, "cdl_2008_pasture_hay_pct": 0.0, "dynamic_world_screening_result": "candidate_construction_or_major_redevelopment", "dynamic_world_candidate_start_lower_year": 2017.0, "dynamic_world_candidate_start_upper_year": 2018, "neighbor_contamination_flag": true, "source_geometry_class": "mapped_roof_or_roof_union", "source_geometry_area_m2": 15155.6, "source_geometry_area_acres": 3.75, "mapped_roof_area_m2": 15155.6, "mapped_roof_area_sqft": 163133.0, "overture_candidate_count": 5, "overture_candidate_area_m2": 19254.7, "dynamic_world_2026_built_surface_area_m2": 134947.0, "dynamic_world_2026_built_surface_area_acres": 33.35, "approved_plan_roof_area_m2": null, "disturbed_area_m2": null, "disturbed_area_acres": null, "disturbance_status": "pending_site_scale_delineation" }, "geometry": { "type": "Polygon", "coordinates": [ [ [ -87.9770011, 42.0227635 ], [ -87.9741174, 42.0227495 ], [ -87.9741124, 42.023321 ], [ -87.9769961, 42.023335299999978 ], [ -87.9770011, 42.0227635 ] ] ] } },
{ "type": "Feature", "properties": { "analysis_unit_id": "site_01560", "canonical_name": "QTS Chicago", "operator": "Quality Technology Services", "taxonomy_group_id": "industrial_park_warehouse_style_colo", "scope_disposition": "included", "review_state": "automated_screened_document_checked", "identity_confidence": "medium", "construction_start": "2014", "construction_start_precision": "year_acquisition_redevelopment", "operational_or_completion": null, "timeline_summary": "QTS acquired the vacant former Chicago Sun-Times printing plant in 2014 and converted the 990,000-square-foot structure into a data center.", "predevelopment_land_use": "brownfield_former_printing_plant", "predevelopment_confidence": "high", "nlcd_2001_agriculture_pct": 0.0, "nlcd_2001_developed_pct": 97.7, "cdl_2008_crops_pct": 0.0, "cdl_2008_pasture_hay_pct": 0.0, "dynamic_world_screening_result": "predates_dynamic_world_or_mature_by_2016", "dynamic_world_candidate_start_lower_year": null, "dynamic_world_candidate_start_upper_year": 2016, "neighbor_contamination_flag": false, "source_geometry_class": "mapped_roof_or_roof_union", "source_geometry_area_m2": 24797.7, "source_geometry_area_acres": 6.13, "mapped_roof_area_m2": 24797.7, "mapped_roof_area_sqft": 266920.0, "overture_candidate_count": 3, "overture_candidate_area_m2": 25972.5, "dynamic_world_2026_built_surface_area_m2": 97598.4, "dynamic_world_2026_built_surface_area_acres": 24.12, "approved_plan_roof_area_m2": null, "disturbed_area_m2": null, "disturbed_area_acres": null, "disturbance_status": "pending_site_scale_delineation" }, "geometry": { "type": "Polygon", "coordinates": [ [ [ -87.6706171, 41.841967700000033 ], [ -87.6706657, 41.8419667 ], [ -87.6706629, 41.8418952 ], [ -87.6703209, 41.841902599999962 ], [ -87.6687265, 41.841930799999986 ], [ -87.668707, 41.841540200000033 ], [ -87.6674409, 41.841565199999984 ], [ -87.6674493, 41.841830200000068 ], [ -87.6673285, 41.84183 ], [ -87.6673377, 41.842015399999973 ], [ -87.6672127, 41.8420153 ], [ -87.6672209, 41.842125699999983 ], [ -87.6673124, 41.842125699999968 ], [ -87.6673245, 41.8426284 ], [ -87.6674333, 41.842627200000017 ], [ -87.6674339, 41.842650200000016 ], [ -87.6674884, 41.84265 ], [ -87.6674799, 41.842379199999975 ], [ -87.6676784, 41.842377 ], [ -87.6676765, 41.842316400000051 ], [ -87.6686355, 41.842299800000049 ], [ -87.6686364, 41.842334099999981 ], [ -87.6688568, 41.84233 ], [ -87.6688635, 41.842659400000038 ], [ -87.6686915, 41.8426621 ], [ -87.6686989, 41.8428397 ], [ -87.6688824, 41.842836900000044 ], [ -87.668879, 41.842763499999968 ], [ -87.6701462, 41.842739599999945 ], [ -87.6705215, 41.84273670000001 ], [ -87.6705218, 41.842807300000011 ], [ -87.6706517, 41.842805400000017 ], [ -87.6706426, 41.842635199999975 ], [ -87.670674, 41.842635199999975 ], [ -87.6706639, 41.842290200000058 ], [ -87.6706274, 41.842289499999964 ], [ -87.6706171, 41.841967700000033 ] ] ] } },
{ "type": "Feature", "properties": { "analysis_unit_id": "site_01842", "canonical_name": "Equinix Chicago CH3", "operator": "Equinix", "taxonomy_group_id": "industrial_park_warehouse_style_colo", "scope_disposition": "included", "review_state": "automated_screened_document_checked", "identity_confidence": "medium", "construction_start": null, "construction_start_precision": null, "operational_or_completion": null, "timeline_summary": "Current Equinix documentation confirms CH3 at 1905 Lunt; the site is developed in every NLCD/CDL checkpoint, but its original conversion date remains unresolved.", "predevelopment_land_use": "previously_developed_site", "predevelopment_confidence": "medium", "nlcd_2001_agriculture_pct": 0.0, "nlcd_2001_developed_pct": 100.0, "cdl_2008_crops_pct": 0.0, "cdl_2008_pasture_hay_pct": 0.0, "dynamic_world_screening_result": "predates_dynamic_world_or_mature_by_2016", "dynamic_world_candidate_start_lower_year": null, "dynamic_world_candidate_start_upper_year": 2016, "neighbor_contamination_flag": true, "source_geometry_class": "mapped_roof_or_roof_union", "source_geometry_area_m2": 12608.1, "source_geometry_area_acres": 3.12, "mapped_roof_area_m2": 12608.1, "mapped_roof_area_sqft": 135713.0, "overture_candidate_count": 2, "overture_candidate_area_m2": 22894.7, "dynamic_world_2026_built_surface_area_m2": 117552.1, "dynamic_world_2026_built_surface_area_acres": 29.05, "approved_plan_roof_area_m2": null, "disturbed_area_m2": null, "disturbed_area_acres": null, "disturbance_status": "pending_site_scale_delineation" }, "geometry": { "type": "Polygon", "coordinates": [ [ [ -87.9546331, 42.001919899999962 ], [ -87.955113, 42.00191420000003 ], [ -87.9551093, 42.0017408 ], [ -87.955333, 42.001738100000011 ], [ -87.9553263, 42.001426100000039 ], [ -87.9557339, 42.00142129999994 ], [ -87.9557346, 42.001454200000026 ], [ -87.9559233, 42.001451900000013 ], [ -87.9559035, 42.000540699999952 ], [ -87.9553535, 42.000547300000051 ], [ -87.955353, 42.000522200000034 ], [ -87.9552936, 42.0005229 ], [ -87.9552968, 42.00067440000003 ], [ -87.954476200000016, 42.000684099999987 ], [ -87.9544771, 42.0007292 ], [ -87.954607600000017, 42.000727700000034 ], [ -87.9546331, 42.001919899999962 ] ] ] } },
{ "type": "Feature", "properties": { "analysis_unit_id": "site_01881", "canonical_name": "Digital Realty CH1", "operator": "Digital Realty", "taxonomy_group_id": "industrial_park_warehouse_style_colo", "scope_disposition": "included", "review_state": "automated_screened_document_checked", "identity_confidence": "medium", "construction_start": "2008", "construction_start_precision": "year_phase_1_conversion", "operational_or_completion": "2013", "timeline_summary": "The 1972 industrial warehouse was converted to data-center use in 2008, with a second phase in 2013.", "predevelopment_land_use": "previously_developed_industrial_warehouse", "predevelopment_confidence": "high", "nlcd_2001_agriculture_pct": 0.0, "nlcd_2001_developed_pct": 100.0, "cdl_2008_crops_pct": 0.0, "cdl_2008_pasture_hay_pct": 0.0, "dynamic_world_screening_result": "predates_dynamic_world_or_mature_by_2016", "dynamic_world_candidate_start_lower_year": null, "dynamic_world_candidate_start_upper_year": 2016, "neighbor_contamination_flag": true, "source_geometry_class": "mapped_roof_or_roof_union", "source_geometry_area_m2": 43613.7, "source_geometry_area_acres": 10.78, "mapped_roof_area_m2": 43613.7, "mapped_roof_area_sqft": 469454.0, "overture_candidate_count": 2, "overture_candidate_area_m2": 75943.7, "dynamic_world_2026_built_surface_area_m2": 164546.3, "dynamic_world_2026_built_surface_area_acres": 40.66, "approved_plan_roof_area_m2": null, "disturbed_area_m2": null, "disturbed_area_acres": null, "disturbance_status": "pending_site_scale_delineation" }, "geometry": { "type": "Polygon", "coordinates": [ [ [ -87.9609228, 41.9939993 ], [ -87.9607848, 41.9941125 ], [ -87.9605886, 41.9939721 ], [ -87.9602497, 41.9942536 ], [ -87.9605626, 41.9944827 ], [ -87.9609162, 41.994206600000055 ], [ -87.9608969, 41.9941928 ], [ -87.9609329, 41.99416380000001 ], [ -87.9609536, 41.995131199999982 ], [ -87.9635474, 41.995100500000028 ], [ -87.9635136, 41.9935175 ], [ -87.9636204, 41.993516200000016 ], [ -87.9636168, 41.99335130000005 ], [ -87.9609096, 41.993383200000032 ], [ -87.9609228, 41.9939993 ] ] ] } },
{ "type": "Feature", "properties": { "analysis_unit_id": "site_01928", "canonical_name": "Iron Mountain Data & Record Storage", "operator": "Iron Mountain", "taxonomy_group_id": "industrial_park_warehouse_style_colo", "scope_disposition": "excluded_false_positive_not_data_center", "review_state": "automated_screened_document_checked", "identity_confidence": "medium", "construction_start": null, "construction_start_precision": null, "operational_or_completion": null, "timeline_summary": "Excluded after identity review: the mapped feature is a South Halsted records-storage warehouse, while Iron Mountain's Chicago data center is CHI-1 at 1680 Touhy Avenue in Des Plaines.", "predevelopment_land_use": "not_applicable", "predevelopment_confidence": "high", "nlcd_2001_agriculture_pct": 0.0, "nlcd_2001_developed_pct": 99.2, "cdl_2008_crops_pct": 0.0, "cdl_2008_pasture_hay_pct": 0.0, "dynamic_world_screening_result": "predates_dynamic_world_or_mature_by_2016", "dynamic_world_candidate_start_lower_year": null, "dynamic_world_candidate_start_upper_year": 2016, "neighbor_contamination_flag": false, "source_geometry_class": "mapped_roof_or_roof_union", "source_geometry_area_m2": 9843.7, "source_geometry_area_acres": 2.43, "mapped_roof_area_m2": 9843.7, "mapped_roof_area_sqft": 105956.0, "overture_candidate_count": 1, "overture_candidate_area_m2": 9843.7, "dynamic_world_2026_built_surface_area_m2": 91265.5, "dynamic_world_2026_built_surface_area_acres": 22.55, "approved_plan_roof_area_m2": null, "disturbed_area_m2": null, "disturbed_area_acres": null, "disturbance_status": "pending_site_scale_delineation" }, "geometry": { "type": "Polygon", "coordinates": [ [ [ -87.6462767, 41.848250200000031 ], [ -87.6461489, 41.848303299999976 ], [ -87.6461647, 41.84832550000003 ], [ -87.6458715, 41.848444799999989 ], [ -87.6456268, 41.848498 ], [ -87.6455459, 41.8485167 ], [ -87.6454171, 41.8485448 ], [ -87.6452902, 41.8485701 ], [ -87.6451615, 41.848592699999948 ], [ -87.645031, 41.8486152 ], [ -87.6449005, 41.848635 ], [ -87.6447718, 41.848653400000018 ], [ -87.6446395, 41.848670499999976 ], [ -87.644509, 41.848686200000039 ], [ -87.6445142, 41.8487407 ], [ -87.6445572, 41.849162500000048 ], [ -87.6452097, 41.849128800000045 ], [ -87.6452032, 41.849074800000039 ], [ -87.6452758, 41.849070800000042 ], [ -87.6452837, 41.849125 ], [ -87.6462896, 41.8490731 ], [ -87.6462894, 41.8488546 ], [ -87.646289, 41.84852810000001 ], [ -87.6462806, 41.848505299999978 ], [ -87.6464064, 41.848475400000034 ], [ -87.6464002, 41.8482474 ], [ -87.6462767, 41.848250200000031 ] ] ] } },
{ "type": "Feature", "properties": { "analysis_unit_id": "site_01940", "canonical_name": "Equinix Chicago Data CH7", "operator": "Equinix", "taxonomy_group_id": "industrial_park_warehouse_style_colo", "scope_disposition": "included", "review_state": "automated_screened_document_checked", "identity_confidence": "medium", "construction_start": null, "construction_start_precision": null, "operational_or_completion": "2017-05", "timeline_summary": "The Westmont facility predates Equinix ownership and became CH7 through Equinix's May 2017 Verizon data-center acquisition.", "predevelopment_land_use": "previously_developed_data_center", "predevelopment_confidence": "high", "nlcd_2001_agriculture_pct": 0.0, "nlcd_2001_developed_pct": 100.0, "cdl_2008_crops_pct": 0.0, "cdl_2008_pasture_hay_pct": 0.0, "dynamic_world_screening_result": "predates_dynamic_world_or_mature_by_2016", "dynamic_world_candidate_start_lower_year": null, "dynamic_world_candidate_start_upper_year": 2016, "neighbor_contamination_flag": false, "source_geometry_class": "mapped_roof_or_roof_union", "source_geometry_area_m2": 4394.9, "source_geometry_area_acres": 1.09, "mapped_roof_area_m2": 4394.9, "mapped_roof_area_sqft": 47306.0, "overture_candidate_count": 4, "overture_candidate_area_m2": 27824.5, "dynamic_world_2026_built_surface_area_m2": 71228.7, "dynamic_world_2026_built_surface_area_acres": 17.6, "approved_plan_roof_area_m2": null, "disturbed_area_m2": null, "disturbed_area_acres": null, "disturbance_status": "pending_site_scale_delineation" }, "geometry": { "type": "Polygon", "coordinates": [ [ [ -87.9732736, 41.812271899999971 ], [ -87.972406, 41.812292199999973 ], [ -87.9724296, 41.812853500000038 ], [ -87.9731119, 41.812837600000051 ], [ -87.9731095, 41.8127783 ], [ -87.9732947, 41.812774 ], [ -87.9732736, 41.812271899999971 ] ] ] } },
{ "type": "Feature", "properties": { "analysis_unit_id": "site_02009", "canonical_name": "Centersquare Elk Grove Village Data Center Campus ORD2", "operator": "Centersquare", "taxonomy_group_id": "industrial_park_warehouse_style_colo", "scope_disposition": "included", "review_state": "automated_screened_document_checked", "identity_confidence": "medium", "construction_start": null, "construction_start_precision": null, "operational_or_completion": null, "timeline_summary": "Current operator documentation confirms a purpose-built, two-story ORD2 facility; exact construction dates remain unresolved and historical imagery is required.", "predevelopment_land_use": "previously_developed_site", "predevelopment_confidence": "medium", "nlcd_2001_agriculture_pct": 0.0, "nlcd_2001_developed_pct": 100.0, "cdl_2008_crops_pct": 0.0, "cdl_2008_pasture_hay_pct": 0.0, "dynamic_world_screening_result": "predates_dynamic_world_or_mature_by_2016", "dynamic_world_candidate_start_lower_year": null, "dynamic_world_candidate_start_upper_year": 2016, "neighbor_contamination_flag": true, "source_geometry_class": "mapped_roof_or_roof_union", "source_geometry_area_m2": 18413.0, "source_geometry_area_acres": 4.55, "mapped_roof_area_m2": 18413.0, "mapped_roof_area_sqft": 198196.0, "overture_candidate_count": 1, "overture_candidate_area_m2": 18413.0, "dynamic_world_2026_built_surface_area_m2": 99458.1, "dynamic_world_2026_built_surface_area_acres": 24.58, "approved_plan_roof_area_m2": null, "disturbed_area_m2": null, "disturbed_area_acres": null, "disturbance_status": "pending_site_scale_delineation" }, "geometry": { "type": "Polygon", "coordinates": [ [ [ -87.958801, 41.992903 ], [ -87.9587903, 41.991269800000012 ], [ -87.9572262, 41.991275400000021 ], [ -87.9572275, 41.991481400000026 ], [ -87.9573937, 41.9914809 ], [ -87.9573953, 41.991731899999969 ], [ -87.957663700000012, 41.991731 ], [ -87.9576713, 41.9929071 ], [ -87.958801, 41.992903 ] ] ] } },
{ "type": "Feature", "properties": { "analysis_unit_id": "site_02019", "canonical_name": "Skybox Chicago I", "operator": "Skybox", "taxonomy_group_id": "industrial_park_warehouse_style_colo", "scope_disposition": "included", "review_state": "automated_screened_document_checked", "identity_confidence": "medium", "construction_start": "2020", "construction_start_precision": "approximate_year", "operational_or_completion": "2021", "timeline_summary": "Skybox/Prologis developed Chicago I on a former warehouse-complex site; contemporary reporting described the 190,000-square-foot facility as open in 2021.", "predevelopment_land_use": "previously_developed_warehouse_complex", "predevelopment_confidence": "high", "nlcd_2001_agriculture_pct": 0.0, "nlcd_2001_developed_pct": 100.0, "cdl_2008_crops_pct": 0.0, "cdl_2008_pasture_hay_pct": 0.0, "dynamic_world_screening_result": "predates_dynamic_world_or_mature_by_2016", "dynamic_world_candidate_start_lower_year": null, "dynamic_world_candidate_start_upper_year": 2016, "neighbor_contamination_flag": false, "source_geometry_class": "mapped_roof_or_roof_union", "source_geometry_area_m2": 16208.2, "source_geometry_area_acres": 4.01, "mapped_roof_area_m2": 16208.2, "mapped_roof_area_sqft": 174464.0, "overture_candidate_count": 2, "overture_candidate_area_m2": 24158.0, "dynamic_world_2026_built_surface_area_m2": 128254.4, "dynamic_world_2026_built_surface_area_acres": 31.69, "approved_plan_roof_area_m2": null, "disturbed_area_m2": null, "disturbed_area_acres": null, "disturbance_status": "pending_site_scale_delineation" }, "geometry": { "type": "Polygon", "coordinates": [ [ [ -87.974994, 41.993937799999969 ], [ -87.9749708, 41.993350400000026 ], [ -87.9749399, 41.993332099999968 ], [ -87.9749045, 41.993320600000033 ], [ -87.9748752, 41.993327499999964 ], [ -87.9748598, 41.993341200000032 ], [ -87.972167, 41.993394500000036 ], [ -87.9721593, 41.993383 ], [ -87.9721331, 41.99337789999997 ], [ -87.9721085, 41.993379 ], [ -87.9720854, 41.993390499999968 ], [ -87.9720481, 41.9933913 ], [ -87.972072200000014, 41.994001699999984 ], [ -87.974994, 41.993937799999969 ] ] ] } },
{ "type": "Feature", "properties": { "analysis_unit_id": "site_02031", "canonical_name": "Digital Realty Chicago ORD12", "operator": "Digital Realty", "taxonomy_group_id": "industrial_park_warehouse_style_colo", "scope_disposition": "included", "review_state": "automated_screened_document_checked", "identity_confidence": "medium", "construction_start": "2012-08", "construction_start_precision": "month_redevelopment", "operational_or_completion": "2014", "timeline_summary": "Digital Realty acquired the three-building Grand Avenue campus in May 2012 and began redeveloping 9333 Grand (ORD12) in Aug 2012; ENERGY STAR records 2014 as year built.", "predevelopment_land_use": "previously_developed_industrial_building", "predevelopment_confidence": "high", "nlcd_2001_agriculture_pct": 0.0, "nlcd_2001_developed_pct": 100.0, "cdl_2008_crops_pct": 0.0, "cdl_2008_pasture_hay_pct": 0.0, "dynamic_world_screening_result": "predates_dynamic_world_or_mature_by_2016", "dynamic_world_candidate_start_lower_year": null, "dynamic_world_candidate_start_upper_year": 2016, "neighbor_contamination_flag": false, "source_geometry_class": "mapped_roof_or_roof_union", "source_geometry_area_m2": 8371.0, "source_geometry_area_acres": 2.07, "mapped_roof_area_m2": 8371.0, "mapped_roof_area_sqft": 90105.0, "overture_candidate_count": 2, "overture_candidate_area_m2": 34357.1, "dynamic_world_2026_built_surface_area_m2": 98587.6, "dynamic_world_2026_built_surface_area_acres": 24.36, "approved_plan_roof_area_m2": null, "disturbed_area_m2": null, "disturbed_area_acres": null, "disturbance_status": "pending_site_scale_delineation" }, "geometry": { "type": "Polygon", "coordinates": [ [ [ -87.8599073, 41.9286956 ], [ -87.859947800000015, 41.928694599999957 ], [ -87.8599213, 41.928075399999983 ], [ -87.8591179, 41.9280945 ], [ -87.8590527, 41.9279748 ], [ -87.8585611, 41.9279857 ], [ -87.8585876, 41.92865 ], [ -87.8587427, 41.9286466 ], [ -87.8587459, 41.9287257 ], [ -87.8588079, 41.928724299999971 ], [ -87.8588084, 41.9287365 ], [ -87.8599079, 41.9287115 ], [ -87.8599073, 41.9286956 ] ] ] } },
{ "type": "Feature", "properties": { "analysis_unit_id": "site_02109", "canonical_name": "Centersquare Lisle ORD4 Data Center", "operator": "Centersquare", "taxonomy_group_id": "industrial_park_warehouse_style_colo", "scope_disposition": "included", "review_state": "automated_screened_document_checked", "identity_confidence": "medium", "construction_start": null, "construction_start_precision": null, "operational_or_completion": null, "timeline_summary": "ORD4 is confirmed at 4513 Western Avenue; the site is developed throughout available categorical history, while the original data-center conversion date remains unresolved.", "predevelopment_land_use": "previously_developed_site", "predevelopment_confidence": "medium", "nlcd_2001_agriculture_pct": 0.0, "nlcd_2001_developed_pct": 100.0, "cdl_2008_crops_pct": 0.0, "cdl_2008_pasture_hay_pct": 0.0, "dynamic_world_screening_result": "predates_dynamic_world_or_mature_by_2016", "dynamic_world_candidate_start_lower_year": null, "dynamic_world_candidate_start_upper_year": 2016, "neighbor_contamination_flag": false, "source_geometry_class": "mapped_roof_or_roof_union", "source_geometry_area_m2": 33537.1, "source_geometry_area_acres": 8.29, "mapped_roof_area_m2": 33537.1, "mapped_roof_area_sqft": 360991.0, "overture_candidate_count": 1, "overture_candidate_area_m2": 33537.1, "dynamic_world_2026_built_surface_area_m2": 123427.8, "dynamic_world_2026_built_surface_area_acres": 30.5, "approved_plan_roof_area_m2": null, "disturbed_area_m2": null, "disturbed_area_acres": null, "disturbance_status": "pending_site_scale_delineation" }, "geometry": { "type": "Polygon", "coordinates": [ [ [ -88.0960112, 41.803147500000016 ], [ -88.0959507, 41.8014893 ], [ -88.09376, 41.801533699999972 ], [ -88.0938205, 41.803192 ], [ -88.0960112, 41.803147500000016 ] ] ] } },
{ "type": "Feature", "properties": { "analysis_unit_id": "site_02132", "canonical_name": "Microsoft - Azure Datacenter", "operator": "Microsoft", "taxonomy_group_id": "large_purpose_built_data_center", "scope_disposition": "included", "review_state": "automated_screened_document_checked", "identity_confidence": "medium", "construction_start": "2016", "construction_start_precision": "year_phase_2_document", "operational_or_completion": null, "timeline_summary": "A construction labor agreement records Microsoft Data Center Phase 2 at 601 Northwest Avenue in 2016; the Illinois incentive program records Microsoft Northlake in 2021.", "predevelopment_land_use": "previously_developed_site", "predevelopment_confidence": "medium", "nlcd_2001_agriculture_pct": 0.0, "nlcd_2001_developed_pct": 100.0, "cdl_2008_crops_pct": 0.0, "cdl_2008_pasture_hay_pct": 0.0, "dynamic_world_screening_result": "predates_dynamic_world_or_mature_by_2016", "dynamic_world_candidate_start_lower_year": null, "dynamic_world_candidate_start_upper_year": 2016, "neighbor_contamination_flag": false, "source_geometry_class": "mapped_roof_or_roof_union", "source_geometry_area_m2": 28480.8, "source_geometry_area_acres": 7.04, "mapped_roof_area_m2": 28480.8, "mapped_roof_area_sqft": 306565.0, "overture_candidate_count": 1, "overture_candidate_area_m2": 28480.8, "dynamic_world_2026_built_surface_area_m2": 145630.3, "dynamic_world_2026_built_surface_area_acres": 35.99, "approved_plan_roof_area_m2": null, "disturbed_area_m2": null, "disturbed_area_acres": null, "disturbance_status": "pending_site_scale_delineation" }, "geometry": { "type": "Polygon", "coordinates": [ [ [ -87.9189323, 41.924182899999977 ], [ -87.918944, 41.922059399999988 ], [ -87.9183903, 41.922057699999982 ], [ -87.9183921, 41.9217325 ], [ -87.9175959, 41.921730100000026 ], [ -87.9175826, 41.924152900000024 ], [ -87.9188253, 41.924156700000026 ], [ -87.9188251, 41.924182499999972 ], [ -87.9189323, 41.924182899999977 ] ] ] } },
{ "type": "Feature", "properties": { "analysis_unit_id": "site_02186", "canonical_name": "Digital Realty CH3", "operator": "Digital Realty", "taxonomy_group_id": "industrial_park_warehouse_style_colo", "scope_disposition": "included", "review_state": "automated_screened_document_checked", "identity_confidence": "medium", "construction_start": "2017", "construction_start_precision": "year", "operational_or_completion": "2018-Q1", "timeline_summary": "Work on CH3 began in 2017 and phase one was completed in Q1 2018; NLCD maps the site as developed before construction.", "predevelopment_land_use": "previously_developed_industrial_site", "predevelopment_confidence": "medium", "nlcd_2001_agriculture_pct": 0.0, "nlcd_2001_developed_pct": 100.0, "cdl_2008_crops_pct": 0.0, "cdl_2008_pasture_hay_pct": 0.0, "dynamic_world_screening_result": "predates_dynamic_world_or_mature_by_2016", "dynamic_world_candidate_start_lower_year": null, "dynamic_world_candidate_start_upper_year": 2016, "neighbor_contamination_flag": true, "source_geometry_class": "mapped_roof_or_roof_union", "source_geometry_area_m2": 32330.0, "source_geometry_area_acres": 7.99, "mapped_roof_area_m2": 32330.0, "mapped_roof_area_sqft": 347997.0, "overture_candidate_count": 3, "overture_candidate_area_m2": 79394.6, "dynamic_world_2026_built_surface_area_m2": 157718.0, "dynamic_world_2026_built_surface_area_acres": 38.97, "approved_plan_roof_area_m2": null, "disturbed_area_m2": null, "disturbed_area_acres": null, "disturbance_status": "pending_site_scale_delineation" }, "geometry": { "type": "Polygon", "coordinates": [ [ [ -87.9656499, 41.995334899999968 ], [ -87.9656375, 41.994899 ], [ -87.96597850000002, 41.994893599999962 ], [ -87.9659458, 41.9937496 ], [ -87.9653881, 41.993758400000011 ], [ -87.9653763, 41.993347599999986 ], [ -87.964084, 41.993368099999969 ], [ -87.9641109, 41.9943095 ], [ -87.9639058, 41.9943127 ], [ -87.963935, 41.9953307 ], [ -87.964152, 41.995327300000021 ], [ -87.9641528, 41.99535860000001 ], [ -87.9656499, 41.995334899999968 ] ] ] } },
{ "type": "Feature", "properties": { "analysis_unit_id": "site_02187", "canonical_name": "Digital Realty CH2", "operator": "Digital Realty", "taxonomy_group_id": "industrial_park_warehouse_style_colo", "scope_disposition": "included", "review_state": "automated_screened_document_checked", "identity_confidence": "medium", "construction_start": null, "construction_start_precision": null, "operational_or_completion": "2015", "timeline_summary": "Digital Realty records CH2 at 2299 Busse as a distinct facility; market documentation places opening in 2015, but a primary construction record remains to be located.", "predevelopment_land_use": "previously_developed_site", "predevelopment_confidence": "medium", "nlcd_2001_agriculture_pct": 0.0, "nlcd_2001_developed_pct": 100.0, "cdl_2008_crops_pct": 0.0, "cdl_2008_pasture_hay_pct": 0.0, "dynamic_world_screening_result": "predates_dynamic_world_or_mature_by_2016", "dynamic_world_candidate_start_lower_year": null, "dynamic_world_candidate_start_upper_year": 2016, "neighbor_contamination_flag": true, "source_geometry_class": "mapped_roof_or_roof_union", "source_geometry_area_m2": 28129.1, "source_geometry_area_acres": 6.95, "mapped_roof_area_m2": 28129.1, "mapped_roof_area_sqft": 302779.0, "overture_candidate_count": 2, "overture_candidate_area_m2": 44667.3, "dynamic_world_2026_built_surface_area_m2": 137826.3, "dynamic_world_2026_built_surface_area_acres": 34.06, "approved_plan_roof_area_m2": null, "disturbed_area_m2": null, "disturbed_area_acres": null, "disturbance_status": "pending_site_scale_delineation" }, "geometry": { "type": "Polygon", "coordinates": [ [ [ -87.9568629, 41.9935456 ], [ -87.956891, 41.99487010000005 ], [ -87.9571502, 41.994867099999965 ], [ -87.9571645, 41.995538300000021 ], [ -87.9584141, 41.995523499999976 ], [ -87.9583933, 41.994551 ], [ -87.9586186, 41.994548299999977 ], [ -87.958611, 41.9941964 ], [ -87.9586396, 41.994196100000018 ], [ -87.9586288, 41.993696700000015 ], [ -87.9585642, 41.993697400000016 ], [ -87.9585625, 41.9936146 ], [ -87.9583637, 41.993616900000013 ], [ -87.9583618, 41.9935281 ], [ -87.9568629, 41.9935456 ] ] ] } },
{ "type": "Feature", "properties": { "analysis_unit_id": "site_02253", "canonical_name": "STACK Chicago CHI01", "operator": "Stack Infrastructure", "taxonomy_group_id": "large_purpose_built_data_center", "scope_disposition": "included", "review_state": "automated_screened_document_checked", "identity_confidence": "medium", "construction_start": null, "construction_start_precision": null, "operational_or_completion": "2020_or_earlier", "timeline_summary": "STACK documents CHI01A and CHI01B as a two-building, 14-acre campus; a Dec 2020 operator video confirms the campus by that date.", "predevelopment_land_use": "previously_developed_site", "predevelopment_confidence": "medium", "nlcd_2001_agriculture_pct": 0.0, "nlcd_2001_developed_pct": 100.0, "cdl_2008_crops_pct": 0.0, "cdl_2008_pasture_hay_pct": 0.0, "dynamic_world_screening_result": "predates_dynamic_world_or_mature_by_2016", "dynamic_world_candidate_start_lower_year": null, "dynamic_world_candidate_start_upper_year": 2016, "neighbor_contamination_flag": false, "source_geometry_class": "mapped_roof_or_roof_union", "source_geometry_area_m2": 27711.1, "source_geometry_area_acres": 6.85, "mapped_roof_area_m2": 27711.1, "mapped_roof_area_sqft": 298280.0, "overture_candidate_count": 3, "overture_candidate_area_m2": 52444.9, "dynamic_world_2026_built_surface_area_m2": 165330.9, "dynamic_world_2026_built_surface_area_acres": 40.85, "approved_plan_roof_area_m2": null, "disturbed_area_m2": null, "disturbed_area_acres": null, "disturbance_status": "pending_site_scale_delineation" }, "geometry": { "type": "Polygon", "coordinates": [ [ [ -87.9634753, 42.0072965 ], [ -87.9663647, 42.0072558 ], [ -87.9663696, 42.007324200000042 ], [ -87.9669059, 42.0073118 ], [ -87.9668831, 42.0063878 ], [ -87.9634476, 42.006422199999989 ], [ -87.9634753, 42.0072965 ] ] ] } },
{ "type": "Feature", "properties": { "analysis_unit_id": "site_02613", "canonical_name": "Microsoft Hoffman Estates data-center campus", "operator": "Microsoft", "taxonomy_group_id": "hyperscale_greenfield_campus", "scope_disposition": "included", "review_state": "automated_screened_document_checked", "identity_confidence": "high", "construction_start": "2021-06", "construction_start_precision": "month", "operational_or_completion": null, "timeline_summary": "Village records state construction began in June 2021; the first building continued build-out and a second building was permitted in 2024. Direct 2019 NAIP review shows a mixed pasture/old-field, woodland, and wetland site—not uniform cropland—consistent with Dynamic World's 61.9% trees and 32.9% crops in 2019 but inconsistent with coarse NLCD/CDL labels.", "predevelopment_land_use": "greenfield_mixed_pasture_woodland_wetland", "predevelopment_confidence": "high", "nlcd_2001_agriculture_pct": 60.0, "nlcd_2001_developed_pct": 0.3, "cdl_2008_crops_pct": 9.3, "cdl_2008_pasture_hay_pct": 55.6, "dynamic_world_screening_result": "candidate_construction_or_major_redevelopment", "dynamic_world_candidate_start_lower_year": 2021.0, "dynamic_world_candidate_start_upper_year": 2022, "neighbor_contamination_flag": false, "source_geometry_class": "mapped_campus_boundary", "source_geometry_area_m2": 195472.3, "source_geometry_area_acres": 48.3, "mapped_roof_area_m2": null, "mapped_roof_area_sqft": null, "overture_candidate_count": 3, "overture_candidate_area_m2": 23791.7, "dynamic_world_2026_built_surface_area_m2": 115271.5, "dynamic_world_2026_built_surface_area_acres": 28.48, "approved_plan_roof_area_m2": null, "disturbed_area_m2": null, "disturbed_area_acres": null, "disturbance_status": "pending_site_scale_delineation" }, "geometry": { "type": "Polygon", "coordinates": [ [ [ -88.1361183, 42.074585 ], [ -88.1328708, 42.074629499999979 ], [ -88.1315619, 42.0746454 ], [ -88.1316607, 42.079298700000024 ], [ -88.1362082, 42.079280899999979 ], [ -88.1361183, 42.074585 ] ] ] } }
]
}
