{
"type": "FeatureCollection",
"name": "analysis_units_preliminary",
"crs": { "type": "name", "properties": { "name": "urn:ogc:def:crs:OGC:1.3:CRS84" } },
"features": [
{ "type": "Feature", "properties": { "analysis_unit_id": "aligned_northlake_ord01_ord02", "canonical_name": "Aligned Northlake ORD-01/ORD-02 campus", "operator": "Aligned Data Centers", "taxonomy_group_id": "large_purpose_built_data_center", "seed_record_ids": "site_00627", "related_record_ids": "site_00628", "seed_record_count": 1, "reference_record_count": 2, "resolution_status": "resolved_operator_campus", "identity_confidence": "high", "poc_status": "not_started", "entity_evidence": "https://aligneddc.com/chicago-data-centers/|https://aligneddc.com/press-release/aligned-breaks-ground-on-chicago-hyperscale-data-center-campus/", "geometry_role": "source_geometry_union_not_project_boundary" }, "geometry": { "type": "MultiPolygon", "coordinates": [ [ [ [ -87.9164992, 41.9126793 ], [ -87.9183238, 41.912675799999981 ], [ -87.9183244, 41.912839399999946 ], [ -87.9186789, 41.912838699999966 ], [ -87.9186797, 41.913072299999982 ], [ -87.918321700000021, 41.913073100000013 ], [ -87.9183223, 41.913246400000013 ], [ -87.9165012, 41.913249900000025 ], [ -87.9164992, 41.9126793 ] ] ], [ [ [ -87.9190228, 41.914249700000013 ], [ -87.9178437, 41.9142435 ], [ -87.91785, 41.914353499999983 ], [ -87.9161383, 41.914347200000037 ], [ -87.916115100000013, 41.9142372 ], [ -87.9160031, 41.914235600000012 ], [ -87.9159976, 41.913653200000027 ], [ -87.9190351, 41.9136617 ], [ -87.9190228, 41.914249700000013 ] ] ] ] } },
{ "type": "Feature", "properties": { "analysis_unit_id": "aurora_cyrusone_chi1_chi2", "canonical_name": "CyrusOne Aurora CHI1-CHI2", "operator": "CyrusOne", "taxonomy_group_id": "large_purpose_built_data_center", "seed_record_ids": "site_01911|site_02530", "related_record_ids": "", "seed_record_count": 2, "reference_record_count": 2, "resolution_status": "resolved_in_aurora_poc", "identity_confidence": "high", "poc_status": "complete", "entity_evidence": "reports/aurora_land_use_change/aurora_data_center_land_use_change_report.pdf", "geometry_role": "source_geometry_union_not_project_boundary" }, "geometry": { "type": "MultiPolygon", "coordinates": [ [ [ [ -88.2477189, 41.795982099999989 ], [ -88.2472447, 41.7960596 ], [ -88.247197900000018, 41.7959005 ], [ -88.2470904, 41.795918 ], [ -88.2471012, 41.7959548 ], [ -88.2470863, 41.79595719999994 ], [ -88.2469582, 41.7959782 ], [ -88.246974, 41.796031099999979 ], [ -88.2469938, 41.796100099999947 ], [ -88.246876, 41.796118800000023 ], [ -88.2465207, 41.7961771 ], [ -88.2464736, 41.796016899999934 ], [ -88.2464305, 41.796024 ], [ -88.2464267, 41.7960111 ], [ -88.24640260000001, 41.795929199999961 ], [ -88.2464004, 41.7959215 ], [ -88.246452, 41.795913099999943 ], [ -88.246146, 41.7948719 ], [ -88.24615, 41.794871199999974 ], [ -88.2461714, 41.794867700000033 ], [ -88.2461846, 41.794865600000037 ], [ -88.2461532, 41.794758799999983 ], [ -88.2462119, 41.7947492 ], [ -88.2462984, 41.794735 ], [ -88.2463092, 41.794771700000062 ], [ -88.2471729, 41.79463060000004 ], [ -88.247162, 41.79459350000004 ], [ -88.2472457, 41.794579800000015 ], [ -88.2472516, 41.7945789 ], [ -88.2472644, 41.794576799999973 ], [ -88.2472959, 41.794684299999979 ], [ -88.2473148, 41.7946812 ], [ -88.2473338, 41.7946781 ], [ -88.2476416, 41.795725500000025 ], [ -88.2477081, 41.795714699999984 ], [ -88.2477836, 41.795971599999959 ], [ -88.2477189, 41.795982099999989 ] ] ], [ [ [ -88.2436272, 41.796160499999971 ], [ -88.2437699, 41.796160499999971 ], [ -88.2437698, 41.796037400000024 ], [ -88.2445939, 41.796036899999983 ], [ -88.244594, 41.796119400000023 ], [ -88.2446914, 41.796119299999951 ], [ -88.2446914, 41.796159200000034 ], [ -88.2450326, 41.796159 ], [ -88.245034, 41.7974449 ], [ -88.2450856, 41.797444899999988 ], [ -88.2450856, 41.797506799999987 ], [ -88.2450856, 41.797516799999968 ], [ -88.2453255, 41.797516599999952 ], [ -88.2453256, 41.797597699999955 ], [ -88.245293500000017, 41.797597699999976 ], [ -88.2452596, 41.797597699999976 ], [ -88.2452597, 41.797644599999963 ], [ -88.2448536, 41.797644799999951 ], [ -88.2448536, 41.797676 ], [ -88.2448016, 41.797676 ], [ -88.2447429, 41.797676 ], [ -88.2447429, 41.7976427 ], [ -88.244418, 41.7976429 ], [ -88.244418, 41.797652399999969 ], [ -88.2443574, 41.797652399999969 ], [ -88.2440495, 41.7976526 ], [ -88.2440495, 41.797642 ], [ -88.2437914, 41.797642200000034 ], [ -88.2437913, 41.797594399999973 ], [ -88.2437244, 41.797594399999973 ], [ -88.2437244, 41.7975167 ], [ -88.2436329, 41.797516799999968 ], [ -88.243633, 41.797589099999961 ], [ -88.2432202, 41.797589399999985 ], [ -88.2426353, 41.797589700000017 ], [ -88.2426353, 41.79760480000003 ], [ -88.2425524, 41.79760480000003 ], [ -88.2425525, 41.79761 ], [ -88.2426022, 41.79761 ], [ -88.2426023, 41.797623 ], [ -88.2426023, 41.79765350000006 ], [ -88.2425543, 41.79765350000006 ], [ -88.2425543, 41.797660300000032 ], [ -88.242497, 41.7976604 ], [ -88.242497, 41.797654099999946 ], [ -88.2424179, 41.797654200000053 ], [ -88.2424178, 41.797604900000039 ], [ -88.2423253, 41.7976049 ], [ -88.2423251, 41.7974716 ], [ -88.2423426, 41.7974716 ], [ -88.2423407, 41.7956713 ], [ -88.242321, 41.7956713 ], [ -88.2423208, 41.7955397 ], [ -88.2426292, 41.795539499999983 ], [ -88.2426292, 41.795552399999941 ], [ -88.243626600000013, 41.795551899999957 ], [ -88.2436272, 41.796160499999971 ] ] ] ] } },
{ "type": "Feature", "properties": { "analysis_unit_id": "edgeconnex_elk_grove_chi01_chi02", "canonical_name": "EdgeConneX Elk Grove CHI01-CHI02 campus", "operator": "EdgeConneX", "taxonomy_group_id": "industrial_park_warehouse_style_colo", "seed_record_ids": "site_01897|site_02007", "related_record_ids": "", "seed_record_count": 2, "reference_record_count": 2, "resolution_status": "resolved_operator_campus", "identity_confidence": "high", "poc_status": "not_started", "entity_evidence": "https://www.edgeconnex.com/wp-content/uploads/2024/09/Chicago-Data-Sheet.pdf", "geometry_role": "source_geometry_union_not_project_boundary" }, "geometry": { "type": "MultiPolygon", "coordinates": [ [ [ [ -87.9496339, 42.001060099999947 ], [ -87.9496173, 42.0005297 ], [ -87.9519034, 42.0004902 ], [ -87.9519199, 42.001020799999971 ], [ -87.9496339, 42.001060099999947 ] ] ], [ [ [ -87.9522691, 42.0020239 ], [ -87.9522392, 42.000973299999977 ], [ -87.9528598, 42.0009665 ], [ -87.9528856, 42.002016099999963 ], [ -87.9522691, 42.0020239 ] ] ] ] } },
{ "type": "Feature", "properties": { "analysis_unit_id": "element_critical_wood_dale_ch1_ch2", "canonical_name": "Element Critical Wood Dale CH1-CH2 campus", "operator": "Element Critical", "taxonomy_group_id": "industrial_park_warehouse_style_colo", "seed_record_ids": "site_01834|site_02008", "related_record_ids": "", "seed_record_count": 2, "reference_record_count": 2, "resolution_status": "resolved_operator_campus", "identity_confidence": "high", "poc_status": "not_started", "entity_evidence": "https://elementcritical.com/data-centers/chicago-one/|https://elementcritical.com/private-colocation-suite-solutions-for-wood-dale-businesses/", "geometry_role": "source_geometry_union_not_project_boundary" }, "geometry": { "type": "MultiPolygon", "coordinates": [ [ [ [ -87.966802, 41.974522 ], [ -87.9667786, 41.973942200000018 ], [ -87.9675492, 41.9739318 ], [ -87.9675725, 41.974513300000012 ], [ -87.966802, 41.974522 ] ] ], [ [ [ -87.9648093, 41.975222 ], [ -87.9648093, 41.9751562 ], [ -87.9650266, 41.9751542 ], [ -87.9650373, 41.975305700000035 ], [ -87.9650963, 41.975303700000012 ], [ -87.9651044, 41.975381499999976 ], [ -87.9651339, 41.975377500000022 ], [ -87.9651365, 41.975632700000055 ], [ -87.9650427, 41.975632700000055 ], [ -87.9650534, 41.975802199999968 ], [ -87.9651178, 41.975810200000019 ], [ -87.9651339, 41.976227 ], [ -87.965107, 41.976227 ], [ -87.965107, 41.976296800000021 ], [ -87.9642514, 41.976310700000035 ], [ -87.9642461, 41.975882 ], [ -87.964270200000016, 41.975878 ], [ -87.9642514, 41.9752379 ], [ -87.9648093, 41.975222 ] ] ] ] } },
{ "type": "Feature", "properties": { "analysis_unit_id": "meta_dekalb_campus", "canonical_name": "Meta DeKalb Data Center campus", "operator": "Meta Platforms", "taxonomy_group_id": "hyperscale_greenfield_campus", "seed_record_ids": "site_02615", "related_record_ids": "site_02465|site_02466|site_02467", "seed_record_count": 1, "reference_record_count": 4, "resolution_status": "resolved_reference_campus", "identity_confidence": "high", "poc_status": "not_started", "entity_evidence": "visual-taxonomy/data_center_site_report.pdf", "geometry_role": "source_geometry_union_not_project_boundary" }, "geometry": { "type": "Polygon", "coordinates": [ [ [ -88.7361482, 41.889740699999969 ], [ -88.73618, 41.892678 ], [ -88.7317684, 41.8927059 ], [ -88.7289038, 41.892715900000034 ], [ -88.7263691, 41.8926959 ], [ -88.724902, 41.892626099999973 ], [ -88.7243146, 41.892630100000034 ], [ -88.7241536, 41.892526199999963 ], [ -88.7237325, 41.892520200000078 ], [ -88.7236467, 41.892608100000011 ], [ -88.7234536, 41.892662 ], [ -88.7232363, 41.892682 ], [ -88.7218845, 41.89269 ], [ -88.7194008, 41.8926979 ], [ -88.7193793, 41.88558160000003 ], [ -88.7388518, 41.8857091 ], [ -88.7387675, 41.889749799999976 ], [ -88.7361482, 41.889740699999969 ] ] ] } },
{ "type": "Feature", "properties": { "analysis_unit_id": "microsoft_elk_grove_campus", "canonical_name": "Microsoft Elk Grove CHI10-CHI12 campus", "operator": "Microsoft", "taxonomy_group_id": "industrial_park_warehouse_style_colo", "seed_record_ids": "site_02399", "related_record_ids": "", "seed_record_count": 1, "reference_record_count": 1, "resolution_status": "resolved_documentary_campus_seed", "identity_confidence": "high", "poc_status": "not_started", "entity_evidence": "https://www.elkgrove.org/home/showpublisheddocument/14156/638339203873670000|https://epa.illinois.gov/content/dam/soi/en/web/epa/topics/environmental-justice/documents/notification-letters/Elk%20Grove%20Village%20%28CHI10-11-12%29%20Data%20Center%20031440AUK%20Construction%2024070017.pdf", "geometry_role": "source_geometry_union_not_project_boundary" }, "geometry": { "type": "Polygon", "coordinates": [ [ [ -87.9732264, 42.022878799999965 ], [ -87.9711498, 42.022870600000026 ], [ -87.9711459, 42.0234077 ], [ -87.9732224, 42.0234162 ], [ -87.9732264, 42.022878799999965 ] ] ] } },
{ "type": "Feature", "properties": { "analysis_unit_id": "ntt_itasca_chicago_campus", "canonical_name": "NTT Itasca Chicago campus", "operator": "NTT", "taxonomy_group_id": "large_purpose_built_data_center", "seed_record_ids": "site_02375", "related_record_ids": "site_02435|site_02554|site_02555", "seed_record_count": 1, "reference_record_count": 4, "resolution_status": "resolved_operator_campus", "identity_confidence": "high", "poc_status": "not_started", "entity_evidence": "https://services.global.ntt/en-us/services-and-products/global-data-centers/global-locations/americas/chicago-data-centers", "geometry_role": "source_geometry_union_not_project_boundary" }, "geometry": { "type": "MultiPolygon", "coordinates": [ [ [ [ -88.0083877, 41.987242700000017 ], [ -88.0070705, 41.986919400000019 ], [ -88.0072615, 41.986476 ], [ -88.007274700000011, 41.9864466 ], [ -88.0074412, 41.986488499999957 ], [ -88.0074275, 41.98651689999997 ], [ -88.0079199, 41.98664440000001 ], [ -88.0079336, 41.986613700000014 ], [ -88.0081019, 41.986657299999962 ], [ -88.0080896, 41.986684799999985 ], [ -88.0085315, 41.986797700000018 ], [ -88.008545400000017, 41.986766499999973 ], [ -88.0088987, 41.986860399999983 ], [ -88.00863, 41.987435 ], [ -88.0083334, 41.987359900000065 ], [ -88.0083877, 41.987242700000017 ] ] ], [ [ [ -88.0080947, 41.9881497 ], [ -88.0060345, 41.988132300000032 ], [ -88.006038600000011, 41.987688900000038 ], [ -88.0060254, 41.987688900000038 ], [ -88.0060264, 41.98764809999998 ], [ -88.0062033, 41.987649599999948 ], [ -88.0062033, 41.987681299999963 ], [ -88.0067013, 41.987685100000057 ], [ -88.0067013, 41.9876541 ], [ -88.0068771, 41.987654900000031 ], [ -88.0068761, 41.987685100000057 ], [ -88.0073975, 41.987691100000028 ], [ -88.0073975, 41.987658699999947 ], [ -88.0075757, 41.987660800000022 ], [ -88.0075757, 41.987689699999969 ], [ -88.0080429, 41.98769359999995 ], [ -88.0080429, 41.987660800000022 ], [ -88.008418, 41.987667300000012 ], [ -88.008406, 41.988275599999966 ], [ -88.0080927, 41.988273600000056 ], [ -88.0080947, 41.9881497 ] ] ], [ [ [ -88.008090100000018, 41.989200899999986 ], [ -88.0060308, 41.989185699999972 ], [ -88.006037400000011, 41.988688100000012 ], [ -88.0061903, 41.988689200000017 ], [ -88.0061898, 41.988723900000011 ], [ -88.0067132, 41.988727800000014 ], [ -88.0067137, 41.988693799999972 ], [ -88.0068633, 41.9886949 ], [ -88.0068628, 41.988727700000027 ], [ -88.0073996, 41.9887318 ], [ -88.0074002, 41.988693199999986 ], [ -88.0075666, 41.9886945 ], [ -88.0075661, 41.988731499999979 ], [ -88.0080388, 41.9887351 ], [ -88.0080393, 41.988696599999983 ], [ -88.0083954, 41.9886992 ], [ -88.0083868, 41.98934179999997 ], [ -88.0080882, 41.9893396 ], [ -88.008090100000018, 41.989200899999986 ] ] ], [ [ [ -88.0044461, 41.9899229 ], [ -88.0044562, 41.989552799999984 ], [ -88.0044145, 41.9895525 ], [ -88.0044173, 41.989421899999968 ], [ -88.0044579, 41.989422900000029 ], [ -88.0044712, 41.98903540000002 ], [ -88.0044276, 41.989035099999988 ], [ -88.0044322, 41.9889027 ], [ -88.0044711, 41.988903 ], [ -88.004481, 41.988555799999979 ], [ -88.0044368, 41.988555500000025 ], [ -88.004449300000019, 41.9882767 ], [ -88.0051022, 41.988288599999976 ], [ -88.0050511, 41.989926 ], [ -88.0044461, 41.9899229 ] ] ] ] } },
{ "type": "Feature", "properties": { "analysis_unit_id": "site_00614", "canonical_name": "Stream Chicago I", "operator": "Stream", "taxonomy_group_id": "industrial_park_warehouse_style_colo", "seed_record_ids": "site_00614", "related_record_ids": "", "seed_record_count": 1, "reference_record_count": 1, "resolution_status": "provisional_single_record", "identity_confidence": "medium", "poc_status": "not_started", "entity_evidence": "visual-taxonomy/data_center_site_report.pdf", "geometry_role": "source_geometry_not_project_boundary" }, "geometry": { "type": "Polygon", "coordinates": [ [ [ -87.9522469, 42.002915299999984 ], [ -87.9522256, 42.002307200000033 ], [ -87.9499769, 42.0023508 ], [ -87.949993, 42.00280920000003 ], [ -87.9501967, 42.0028053 ], [ -87.9502019, 42.002953599999962 ], [ -87.9503658, 42.002950500000011 ], [ -87.9503631, 42.002874300000023 ], [ -87.9519132, 42.002844600000039 ], [ -87.9519159, 42.0029217 ], [ -87.9522469, 42.002915299999984 ] ] ] } },
{ "type": "Feature", "properties": { "analysis_unit_id": "site_00616", "canonical_name": "Stream Chicago II", "operator": "Stream", "taxonomy_group_id": "industrial_park_warehouse_style_colo", "seed_record_ids": "site_00616", "related_record_ids": "", "seed_record_count": 1, "reference_record_count": 1, "resolution_status": "provisional_single_record", "identity_confidence": "medium", "poc_status": "not_started", "entity_evidence": "visual-taxonomy/data_center_site_report.pdf", "geometry_role": "source_geometry_not_project_boundary" }, "geometry": { "type": "Polygon", "coordinates": [ [ [ -87.959003100000018, 41.999546700000039 ], [ -87.9589732, 41.998656600000018 ], [ -87.9565262, 41.998701900000015 ], [ -87.9565561, 41.999592299999975 ], [ -87.959003100000018, 41.999546700000039 ] ] ] } },
{ "type": "Feature", "properties": { "analysis_unit_id": "site_00617", "canonical_name": "T5 Chicago II", "operator": "T5 Data Centers", "taxonomy_group_id": "industrial_park_warehouse_style_colo", "seed_record_ids": "site_00617", "related_record_ids": "", "seed_record_count": 1, "reference_record_count": 1, "resolution_status": "provisional_single_record", "identity_confidence": "medium", "poc_status": "not_started", "entity_evidence": "visual-taxonomy/data_center_site_report.pdf", "geometry_role": "source_geometry_not_project_boundary" }, "geometry": { "type": "Polygon", "coordinates": [ [ [ -87.9770011, 42.0227635 ], [ -87.9741174, 42.02274950000001 ], [ -87.9741124, 42.023321 ], [ -87.9769961, 42.023335299999985 ], [ -87.9770011, 42.0227635 ] ] ] } },
{ "type": "Feature", "properties": { "analysis_unit_id": "site_01560", "canonical_name": "QTS Chicago", "operator": "Quality Technology Services", "taxonomy_group_id": "industrial_park_warehouse_style_colo", "seed_record_ids": "site_01560", "related_record_ids": "", "seed_record_count": 1, "reference_record_count": 1, "resolution_status": "provisional_single_record", "identity_confidence": "medium", "poc_status": "not_started", "entity_evidence": "visual-taxonomy/data_center_site_report.pdf", "geometry_role": "source_geometry_not_project_boundary" }, "geometry": { "type": "Polygon", "coordinates": [ [ [ -87.6706171, 41.841967700000041 ], [ -87.6706657, 41.8419667 ], [ -87.6706629, 41.8418952 ], [ -87.6703209, 41.841902599999976 ], [ -87.6687265, 41.8419308 ], [ -87.668707, 41.841540200000033 ], [ -87.6674409, 41.841565199999984 ], [ -87.6674493, 41.841830200000054 ], [ -87.6673285, 41.84183 ], [ -87.6673377, 41.84201539999998 ], [ -87.6672127, 41.8420153 ], [ -87.6672209, 41.842125699999976 ], [ -87.6673124, 41.842125699999976 ], [ -87.6673245, 41.8426284 ], [ -87.6674333, 41.842627200000017 ], [ -87.6674339, 41.842650200000016 ], [ -87.6674884, 41.84265 ], [ -87.6674799, 41.842379199999989 ], [ -87.6676784, 41.842377 ], [ -87.6676765, 41.842316400000058 ], [ -87.6686355, 41.842299800000049 ], [ -87.6686364, 41.842334099999988 ], [ -87.6688568, 41.84233 ], [ -87.6688635, 41.842659400000031 ], [ -87.6686915, 41.8426621 ], [ -87.6686989, 41.8428397 ], [ -87.6688824, 41.842836900000037 ], [ -87.668879, 41.842763499999975 ], [ -87.6701462, 41.842739599999938 ], [ -87.6705215, 41.84273670000001 ], [ -87.6705218, 41.8428073 ], [ -87.6706517, 41.842805400000024 ], [ -87.6706426, 41.842635199999982 ], [ -87.670674, 41.842635199999982 ], [ -87.6706639, 41.842290200000051 ], [ -87.6706274, 41.842289499999957 ], [ -87.6706171, 41.841967700000041 ] ] ] } },
{ "type": "Feature", "properties": { "analysis_unit_id": "site_01842", "canonical_name": "Equinix Chicago CH3", "operator": "Equinix", "taxonomy_group_id": "industrial_park_warehouse_style_colo", "seed_record_ids": "site_01842", "related_record_ids": "", "seed_record_count": 1, "reference_record_count": 1, "resolution_status": "provisional_single_record", "identity_confidence": "medium", "poc_status": "not_started", "entity_evidence": "visual-taxonomy/data_center_site_report.pdf", "geometry_role": "source_geometry_not_project_boundary" }, "geometry": { "type": "Polygon", "coordinates": [ [ [ -87.9546331, 42.001919899999969 ], [ -87.955113, 42.00191420000003 ], [ -87.9551093, 42.0017408 ], [ -87.955333, 42.001738100000011 ], [ -87.9553263, 42.001426100000039 ], [ -87.9557339, 42.001421299999947 ], [ -87.9557346, 42.001454200000026 ], [ -87.9559233, 42.0014519 ], [ -87.9559035, 42.000540699999952 ], [ -87.9553535, 42.000547300000044 ], [ -87.955353, 42.000522200000034 ], [ -87.9552936, 42.0005229 ], [ -87.9552968, 42.000674400000023 ], [ -87.954476200000016, 42.000684099999987 ], [ -87.9544771, 42.0007292 ], [ -87.954607600000017, 42.000727700000027 ], [ -87.9546331, 42.001919899999969 ] ] ] } },
{ "type": "Feature", "properties": { "analysis_unit_id": "site_01881", "canonical_name": "Digital Realty CH1", "operator": "Digital Realty", "taxonomy_group_id": "industrial_park_warehouse_style_colo", "seed_record_ids": "site_01881", "related_record_ids": "", "seed_record_count": 1, "reference_record_count": 1, "resolution_status": "provisional_single_record", "identity_confidence": "medium", "poc_status": "not_started", "entity_evidence": "visual-taxonomy/data_center_site_report.pdf", "geometry_role": "source_geometry_not_project_boundary" }, "geometry": { "type": "Polygon", "coordinates": [ [ [ -87.9609228, 41.9939993 ], [ -87.9607848, 41.9941125 ], [ -87.9605886, 41.9939721 ], [ -87.9602497, 41.9942536 ], [ -87.9605626, 41.9944827 ], [ -87.9609162, 41.994206600000062 ], [ -87.9608969, 41.9941928 ], [ -87.9609329, 41.9941638 ], [ -87.9609536, 41.995131199999982 ], [ -87.9635474, 41.995100500000021 ], [ -87.9635136, 41.9935175 ], [ -87.9636204, 41.993516200000016 ], [ -87.9636168, 41.99335130000005 ], [ -87.9609096, 41.993383200000032 ], [ -87.9609228, 41.9939993 ] ] ] } },
{ "type": "Feature", "properties": { "analysis_unit_id": "site_01928", "canonical_name": "Iron Mountain Data & Record Storage", "operator": "Iron Mountain", "taxonomy_group_id": "industrial_park_warehouse_style_colo", "seed_record_ids": "site_01928", "related_record_ids": "", "seed_record_count": 1, "reference_record_count": 1, "resolution_status": "provisional_single_record", "identity_confidence": "medium", "poc_status": "not_started", "entity_evidence": "visual-taxonomy/data_center_site_report.pdf", "geometry_role": "source_geometry_not_project_boundary" }, "geometry": { "type": "Polygon", "coordinates": [ [ [ -87.6462767, 41.848250200000024 ], [ -87.6461489, 41.848303299999984 ], [ -87.6461647, 41.84832550000003 ], [ -87.6458715, 41.848444799999989 ], [ -87.6456268, 41.848498 ], [ -87.6455459, 41.8485167 ], [ -87.6454171, 41.8485448 ], [ -87.6452902, 41.8485701 ], [ -87.6451615, 41.848592699999948 ], [ -87.645031, 41.8486152 ], [ -87.6449005, 41.848635 ], [ -87.6447718, 41.848653400000011 ], [ -87.6446395, 41.848670499999976 ], [ -87.644509, 41.848686200000046 ], [ -87.6445142, 41.8487407 ], [ -87.6445572, 41.849162500000048 ], [ -87.6452097, 41.849128800000052 ], [ -87.6452032, 41.849074800000039 ], [ -87.6452758, 41.849070800000042 ], [ -87.6452837, 41.849125 ], [ -87.6462896, 41.8490731 ], [ -87.6462894, 41.8488546 ], [ -87.646289, 41.848528100000017 ], [ -87.6462806, 41.848505299999985 ], [ -87.6464064, 41.848475400000027 ], [ -87.6464002, 41.8482474 ], [ -87.6462767, 41.848250200000024 ] ] ] } },
{ "type": "Feature", "properties": { "analysis_unit_id": "site_01940", "canonical_name": "Equinix Chicago Data CH7", "operator": "Equinix", "taxonomy_group_id": "industrial_park_warehouse_style_colo", "seed_record_ids": "site_01940", "related_record_ids": "", "seed_record_count": 1, "reference_record_count": 1, "resolution_status": "provisional_single_record", "identity_confidence": "medium", "poc_status": "not_started", "entity_evidence": "visual-taxonomy/data_center_site_report.pdf", "geometry_role": "source_geometry_not_project_boundary" }, "geometry": { "type": "Polygon", "coordinates": [ [ [ -87.9732736, 41.812271899999985 ], [ -87.972406, 41.81229219999998 ], [ -87.9724296, 41.812853500000031 ], [ -87.9731119, 41.812837600000059 ], [ -87.9731095, 41.8127783 ], [ -87.9732947, 41.812774 ], [ -87.9732736, 41.812271899999985 ] ] ] } },
{ "type": "Feature", "properties": { "analysis_unit_id": "site_02009", "canonical_name": "Centersquare Elk Grove Village Data Center Campus ORD2", "operator": "Centersquare", "taxonomy_group_id": "industrial_park_warehouse_style_colo", "seed_record_ids": "site_02009", "related_record_ids": "", "seed_record_count": 1, "reference_record_count": 1, "resolution_status": "provisional_single_record", "identity_confidence": "medium", "poc_status": "not_started", "entity_evidence": "visual-taxonomy/data_center_site_report.pdf", "geometry_role": "source_geometry_not_project_boundary" }, "geometry": { "type": "Polygon", "coordinates": [ [ [ -87.958801, 41.992903 ], [ -87.9587903, 41.9912698 ], [ -87.9572262, 41.991275400000013 ], [ -87.9572275, 41.991481400000026 ], [ -87.9573937, 41.9914809 ], [ -87.9573953, 41.991731899999969 ], [ -87.957663700000012, 41.991731 ], [ -87.9576713, 41.9929071 ], [ -87.958801, 41.992903 ] ] ] } },
{ "type": "Feature", "properties": { "analysis_unit_id": "site_02019", "canonical_name": "Skybox Chicago I", "operator": "Skybox", "taxonomy_group_id": "industrial_park_warehouse_style_colo", "seed_record_ids": "site_02019", "related_record_ids": "", "seed_record_count": 1, "reference_record_count": 1, "resolution_status": "provisional_single_record", "identity_confidence": "medium", "poc_status": "not_started", "entity_evidence": "visual-taxonomy/data_center_site_report.pdf", "geometry_role": "source_geometry_not_project_boundary" }, "geometry": { "type": "Polygon", "coordinates": [ [ [ -87.974994, 41.993937799999976 ], [ -87.9749708, 41.993350400000018 ], [ -87.9749399, 41.993332099999968 ], [ -87.9749045, 41.993320600000033 ], [ -87.9748752, 41.993327499999978 ], [ -87.9748598, 41.993341200000025 ], [ -87.972167, 41.993394500000036 ], [ -87.9721593, 41.993383 ], [ -87.9721331, 41.993377899999977 ], [ -87.9721085, 41.993379 ], [ -87.9720854, 41.993390499999968 ], [ -87.9720481, 41.9933913 ], [ -87.972072200000014, 41.994001699999984 ], [ -87.974994, 41.993937799999976 ] ] ] } },
{ "type": "Feature", "properties": { "analysis_unit_id": "site_02031", "canonical_name": "Digital Realty Chicago ORD12", "operator": "Digital Realty", "taxonomy_group_id": "industrial_park_warehouse_style_colo", "seed_record_ids": "site_02031", "related_record_ids": "", "seed_record_count": 1, "reference_record_count": 1, "resolution_status": "provisional_single_record", "identity_confidence": "medium", "poc_status": "not_started", "entity_evidence": "visual-taxonomy/data_center_site_report.pdf", "geometry_role": "source_geometry_not_project_boundary" }, "geometry": { "type": "Polygon", "coordinates": [ [ [ -87.8599073, 41.9286956 ], [ -87.859947800000015, 41.928694599999965 ], [ -87.8599213, 41.928075399999983 ], [ -87.8591179, 41.9280945 ], [ -87.8590527, 41.9279748 ], [ -87.8585611, 41.927985699999986 ], [ -87.8585876, 41.92865 ], [ -87.8587427, 41.9286466 ], [ -87.8587459, 41.9287257 ], [ -87.8588079, 41.928724299999978 ], [ -87.8588084, 41.9287365 ], [ -87.8599079, 41.928711499999984 ], [ -87.8599073, 41.9286956 ] ] ] } },
{ "type": "Feature", "properties": { "analysis_unit_id": "site_02109", "canonical_name": "Centersquare Lisle ORD4 Data Center", "operator": "Centersquare", "taxonomy_group_id": "industrial_park_warehouse_style_colo", "seed_record_ids": "site_02109", "related_record_ids": "", "seed_record_count": 1, "reference_record_count": 1, "resolution_status": "provisional_single_record", "identity_confidence": "medium", "poc_status": "not_started", "entity_evidence": "visual-taxonomy/data_center_site_report.pdf", "geometry_role": "source_geometry_not_project_boundary" }, "geometry": { "type": "Polygon", "coordinates": [ [ [ -88.0960112, 41.80314750000003 ], [ -88.0959507, 41.8014893 ], [ -88.09376, 41.801533699999972 ], [ -88.0938205, 41.803192 ], [ -88.0960112, 41.80314750000003 ] ] ] } },
{ "type": "Feature", "properties": { "analysis_unit_id": "site_02132", "canonical_name": "Microsoft - Azure Datacenter", "operator": "Microsoft", "taxonomy_group_id": "large_purpose_built_data_center", "seed_record_ids": "site_02132", "related_record_ids": "", "seed_record_count": 1, "reference_record_count": 1, "resolution_status": "provisional_single_record", "identity_confidence": "medium", "poc_status": "not_started", "entity_evidence": "visual-taxonomy/data_center_site_report.pdf", "geometry_role": "source_geometry_not_project_boundary" }, "geometry": { "type": "Polygon", "coordinates": [ [ [ -87.9189323, 41.924182899999984 ], [ -87.918944, 41.9220594 ], [ -87.9183903, 41.922057699999982 ], [ -87.9183921, 41.9217325 ], [ -87.9175959, 41.921730100000026 ], [ -87.9175826, 41.924152900000024 ], [ -87.9188253, 41.924156700000033 ], [ -87.9188251, 41.924182499999972 ], [ -87.9189323, 41.924182899999984 ] ] ] } },
{ "type": "Feature", "properties": { "analysis_unit_id": "site_02186", "canonical_name": "Digital Realty CH3", "operator": "Digital Realty", "taxonomy_group_id": "industrial_park_warehouse_style_colo", "seed_record_ids": "site_02186", "related_record_ids": "", "seed_record_count": 1, "reference_record_count": 1, "resolution_status": "provisional_single_record", "identity_confidence": "medium", "poc_status": "not_started", "entity_evidence": "visual-taxonomy/data_center_site_report.pdf", "geometry_role": "source_geometry_not_project_boundary" }, "geometry": { "type": "Polygon", "coordinates": [ [ [ -87.9656499, 41.995334899999982 ], [ -87.9656375, 41.994899 ], [ -87.96597850000002, 41.994893599999969 ], [ -87.9659458, 41.9937496 ], [ -87.9653881, 41.993758400000019 ], [ -87.9653763, 41.993347599999979 ], [ -87.964084, 41.993368099999977 ], [ -87.9641109, 41.9943095 ], [ -87.9639058, 41.9943127 ], [ -87.963935, 41.9953307 ], [ -87.964152, 41.995327300000021 ], [ -87.9641528, 41.9953586 ], [ -87.9656499, 41.995334899999982 ] ] ] } },
{ "type": "Feature", "properties": { "analysis_unit_id": "site_02187", "canonical_name": "Digital Realty CH2", "operator": "Digital Realty", "taxonomy_group_id": "industrial_park_warehouse_style_colo", "seed_record_ids": "site_02187", "related_record_ids": "", "seed_record_count": 1, "reference_record_count": 1, "resolution_status": "provisional_single_record", "identity_confidence": "medium", "poc_status": "not_started", "entity_evidence": "visual-taxonomy/data_center_site_report.pdf", "geometry_role": "source_geometry_not_project_boundary" }, "geometry": { "type": "Polygon", "coordinates": [ [ [ -87.9568629, 41.993545599999983 ], [ -87.956891, 41.994870100000043 ], [ -87.9571502, 41.994867099999965 ], [ -87.9571645, 41.995538300000028 ], [ -87.9584141, 41.995523499999976 ], [ -87.9583933, 41.994551 ], [ -87.9586186, 41.994548299999977 ], [ -87.958611, 41.9941964 ], [ -87.9586396, 41.994196100000018 ], [ -87.9586288, 41.993696700000015 ], [ -87.9585642, 41.993697400000016 ], [ -87.9585625, 41.9936146 ], [ -87.9583637, 41.9936169 ], [ -87.9583618, 41.9935281 ], [ -87.9568629, 41.993545599999983 ] ] ] } },
{ "type": "Feature", "properties": { "analysis_unit_id": "site_02253", "canonical_name": "STACK Chicago CHI01", "operator": "Stack Infrastructure", "taxonomy_group_id": "large_purpose_built_data_center", "seed_record_ids": "site_02253", "related_record_ids": "", "seed_record_count": 1, "reference_record_count": 1, "resolution_status": "provisional_single_record", "identity_confidence": "medium", "poc_status": "not_started", "entity_evidence": "visual-taxonomy/data_center_site_report.pdf", "geometry_role": "source_geometry_not_project_boundary" }, "geometry": { "type": "Polygon", "coordinates": [ [ [ -87.9634753, 42.0072965 ], [ -87.9663647, 42.0072558 ], [ -87.9663696, 42.007324200000042 ], [ -87.9669059, 42.0073118 ], [ -87.9668831, 42.0063878 ], [ -87.9634476, 42.006422199999989 ], [ -87.9634753, 42.0072965 ] ] ] } },
{ "type": "Feature", "properties": { "analysis_unit_id": "site_02613", "canonical_name": "Microsoft Hoffman Estates data-center campus", "operator": "Microsoft", "taxonomy_group_id": "hyperscale_greenfield_campus", "seed_record_ids": "site_02613", "related_record_ids": "", "seed_record_count": 1, "reference_record_count": 1, "resolution_status": "resolved_reference_campus", "identity_confidence": "high", "poc_status": "not_started", "entity_evidence": "visual-taxonomy/data_center_site_report.pdf|https://dceo.illinois.gov/content/dam/soi/en/web/dceo/aboutdceo/reportsrequiredbystatute/2024-data-centers-annual-report-submission.pdf", "geometry_role": "source_geometry_union_not_project_boundary" }, "geometry": { "type": "Polygon", "coordinates": [ [ [ -88.1361183, 42.074585 ], [ -88.1328708, 42.074629499999986 ], [ -88.1315619, 42.0746454 ], [ -88.1316607, 42.079298700000031 ], [ -88.1362082, 42.079280899999986 ], [ -88.1361183, 42.074585 ] ] ] } }
]
}
