{
"type": "FeatureCollection",
"name": "query_zones",
"crs": { "type": "name", "properties": { "name": "urn:ogc:def:crs:OGC:1.3:CRS84" } },
"features": [
{ "type": "Feature", "properties": { "query_zone_id": "zone_01", "analysis_unit_count": 1, "analysis_unit_ids": "site_02613", "bbox_wgs84": "-88.1422518,42.0700830,-88.1255189,42.0838014", "buffer_m": 500 }, "geometry": { "type": "Polygon", "coordinates": [ [ [ -88.141819863244379, 42.080953785475486 ], [ -88.141571184059401, 42.081357738176173 ], [ -88.141270259498725, 42.081741461181437 ], [ -88.140920020220662, 42.082101216293857 ], [ -88.140523877473655, 42.082433498746468 ], [ -88.14008568988308, 42.08273507135889 ], [ -88.139609725871168, 42.083002996087757 ], [ -88.139100622075816, 42.083234662663543 ], [ -88.138563338173128, 42.083427814034003 ], [ -88.138003108544666, 42.083580568365853 ], [ -88.137425391260706, 42.08369143738966 ], [ -88.136835814877713, 42.083759340908721 ], [ -88.136240123569706, 42.083783617330191 ], [ -88.131692302041188, 42.08380142248582 ], [ -88.131103662675912, 42.083782322614603 ], [ -88.130520316866779, 42.083720619844357 ], [ -88.129947808256674, 42.083616900534665 ], [ -88.129391577439947, 42.083472150333748 ], [ -88.1288569102298, 42.083287744806384 ], [ -88.128348887401131, 42.083065436354552 ], [ -88.127872336387313, 42.082807337555167 ], [ -88.127431785391181, 42.08251590107384 ], [ -88.127031420347066, 42.08219389634607 ], [ -88.126675045143159, 42.081844383247699 ], [ -88.126366045482811, 42.081470683005946 ], [ -88.126107356727346, 42.081076346627611 ], [ -88.125901436026169, 42.08066512114506 ], [ -88.125750238997824, 42.080240914001543 ], [ -88.125655201182582, 42.079807755914416 ], [ -88.125617224441669, 42.079369762569719 ], [ -88.125518865680988, 42.074716452089895 ], [ -88.125538622745879, 42.074274949049766 ], [ -88.125616350918662, 42.073837012948161 ], [ -88.125751300923142, 42.073406858671476 ], [ -88.12594217282215, 42.072988626126239 ], [ -88.12618712857082, 42.072586340400953 ], [ -88.126483809744173, 42.072203873036017 ], [ -88.126829360267308, 42.071844904773805 ], [ -88.127220453927862, 42.071512890147361 ], [ -88.127653326405138, 42.071211024247532 ], [ -88.12812381150728, 42.070942211988225 ], [ -88.128627381267052, 42.070709040164559 ], [ -88.129159189510773, 42.07051375257246 ], [ -88.12971411848126, 42.070358228428447 ], [ -88.130286828066957, 42.070243964296594 ], [ -88.130871807164368, 42.070172059696276 ], [ -88.131463426680995, 42.070143206528677 ], [ -88.13276600976458, 42.070127384406291 ], [ -88.136007056199645, 42.070082975506871 ], [ -88.136601404694559, 42.070096622238324 ], [ -88.137191076923401, 42.070153719912952 ], [ -88.137770365186782, 42.070253715842895 ], [ -88.138333662237457, 42.070395642106568 ], [ -88.138875515523893, 42.070578124912636 ], [ -88.139390679941158, 42.070799397890127 ], [ -88.139874168579553, 42.071057319176894 ], [ -88.14032130098083, 42.071349392141265 ], [ -88.140727748435978, 42.071672789536841 ], [ -88.141089575886497, 42.072024380857307 ], [ -88.141403280023624, 42.072400762626913 ], [ -88.141665823216968, 42.072798291334173 ], [ -88.141874662943266, 42.073213118690624 ], [ -88.142027776429586, 42.073641228873697 ], [ -88.142123680271652, 42.074078477393869 ], [ -88.142161444835679, 42.074520631210262 ], [ -88.142251790161367, 42.079216521070947 ], [ -88.142230894802054, 42.079660654588956 ], [ -88.142151331975981, 42.08010109044173 ], [ -88.142013875508439, 42.080533538278679 ], [ -88.141819863244379, 42.080953785475486 ] ] ] } },
{ "type": "Feature", "properties": { "query_zone_id": "zone_02", "analysis_unit_count": 2, "analysis_unit_ids": "microsoft_elk_grove_campus|site_00617", "bbox_wgs84": "-87.9830400,42.0182466,-87.9651069,42.0279191", "buffer_m": 500 }, "geometry": { "type": "Polygon", "coordinates": [ [ [ -87.982763669780866, 42.024670450474723 ], [ -87.982560382726291, 42.0250855740723 ], [ -87.982303496502851, 42.02548383998856 ], [ -87.981995484658299, 42.02586141181164 ], [ -87.981639313375368, 42.026214652404519 ], [ -87.981238412923375, 42.0265401589525 ], [ -87.980796644631781, 42.026834795755192 ], [ -87.980318263702543, 42.027095724446347 ], [ -87.97980787821983, 42.027320431349885 ], [ -87.979270404751915, 42.027506751707804 ], [ -87.978711020973307, 42.027652890546207 ], [ -87.978135115764331, 42.027757439977769 ], [ -87.977548237270057, 42.027819392773431 ], [ -87.976956039420145, 42.027838152072277 ], [ -87.974432457731154, 42.02782564370775 ], [ -87.974368135525509, 42.027837377809369 ], [ -87.973781420289342, 42.027899821438702 ], [ -87.973189320660524, 42.027919086322868 ], [ -87.971112674086939, 42.027910587263207 ], [ -87.970520899497274, 42.027886477573631 ], [ -87.969935144511211, 42.027819236623841 ], [ -87.969361050792003, 42.027709512030071 ], [ -87.968804147621384, 42.027558360584543 ], [ -87.968269798614756, 42.027367238071328 ], [ -87.96776315003649, 42.027137985237282 ], [ -87.967289081214702, 42.026872810053696 ], [ -87.966852157534049, 42.026574266439695 ], [ -87.966456586459856, 42.026245229653242 ], [ -87.966106177017878, 42.025888868586847 ], [ -87.965804303119725, 42.025508615235921 ], [ -87.96555387108728, 42.025108131633985 ], [ -87.965357291688008, 42.024691274574096 ], [ -87.965216456949733, 42.024262058456607 ], [ -87.965132721977142, 42.023824616621553 ], [ -87.965106891943577, 42.023383161538533 ], [ -87.965110842782522, 42.022846061213023 ], [ -87.965143164266394, 42.022404849064891 ], [ -87.965233323931415, 42.021968123199784 ], [ -87.965380452456159, 42.021540088836097 ], [ -87.965583132041758, 42.021124867418777 ], [ -87.96583941010509, 42.020726456940615 ], [ -87.966146818116414, 42.020348693455311 ], [ -87.966502395398905, 42.019995214152047 ], [ -87.966902717659593, 42.019669422347029 ], [ -87.967343929976252, 42.019374454728428 ], [ -87.967821783922076, 42.019113151169229 ], [ -87.968331678470335, 42.018888027398525 ], [ -87.968868704285626, 42.018701250793207 ], [ -87.969427690975294, 42.01855461952303 ], [ -87.970003256847264, 42.018449545248906 ], [ -87.970589860696066, 42.018387039540677 ], [ -87.971181855119752, 42.018367704144836 ], [ -87.972722662999502, 42.018373793168017 ], [ -87.972978010804198, 42.018327419465741 ], [ -87.973564755484063, 42.018265438503235 ], [ -87.974156821258717, 42.018246638753865 ], [ -87.97704031775622, 42.018260639914232 ], [ -87.977632012974908, 42.018285188139629 ], [ -87.978217633146159, 42.018352863382269 ], [ -87.978791539392589, 42.018463013993127 ], [ -87.979348205562019, 42.018614579329551 ], [ -87.979882271408485, 42.018806099962305 ], [ -87.980388594180098, 42.019035731720514 ], [ -87.98086229811895, 42.019301263439623 ], [ -87.981298821396976, 42.019600138242012 ], [ -87.981693960036878, 42.019929478145542 ], [ -87.982043908395426, 42.020286111764278 ], [ -87.982345295819513, 42.020666604834517 ], [ -87.982595219121933, 42.021067293273397 ], [ -87.982791270563126, 42.021484318452082 ], [ -87.982931561069208, 42.021913664344211 ], [ -87.983014738460994, 42.022351196192801 ], [ -87.983040000517406, 42.022792700323158 ], [ -87.983035054641462, 42.02336450001097 ], [ -87.983002153160044, 42.023805748904948 ], [ -87.982911400549327, 42.024242467917254 ], [ -87.982763669780866, 42.024670450474723 ] ] ] } },
{ "type": "Feature", "properties": { "query_zone_id": "zone_03", "analysis_unit_count": 10, "analysis_unit_ids": "edgeconnex_elk_grove_chi01_chi02|site_00614|site_00616|site_01842|site_01881|site_02009|site_02019|site_02186|site_02187|site_02253", "bbox_wgs84": "-87.9810277,41.9867669,-87.9435820,42.0118250", "buffer_m": 500 }, "geometry": { "type": "Polygon", "coordinates": [ [ [ -87.970489940743605, 41.998347239601429 ], [ -87.97020805346132, 41.99827888523226 ], [ -87.970008142106749, 41.998450618358206 ], [ -87.969577752994169, 41.99875427649269 ], [ -87.969109530910046, 41.999025003515335 ], [ -87.968607985316268, 41.999260191776905 ], [ -87.968077946816763, 41.999457575909119 ], [ -87.967524520617275, 41.999615254656668 ], [ -87.966953037332885, 41.999731709201022 ], [ -87.966369001617849, 41.999805817799015 ], [ -87.965778039114056, 41.999836866594841 ], [ -87.965024704478395, 41.9998487953252 ], [ -87.965023845080879, 41.999875536740312 ], [ -87.964951658855753, 42.000314162545521 ], [ -87.964822178410486, 42.000745398081506 ], [ -87.964636649713455, 42.00116508981985 ], [ -87.964396858667527, 42.001569195337886 ], [ -87.964136894537262, 42.001911924005142 ], [ -87.966801939463778, 42.001885231639406 ], [ -87.967392149111916, 42.00190086038328 ], [ -87.967977488144371, 42.001959425751927 ], [ -87.968552356070603, 42.002060367383642 ], [ -87.969111252527782, 42.002202719460591 ], [ -87.969648829877798, 42.002385119944535 ], [ -87.970159944347358, 42.002605823601641 ], [ -87.970639705223107, 42.002862718691787 ], [ -87.971083521632124, 42.003153347163504 ], [ -87.971487146461001, 42.00347492816153 ], [ -87.971846716993895, 42.003824384622881 ], [ -87.972158791880631, 42.004198372707208 ], [ -87.972420384081303, 42.004593313780816 ], [ -87.972628989471417, 42.005005428648602 ], [ -87.972782610833335, 42.005430773706955 ], [ -87.972879777003016, 42.005865278672395 ], [ -87.972919556988046, 42.006304785524847 ], [ -87.972942444277024, 42.007228783423642 ], [ -87.972924684063898, 42.007666943844598 ], [ -87.972849883708662, 42.008101740058009 ], [ -87.972718750945404, 42.008529051456186 ], [ -87.97253252743927, 42.008944828284356 ], [ -87.972292977059624, 42.00934513002624 ], [ -87.972002369199927, 42.009726162757467 ], [ -87.971663457301077, 42.010084315111861 ], [ -87.971279452780664, 42.010416192519799 ], [ -87.970853994614203, 42.010718649393461 ], [ -87.970391114856156, 42.010988818953244 ], [ -87.969895200427189, 42.011224140412196 ], [ -87.969370951529697, 42.011422383260474 ], [ -87.968823337086505, 42.011581668418451 ], [ -87.9682575476251, 42.011700486058139 ], [ -87.967678946055472, 42.011777709923017 ], [ -87.967093016808889, 42.011812608010345 ], [ -87.966556679065917, 42.01182500926857 ], [ -87.965972665282905, 42.011817430150444 ], [ -87.965447380671051, 42.01177250492497 ], [ -87.963589217132593, 42.011798671949947 ], [ -87.962998736054899, 42.011785425104527 ], [ -87.962412817682733, 42.01172920576375 ], [ -87.961837071780181, 42.011630552177301 ], [ -87.96127701065943, 42.011490408871062 ], [ -87.960737996373723, 42.011310117599024 ], [ -87.960225189353366, 42.01109140448964 ], [ -87.959743498977588, 42.010836363510656 ], [ -87.959297536556647, 42.010547436410683 ], [ -87.958891571175315, 42.010227389330204 ], [ -87.958529488820744, 42.009879286306642 ], [ -87.958214755186376, 42.009506459927564 ], [ -87.957950382507917, 42.009112479413645 ], [ -87.957738900748339, 42.008701116437607 ], [ -87.95758233340699, 42.008276309006703 ], [ -87.957482178183454, 42.007842123755282 ], [ -87.957439392679831, 42.007402717008596 ], [ -87.95741177523594, 42.006528414714914 ], [ -87.957427190266202, 42.006083788813456 ], [ -87.957429588093291, 42.006069517690506 ], [ -87.956957362660816, 42.00620191128391 ], [ -87.956385000018713, 42.006316103911907 ], [ -87.956156868479553, 42.006344121542746 ], [ -87.955730514649375, 42.006593051821852 ], [ -87.955230349595425, 42.006830051954857 ], [ -87.954701439624117, 42.007029339361054 ], [ -87.954148880431461, 42.007188993938158 ], [ -87.953577995704038, 42.007307477423851 ], [ -87.95299428580212, 42.00738364822562 ], [ -87.952403374735425, 42.007416772427057 ], [ -87.952072351430758, 42.007423173112691 ], [ -87.951480083218996, 42.007412937972788 ], [ -87.951290346416343, 42.007395683299521 ], [ -87.951110123096782, 42.007419133990652 ], [ -87.950518861527925, 42.007452039044857 ], [ -87.950354949987542, 42.007455139379275 ], [ -87.949762913771238, 42.007444667488137 ], [ -87.949175101757987, 42.007390984927568 ], [ -87.948597170337223, 42.007294608261553 ], [ -87.948034680763371, 42.007156464887984 ], [ -87.947493045610145, 42.006977884109489 ], [ -87.94697747665991, 42.006760584334828 ], [ -87.9464929347306, 42.006506656534157 ], [ -87.946044081924413, 42.006218544107853 ], [ -87.945970349490963, 42.006160920350915 ], [ -87.945835965743129, 42.006074692936721 ], [ -87.945426979829307, 42.005755165344112 ], [ -87.945061943667199, 42.005407285079677 ], [ -87.944744370115998, 42.005034400598618 ], [ -87.944477315028763, 42.004640100971656 ], [ -87.944263347861693, 42.004228181327889 ], [ -87.944104526972509, 42.00380260631627 ], [ -87.94400237984425, 42.003367471937793 ], [ -87.943957888423881, 42.002926966116092 ], [ -87.943944894537694, 42.002556006305021 ], [ -87.943899082843458, 42.002467069666643 ], [ -87.943741851933879, 42.002041103120277 ], [ -87.943641344991292, 42.001605693946601 ], [ -87.943598528444667, 42.001165033881414 ], [ -87.943581978514203, 42.000634632508159 ], [ -87.943597277622544, 42.000192822506456 ], [ -87.943670566271294, 41.99975425908989 ], [ -87.943801137307759, 41.999323166806207 ], [ -87.943987731859792, 41.998903698151807 ], [ -87.944228551504352, 41.998499893578021 ], [ -87.944521275629015, 41.998115642579492 ], [ -87.944863083817509, 41.997754646239393 ], [ -87.945250683042858, 41.997420381591667 ], [ -87.945680339404774, 41.997116068142809 ], [ -87.946147914105282, 41.996844636875579 ], [ -87.946648903315676, 41.99660870203197 ], [ -87.947178481550694, 41.996410535947177 ], [ -87.947731548132808, 41.996252047175901 ], [ -87.948302776299514, 41.996134762121358 ], [ -87.948886664481577, 41.996059810343311 ], [ -87.949477589260056, 41.996027913686227 ], [ -87.951055237974145, 41.996000660536431 ], [ -87.950989814303426, 41.995818045989729 ], [ -87.95089370694825, 41.995382086552304 ], [ -87.950855335297049, 41.994941199780186 ], [ -87.950827360367867, 41.993616697034597 ], [ -87.950847108005163, 41.99317498787547 ], [ -87.95092480365183, 41.992736850217135 ], [ -87.951059697716587, 41.992306504449466 ], [ -87.951223863726042, 41.991946487192024 ], [ -87.95122325447177, 41.991943516833416 ], [ -87.951191471608411, 41.991502440607164 ], [ -87.951190191070495, 41.991296440339674 ], [ -87.951216509476126, 41.990854996732871 ], [ -87.95130069736814, 41.990417602874892 ], [ -87.951441942899066, 41.989988470553698 ], [ -87.95163888486789, 41.98957173192094 ], [ -87.951889625868873, 41.989171399708916 ], [ -87.95219175059907, 41.988791328599959 ], [ -87.952542349146611, 41.98843517812049 ], [ -87.952938045034486, 41.988106377416116 ], [ -87.953375027748905, 41.987808092246638 ], [ -87.953849089438208, 41.987543194518167 ], [ -87.954355665429247, 41.987314234644941 ], [ -87.954889878170576, 41.987123417006423 ], [ -87.95544658418028, 41.986972578735603 ], [ -87.95602042354686, 41.986863172041602 ], [ -87.956605871507776, 41.986796250236992 ], [ -87.957197291610186, 41.986772457603429 ], [ -87.958761281385463, 41.986766859133311 ], [ -87.959352981313117, 41.986786416748245 ], [ -87.959939263909035, 41.986849144460201 ], [ -87.960514484674363, 41.986954438340135 ], [ -87.961073105546177, 41.98710128464608 ], [ -87.961609748185467, 41.987288269577576 ], [ -87.962119245731984, 41.987513592879715 ], [ -87.96259669252882, 41.987775085166099 ], [ -87.963037491339165, 41.988070228794435 ], [ -87.963437397601254, 41.988396182094249 ], [ -87.96379256029617, 41.988749806714168 ], [ -87.963880280918858, 41.988857784396806 ], [ -87.964113202063587, 41.988863565904367 ], [ -87.964113782203171, 41.988863623106212 ], [ -87.965247936651721, 41.988845631836647 ], [ -87.965839977581808, 41.988857919473375 ], [ -87.966427554781404, 41.988913433609071 ], [ -87.967005011848428, 41.989011639816425 ], [ -87.967566789746243, 41.989151592683932 ], [ -87.968107480287912, 41.989331944911989 ], [ -87.968621878172272, 41.989550960275736 ], [ -87.968755859253505, 41.989621831736208 ], [ -87.968881422602507, 41.989557760828269 ], [ -87.969384585118988, 41.989350431579403 ], [ -87.969911898741316, 41.989179747454926 ], [ -87.970458581939795, 41.989047256105373 ], [ -87.970518978170077, 41.989034956972411 ], [ -87.97112794075268, 41.988935832739429 ], [ -87.971747357347411, 41.988884085392876 ], [ -87.971771955625627, 41.988882985487479 ], [ -87.972405642269862, 41.988879511198824 ], [ -87.972431843745369, 41.988881426801427 ], [ -87.974686128617989, 41.988820568278555 ], [ -87.975225406647155, 41.988823989077957 ], [ -87.975762123241054, 41.988863305293947 ], [ -87.976291994506468, 41.988938203107892 ], [ -87.976810791155344, 41.989048084699412 ], [ -87.977314372241537, 41.989192073015197 ], [ -87.977349770359396, 41.989203572299601 ], [ -87.977820261056948, 41.989374887754742 ], [ -87.978269085357297, 41.98957597366163 ], [ -87.978692866934196, 41.989805317417975 ], [ -87.978723766265063, 41.989823616425475 ], [ -87.979162689239104, 41.990110412298513 ], [ -87.979562447379408, 41.990427483086144 ], [ -87.979919305124213, 41.990771866369279 ], [ -87.980229927571656, 41.991140344498902 ], [ -87.980491411652665, 41.991529474647692 ], [ -87.980701313276398, 41.991935620966842 ], [ -87.980857670194069, 41.992354988548016 ], [ -87.980959020366242, 41.992783658873655 ], [ -87.981004415661076, 41.993217626424624 ], [ -87.981027671052928, 41.993805024632124 ], [ -87.981016080539931, 41.994246877196531 ], [ -87.980946483800565, 41.994685754164159 ], [ -87.980819550027391, 41.995117428123208 ], [ -87.98063650076476, 41.995537740959222 ], [ -87.980399098185075, 41.995942643913295 ], [ -87.980109628152888, 41.996328236589989 ], [ -87.979770878239222, 41.99669080453846 ], [ -87.979386110895874, 41.997026855044957 ], [ -87.97895903204774, 41.99733315079083 ], [ -87.978493755404713, 41.997606741051619 ], [ -87.977994762836801, 41.99784499013581 ], [ -87.977466861193932, 41.998045602788928 ], [ -87.976915135987099, 41.998206646317328 ], [ -87.976344902377306, 41.998326569218356 ], [ -87.975761653945838, 41.998404216136393 ], [ -87.975171009740293, 41.998438839000897 ], [ -87.972249004170166, 41.998502745615326 ], [ -87.971656760418512, 41.998494001248396 ], [ -87.97106851755359, 41.998441998975743 ], [ -87.970489940743605, 41.998347239601429 ] ] ] } },
{ "type": "Feature", "properties": { "query_zone_id": "zone_04", "analysis_unit_count": 1, "analysis_unit_ids": "ntt_itasca_chicago_campus", "bbox_wgs84": "-88.0149289,41.9819457,-87.9983794,41.9944288", "buffer_m": 500 }, "geometry": { "type": "Polygon", "coordinates": [ [ [ -88.014145111695868, 41.990691660064094 ], [ -88.013940063887077, 41.991106204769316 ], [ -88.013681538258581, 41.991503760517297 ], [ -88.01337202344709, 41.99188049882607 ], [ -88.013014499270497, 41.992232791619877 ], [ -88.012612408056313, 41.992557246179558 ], [ -88.012169621507866, 41.992850737827979 ], [ -88.011690403427338, 41.993110440035018 ], [ -88.011179368653941, 41.993333851651883 ], [ -88.010641438613192, 41.993518821011392 ], [ -88.010081793905513, 41.993663566661944 ], [ -88.009505824391795, 41.993766694534806 ], [ -88.008919077257502, 41.993827211378687 ], [ -88.008327203556917, 41.993844534332254 ], [ -88.008028582504025, 41.993842334407852 ], [ -88.008017835193172, 41.993841861037346 ], [ -88.00783252819673, 41.993922390171029 ], [ -88.007299785991464, 41.994104814950063 ], [ -88.006745833359176, 41.994247829138494 ], [ -88.006175895250252, 41.99435008376679 ], [ -88.005595347490484, 41.994410614316962 ], [ -88.005009666045666, 41.994428849826242 ], [ -88.004404623389604, 41.994425750072409 ], [ -88.003808115242677, 41.994400633867834 ], [ -88.003217858315423, 41.994331648634166 ], [ -88.002639636220337, 41.994219470309424 ], [ -88.002079114577214, 41.994065198054983 ], [ -88.001541785467637, 41.993870343479337 ], [ -88.001032913594841, 41.993636815818611 ], [ -88.000557484677927, 41.993366903219098 ], [ -88.000120156587073, 41.99306325030588 ], [ -87.99972521369935, 41.992728832257782 ], [ -87.999376524922837, 41.992366925643516 ], [ -87.999077505800344, 41.991981076305152 ], [ -87.998831085063927, 41.991575064604348 ], [ -87.998639675967041, 41.991152868372509 ], [ -87.998505152674483, 41.990718623928409 ], [ -87.998428831940103, 41.990276585545658 ], [ -87.998419545832164, 41.990038441716642 ], [ -87.998399169231064, 41.989923767301946 ], [ -87.998379414743638, 41.989480327345234 ], [ -87.998382227084079, 41.989349727357855 ], [ -87.998400348279247, 41.989124305453885 ], [ -87.998393822465729, 41.988918264381276 ], [ -87.998398434971691, 41.988785864485742 ], [ -87.99840990050879, 41.988655080306209 ], [ -87.998404418160092, 41.988404805629031 ], [ -87.99841694448169, 41.988126005995227 ], [ -87.99846536560095, 41.987688125499737 ], [ -87.998570755319903, 41.987255849942471 ], [ -87.998732109164322, 41.986833294664237 ], [ -87.998947889951836, 41.986424482386475 ], [ -87.999216042465193, 41.986033304921492 ], [ -87.999534013052056, 41.98566348613118 ], [ -87.999898773963949, 41.985318546487228 ], [ -88.000306852201135, 41.985001769569195 ], [ -88.000754362588452, 41.984716170819148 ], [ -88.001237044766469, 41.984464468849716 ], [ -88.001750303745993, 41.984249059577827 ], [ -88.002101882814642, 41.984133552481119 ], [ -88.002356171791362, 41.983836933457205 ], [ -88.002723224520935, 41.983489373650123 ], [ -88.003134221368427, 41.983170369164682 ], [ -88.00358519358025, 41.982882999944394 ], [ -88.004071786627037, 41.982630040457238 ], [ -88.004589302245435, 41.982413932921787 ], [ -88.005132743790298, 41.98223676374073 ], [ -88.005696864459793, 41.98210024336894 ], [ -88.006276217928786, 41.982005689809789 ], [ -88.006865210902816, 41.981954015898602 ], [ -88.00745815708629, 41.981945720495744 ], [ -88.008049332045942, 41.981980883673955 ], [ -88.008633028440926, 41.982059165946254 ], [ -88.009203611088381, 41.982179811541947 ], [ -88.009370101125512, 41.98222170888198 ], [ -88.0096507760409, 41.982302556239027 ], [ -88.009913282431654, 41.982359875391843 ], [ -88.010081572464472, 41.982403472628405 ], [ -88.010248219400708, 41.982452202920676 ], [ -88.010570723422646, 41.982524651672726 ], [ -88.010924002700236, 41.982618545730709 ], [ -88.011469272595718, 41.982786290300197 ], [ -88.011989996837912, 41.982992942447375 ], [ -88.012481202922203, 41.983236528894473 ], [ -88.01293820005543, 41.983514723665145 ], [ -88.013356623937256, 41.983824870283506 ], [ -88.013732478431706, 41.984164007128747 ], [ -88.014062173731347, 41.984528895703313 ], [ -88.014342560649609, 41.984916051545873 ], [ -88.014570960713399, 41.985321777493937 ], [ -88.014745191768128, 41.985742198979544 ], [ -88.014863588849465, 41.986173301021005 ], [ -88.014925020121609, 41.986610966558253 ], [ -88.014928897728069, 41.987051015765857 ], [ -88.014875183450201, 41.987489245968462 ], [ -88.014764389117261, 41.987921471777867 ], [ -88.014597571762792, 41.988343565068071 ], [ -88.014428803104167, 41.988704537873254 ], [ -88.014430876509564, 41.988743998256084 ], [ -88.014422337231721, 41.989386598039204 ], [ -88.014387413853825, 41.989827696899042 ], [ -88.014294708163931, 41.990264118411552 ], [ -88.014145111695868, 41.990691660064094 ] ] ] } },
{ "type": "Feature", "properties": { "query_zone_id": "zone_05", "analysis_unit_count": 1, "analysis_unit_ids": "element_critical_wood_dale_ch1_ch2", "bbox_wgs84": "-87.9736043,41.9694295,-87.9582116,41.9808126", "buffer_m": 500 }, "geometry": { "type": "Polygon", "coordinates": [ [ [ -87.964352448683428, 41.969819201382528 ], [ -87.964909973356484, 41.969660550126939 ], [ -87.965485766616013, 41.969543764271819 ], [ -87.966074199132763, 41.969469985564267 ], [ -87.966669518089333, 41.969439935287291 ], [ -87.967440063861758, 41.969429536578502 ], [ -87.968027491031705, 41.969442967943294 ], [ -87.968610381771441, 41.969498979567632 ], [ -87.969183207636959, 41.969597040195943 ], [ -87.969740535588571, 41.969736219755418 ], [ -87.97027707949097, 41.969915198172238 ], [ -87.970787750224432, 41.970132277885106 ], [ -87.97126770393244, 41.970385399937122 ], [ -87.971712387949694, 41.97067216349425 ], [ -87.972117583975518, 41.970989848605505 ], [ -87.972479448083547, 41.971335441989545 ], [ -87.972794547188684, 41.971705665603764 ], [ -87.973059891625127, 41.972097007725353 ], [ -87.973272963526028, 41.9725057562502 ], [ -87.973431740734924, 41.972928033894163 ], [ -87.973534716021391, 41.973359834963496 ], [ -87.973580911416647, 41.973797063345842 ], [ -87.973604266195423, 41.974378561558808 ], [ -87.973592558775763, 41.974824526725591 ], [ -87.973521780626669, 41.975267439578452 ], [ -87.973392625033114, 41.975702954078137 ], [ -87.973206358167971, 41.976126796693514 ], [ -87.972964806712127, 41.976534808341356 ], [ -87.972670339970151, 41.976922985206173 ], [ -87.972325846655266, 41.977287518039233 ], [ -87.971934706570252, 41.977624829550727 ], [ -87.971500757461015, 41.977931609527332 ], [ -87.971028257367593, 41.978204847330332 ], [ -87.970521842841492, 41.978441861454357 ], [ -87.970361282030439, 41.9785013837379 ], [ -87.970178420494875, 41.978737496237073 ], [ -87.96983549462071, 41.979094692876672 ], [ -87.969447541483916, 41.979425249762713 ], [ -87.969018254728184, 41.979726019135896 ], [ -87.968551721776535, 41.979994136847225 ], [ -87.968052384911658, 41.980227049644938 ], [ -87.967524998968671, 41.980422539500935 ], [ -87.96697458604396, 41.980578744744371 ], [ -87.966406387651674, 41.980694177800537 ], [ -87.965825814784694, 41.980767739366001 ], [ -87.965238396356582, 41.980798728884075 ], [ -87.964382736148224, 41.980812630480131 ], [ -87.963785987586235, 41.980800286229332 ], [ -87.963193793853321, 41.980744009302136 ], [ -87.962611950629309, 41.980644350457233 ], [ -87.962046152235914, 41.98050228502084 ], [ -87.961501935875518, 41.980319203336087 ], [ -87.960984627412245, 41.980096897148449 ], [ -87.9604992892273, 41.979837542061027 ], [ -87.960050670659953, 41.979543676231664 ], [ -87.959643161520233, 41.979218175520955 ], [ -87.959280749128808, 41.978864225335165 ], [ -87.958966979304421, 41.978485289439973 ], [ -87.958704921680976, 41.978085076051059 ], [ -87.958497139692597, 41.977667501534007 ], [ -87.958345665520127, 41.977236652069216 ], [ -87.958251980242466, 41.97679674365763 ], [ -87.958216999386195, 41.976352080858973 ], [ -87.958211739847812, 41.975923380164296 ], [ -87.958211603368696, 41.975854193059753 ], [ -87.958216964188637, 41.975210092705588 ], [ -87.958247976570632, 41.97478126905105 ], [ -87.958333590635064, 41.97435659995196 ], [ -87.958473026641371, 41.973939947780678 ], [ -87.958665015401635, 41.973535101921151 ], [ -87.958907809859824, 41.973145744309896 ], [ -87.959199201013163, 41.972775415956818 ], [ -87.959536538029752, 41.97242748474973 ], [ -87.959916752378533, 41.972105114835244 ], [ -87.960336385751461, 41.9718112378538 ], [ -87.960791621523427, 41.971548526290235 ], [ -87.961278319463375, 41.971319369181536 ], [ -87.961792053381416, 41.97112585040226 ], [ -87.962218230585677, 41.971001740755895 ], [ -87.962410272906965, 41.970835644685465 ], [ -87.962842784740431, 41.970528885228362 ], [ -87.963313776681218, 41.97025550171697 ], [ -87.963818643432717, 41.970018166982541 ], [ -87.964352448683428, 41.969819201382528 ] ] ] } },
{ "type": "Feature", "properties": { "query_zone_id": "zone_06", "analysis_unit_count": 1, "analysis_unit_ids": "site_02031", "bbox_wgs84": "-87.8659750,41.9234737,-87.8525336,41.9332375", "buffer_m": 500 }, "geometry": { "type": "Polygon", "coordinates": [ [ [ -87.860680584410701, 41.933177488801576 ], [ -87.860091482527963, 41.93321251931264 ], [ -87.858991905350834, 41.933237521770103 ], [ -87.85840024585832, 41.933229281453869 ], [ -87.857812517051855, 41.933177779109904 ], [ -87.857234379081532, 41.933083510723122 ], [ -87.857226084994707, 41.933081505264283 ], [ -87.857170484340941, 41.933072428983714 ], [ -87.856607481672711, 41.932936182666033 ], [ -87.856065077872657, 41.932759383151257 ], [ -87.855548497597866, 41.932543733493013 ], [ -87.855453046529533, 41.932494135331027 ], [ -87.855386575889071, 41.932466339333629 ], [ -87.854901173358769, 41.932213739186217 ], [ -87.854451259396896, 41.931926835857674 ], [ -87.854041164727846, 41.931608391291341 ], [ -87.853674836572424, 41.931261471029266 ], [ -87.853355800656274, 41.930889414688707 ], [ -87.853087127284141, 41.930495803801001 ], [ -87.85287140180624, 41.930084427322932 ], [ -87.852710699760237, 41.929659245153147 ], [ -87.852606566927093, 41.929224350005462 ], [ -87.852560004491508, 41.928783928006332 ], [ -87.852533566931228, 41.928119626052869 ], [ -87.852545035815297, 41.927677766217492 ], [ -87.852614449322189, 41.927238873802168 ], [ -87.852741137708705, 41.926807176027978 ], [ -87.852923879646909, 41.926386830736291 ], [ -87.853160914029758, 41.925981886347969 ], [ -87.853449956971232, 41.925596242879614 ], [ -87.853788223835878, 41.925233614391587 ], [ -87.854172456084385, 41.924897493229402 ], [ -87.854598952675403, 41.924591116401857 ], [ -87.855063605721099, 41.924317434419741 ], [ -87.855561940052041, 41.924079082894103 ], [ -87.856089156310915, 41.923878357167204 ], [ -87.856640177160131, 41.923717190220032 ], [ -87.857209696159003, 41.923597134068139 ], [ -87.85779222884085, 41.923519344824861 ], [ -87.858382165499222, 41.923484571575145 ], [ -87.858873730998113, 41.923473672654175 ], [ -87.859483431888762, 41.923483192278098 ], [ -87.860088727775732, 41.923538652224572 ], [ -87.860371112742953, 41.923586531770027 ], [ -87.860908761942397, 41.923633079803132 ], [ -87.861487009049014, 41.923726738488782 ], [ -87.862050182777637, 41.923862268134023 ], [ -87.862592861250675, 41.924038363958822 ], [ -87.863109819788789, 41.924253330633711 ], [ -87.863596081188007, 41.924505098592178 ], [ -87.864046963621092, 41.924791243944505 ], [ -87.864458125702541, 41.925109011801879 ], [ -87.864825608284448, 41.925455342786933 ], [ -87.865145872580314, 41.925826902475706 ], [ -87.865415834250427, 41.92622011348859 ], [ -87.865632893119809, 41.926631189921608 ], [ -87.865794958241821, 41.927056173787335 ], [ -87.865900468065405, 41.927490973114715 ], [ -87.86594840551011, 41.92793140134188 ], [ -87.865974963694725, 41.928550599420127 ], [ -87.865964890721713, 41.928992138482847 ], [ -87.865896950568796, 41.929430817583466 ], [ -87.865771795450755, 41.929862417848696 ], [ -87.865590627892203, 41.930282788400007 ], [ -87.865355189204863, 41.930687886279223 ], [ -87.865067742779004, 41.931073815339374 ], [ -87.864731052348091, 41.931436863725928 ], [ -87.864348355434629, 41.931773539588001 ], [ -87.86392333223155, 41.9320806046752 ], [ -87.863460070217812, 41.932355105496576 ], [ -87.862963024848057, 41.932594401741355 ], [ -87.862931993257845, 41.932606305435826 ], [ -87.862907586487182, 41.932617978175358 ], [ -87.86238113889425, 41.932818464502837 ], [ -87.861830936903758, 41.932979510631661 ], [ -87.861262264809241, 41.93309956977555 ], [ -87.860680584410701, 41.933177488801576 ] ] ] } },
{ "type": "Feature", "properties": { "query_zone_id": "zone_07", "analysis_unit_count": 2, "analysis_unit_ids": "aligned_northlake_ord01_ord02|site_02132", "bbox_wgs84": "-87.9250632,41.9081727,-87.9099690,41.9286859", "buffer_m": 500 }, "geometry": { "type": "Polygon", "coordinates": [ [ [ -87.924302727318931, 41.916423518619226 ], [ -87.923993873143019, 41.916797607788133 ], [ -87.92363766098984, 41.917147426744449 ], [ -87.923237483658383, 41.917469642842555 ], [ -87.922797152967206, 41.917761186353438 ], [ -87.922320863448576, 41.918019279721882 ], [ -87.922028426722235, 41.918147256230242 ], [ -87.922235964381287, 41.918263186897342 ], [ -87.92238608584853, 41.91836563524614 ], [ -87.922788044848204, 41.918590187001485 ], [ -87.923224836949714, 41.918888285793635 ], [ -87.923620407982199, 41.919216923612751 ], [ -87.923970948234867, 41.919572935908981 ], [ -87.924273081441584, 41.919952894483579 ], [ -87.924523897309527, 41.920353140488338 ], [ -87.924720979568534, 41.920769819647475 ], [ -87.924862429270448, 41.921198919363434 ], [ -87.924946883112426, 41.921636307349694 ], [ -87.924973526606934, 41.922077771419026 ], [ -87.924962026579877, 41.924201270023474 ], [ -87.924930567465353, 41.924642803186735 ], [ -87.924841275821649, 41.92507990371557 ], [ -87.924695011391023, 41.925508357252305 ], [ -87.924493183298864, 41.925924032727053 ], [ -87.924237736508658, 41.926322922194416 ], [ -87.923931133105796, 41.926701179486173 ], [ -87.923576328589178, 41.927055157306356 ], [ -87.923176743398187, 41.927381442411104 ], [ -87.922736229948683, 41.927676888532993 ], [ -87.922259035495273, 41.927938646732386 ], [ -87.92174976117775, 41.928164192881908 ], [ -87.921213317646689, 41.928351352018844 ], [ -87.920654877696634, 41.928498319330011 ], [ -87.92007982636423, 41.928603677565754 ], [ -87.919493708973647, 41.928666410715415 ], [ -87.918902177631594, 41.928685913811108 ], [ -87.918794970091128, 41.928685513858348 ], [ -87.918203762541225, 41.928661600841259 ], [ -87.918170682265924, 41.928657808236814 ], [ -87.917557868172594, 41.928655933087235 ], [ -87.916966930204694, 41.928632438148121 ], [ -87.916381922617006, 41.928565799943897 ], [ -87.915808480483406, 41.928456660355486 ], [ -87.915252127407655, 41.92830607065487 ], [ -87.914718222287618, 41.928115481373105 ], [ -87.914211907670492, 41.927886728320352 ], [ -87.913738060198085, 41.927622014893196 ], [ -87.913301243620339, 41.927323890839908 ], [ -87.912905664830461, 41.926995227688877 ], [ -87.91255513334562, 41.926639191077435 ], [ -87.912253024623737, 41.926259210248141 ], [ -87.912002247569035, 41.925858945007136 ], [ -87.91180521653952, 41.925442250463036 ], [ -87.911663828124304, 41.925013139887035 ], [ -87.911579442914004, 41.924575746051957 ], [ -87.911552872438023, 41.9241342814232 ], [ -87.911566400594026, 41.921711479858509 ], [ -87.911597896374431, 41.92127021173679 ], [ -87.911687150705049, 41.920833373706465 ], [ -87.911833302935591, 41.920405172319789 ], [ -87.912034944587845, 41.919989730879067 ], [ -87.912290132959711, 41.919591049737662 ], [ -87.91259640986874, 41.919212967787857 ], [ -87.912950825353349, 41.918859125505897 ], [ -87.913349966102231, 41.918532929909695 ], [ -87.913540653680911, 41.918404912682547 ], [ -87.913203553108488, 41.918280781068226 ], [ -87.912689032631846, 41.918040523846685 ], [ -87.912209456453809, 41.917762854536406 ], [ -87.911769682633505, 41.917450586162552 ], [ -87.911659812913115, 41.91735510994107 ], [ -87.911325751388105, 41.917076889790835 ], [ -87.910980866503934, 41.916726914584956 ], [ -87.910682756503164, 41.916353739126457 ], [ -87.910434196999773, 41.915960838976858 ], [ -87.910237501986387, 41.915551873339851 ], [ -87.910094502311679, 41.915130650972912 ], [ -87.910006528662976, 41.914701094707986 ], [ -87.909974399211123, 41.914267204912385 ], [ -87.909968954012101, 41.913684804085513 ], [ -87.909994229496363, 41.913240251964702 ], [ -87.910078118087725, 41.912799733155616 ], [ -87.910219799559314, 41.912367548567751 ], [ -87.910417889507869, 41.911947917655574 ], [ -87.910670452912925, 41.911544937229451 ], [ -87.910673137781131, 41.91154156633074 ], [ -87.910725667999785, 41.911383214680804 ], [ -87.910923570170297, 41.910966742418687 ], [ -87.911175168603592, 41.910566765166145 ], [ -87.911478039306886, 41.910187134886883 ], [ -87.911829264661989, 41.909831507526576 ], [ -87.912225461548147, 41.909503307816244 ], [ -87.912662813939946, 41.909205696303701 ], [ -87.913137109665868, 41.908941538930243 ], [ -87.913643780973288, 41.908713379444926 ], [ -87.914177948509248, 41.908523414921305 ], [ -87.914734468294, 41.908373474612105 ], [ -87.915307981235642, 41.908265002344564 ], [ -87.915892964710082, 41.908199042625675 ], [ -87.916483785710909, 41.90817623059079 ], [ -87.918308257471352, 41.908172732110287 ], [ -87.918899144262795, 41.90819327207474 ], [ -87.919484492385706, 41.908256969418829 ], [ -87.920058666920013, 41.908363210942191 ], [ -87.920616140445745, 41.908510973885534 ], [ -87.921151546223371, 41.908698835770736 ], [ -87.921659729831873, 41.908924988087087 ], [ -87.921705738741764, 41.908950334502599 ], [ -87.922014969666208, 41.909087953674131 ], [ -87.922491103068964, 41.909350272762936 ], [ -87.922930524738419, 41.909646189779465 ], [ -87.923329002471078, 41.909972855001314 ], [ -87.923682698185459, 41.91032712255388 ], [ -87.923988204892751, 41.910705580693225 ], [ -87.924242579523991, 41.911104584650317 ], [ -87.924443371297585, 41.911520291720812 ], [ -87.924565234479587, 41.911879661081954 ], [ -87.924633563564541, 41.911991073232926 ], [ -87.924827095639259, 41.912412208090835 ], [ -87.924964003736179, 41.912845560137818 ], [ -87.925042948241185, 41.913286892778025 ], [ -87.925063156151012, 41.913731891308117 ], [ -87.925050911496342, 41.91431989139214 ], [ -87.925013060395969, 41.914758477170885 ], [ -87.924918147292786, 41.915192217974159 ], [ -87.92476707516866, 41.915616982040433 ], [ -87.924561282043996, 41.916028723038558 ], [ -87.924302727318931, 41.916423518619226 ] ] ] } },
{ "type": "Feature", "properties": { "query_zone_id": "zone_08", "analysis_unit_count": 1, "analysis_unit_ids": "meta_dekalb_campus", "bbox_wgs84": "-88.7448761,41.8810795,-88.7133542,41.8972181", "buffer_m": 500 }, "geometry": { "type": "Polygon", "coordinates": [ [ [ -88.741517524529414, 41.894767537493578 ], [ -88.741217798180912, 41.895148281324808 ], [ -88.740869574225414, 41.895505247327179 ], [ -88.740476204150042, 41.89583499905784 ], [ -88.740041474230154, 41.896134362006364 ], [ -88.739569569090548, 41.896400454168216 ], [ -88.739065031422939, 41.89663071380285 ], [ -88.738532718248379, 41.89682292410874 ], [ -88.737977754145149, 41.896975234576963 ], [ -88.737405481893958, 41.897086178817403 ], [ -88.736821411015853, 41.897154688685433 ], [ -88.736231164700001, 41.897180104572293 ], [ -88.731819254866664, 41.897208012345779 ], [ -88.73179666042401, 41.897208123182644 ], [ -88.728931859185295, 41.897218127658391 ], [ -88.728840259440673, 41.897217926224691 ], [ -88.726305381265419, 41.897197928173775 ], [ -88.725986214498874, 41.897189082427424 ], [ -88.724737761374016, 41.89712968783261 ], [ -88.724369503839412, 41.897132195675773 ], [ -88.724214017704597, 41.897127264370809 ], [ -88.724190356350732, 41.897130505256747 ], [ -88.723973041519386, 41.897150506915921 ], [ -88.723284081605797, 41.897184142400739 ], [ -88.721932186663068, 41.89719214473277 ], [ -88.721910245719712, 41.897192244633096 ], [ -88.719426371235102, 41.897200148441769 ], [ -88.71883484265517, 41.897180288106149 ], [ -88.718248779309562, 41.897117147911473 ], [ -88.717673840719584, 41.897011337571577 ], [ -88.717115578915553, 41.896863878857076 ], [ -88.71657938479126, 41.896676195723096 ], [ -88.716070436018867, 41.896450100551192 ], [ -88.715593647028783, 41.896187776638406 ], [ -88.715153621538377, 41.895891757103271 ], [ -88.714754608088896, 41.895564900412722 ], [ -88.714400459020425, 41.895210362767251 ], [ -88.714094593281175, 41.894831567611028 ], [ -88.71383996343009, 41.89443217256234 ], [ -88.713639027150833, 41.894016034084324 ], [ -88.713493723551437, 41.893587170237637 ], [ -88.713405454477297, 41.893149721874828 ], [ -88.713375071016799, 41.892707912652348 ], [ -88.713354239997926, 41.88559159908408 ], [ -88.713382364567494, 41.885147131938702 ], [ -88.713469062652877, 41.884706909906328 ], [ -88.713613486260854, 41.884275232709726 ], [ -88.713814223655461, 41.883856316526682 ], [ -88.714069313189498, 41.883454252816335 ], [ -88.714376262502171, 41.883072968366747 ], [ -88.714732072894066, 41.882716186953331 ], [ -88.715133268639917, 41.882387392982324 ], [ -88.715575930952284, 41.882089797473704 ], [ -88.716055736263343, 41.881826306715297 ], [ -88.716567998451296, 41.881599493893361 ], [ -88.717107714598441, 41.881411573976301 ], [ -88.717669613835014, 41.881264382095942 ], [ -88.718248208792289, 41.88115935563706 ], [ -88.718837849163563, 41.881097520209536 ], [ -88.71943277685142, 41.881079479639602 ], [ -88.738903908744604, 41.881206996464925 ], [ -88.739496750460006, 41.881232699488109 ], [ -88.740083327146536, 41.881301891133866 ], [ -88.74065794092526, 41.881413899268615 ], [ -88.74121501005618, 41.881567635846473 ], [ -88.741749123127633, 41.881761607472704 ], [ -88.742255091595865, 41.88199392990267 ], [ -88.742728000165698, 41.882262346335523 ], [ -88.743163254524177, 41.882564249325782 ], [ -88.743556625964089, 41.882896706100162 ], [ -88.743904292464308, 41.883256487034416 ], [ -88.744202875828293, 41.883640097014364 ], [ -88.744449474519328, 41.88404380937682 ], [ -88.744641691873454, 41.884463702101456 ], [ -88.744777659414609, 41.884895695902479 ], [ -88.744856055044636, 41.885335593850755 ], [ -88.744876115929998, 41.885779122141564 ], [ -88.744792195965502, 41.889819819326441 ], [ -88.744754487563952, 41.890257665913715 ], [ -88.744659920686971, 41.890690690827263 ], [ -88.744509392299136, 41.891114781595761 ], [ -88.744304330908577, 41.891525910515128 ], [ -88.744046683039812, 41.891920172906239 ], [ -88.74373889478224, 41.89229382420703 ], [ -88.743383888588312, 41.892643315546295 ], [ -88.742985035540528, 41.892965327460864 ], [ -88.742546123349996, 41.893256801435548 ], [ -88.74210364714682, 41.893497391866205 ], [ -88.742099370240226, 41.893520222401506 ], [ -88.74196044136491, 41.893949571013444 ], [ -88.741765868817097, 41.894366681114853 ], [ -88.741517524529414, 41.894767537493578 ] ] ] } },
{ "type": "Feature", "properties": { "query_zone_id": "zone_09", "analysis_unit_count": 1, "analysis_unit_ids": "site_01928", "bbox_wgs84": "-87.6524280,41.8437462,-87.6384884,41.8536639", "buffer_m": 500 }, "geometry": { "type": "Polygon", "coordinates": [ [ [ -87.651574896720348, 41.851232661035404 ], [ -87.651259561865217, 41.851617029069168 ], [ -87.650894392252042, 41.85197589173854 ], [ -87.650483048724638, 41.852305650634712 ], [ -87.650029655316175, 41.852602999125921 ], [ -87.649538757905546, 41.852864955528439 ], [ -87.649015278634323, 41.853088893019567 ], [ -87.648464466541228, 41.853272565992022 ], [ -87.647891844910077, 41.853414132584739 ], [ -87.647303155859689, 41.85351217316358 ], [ -87.646704302732985, 41.85356570456613 ], [ -87.645698332767097, 41.853617608650509 ], [ -87.645660461890884, 41.853618204708397 ], [ -87.645624806405479, 41.853621384235645 ], [ -87.644972261021096, 41.853655086886953 ], [ -87.64438394910826, 41.853663928820687 ], [ -87.643797290921484, 41.853629807964076 ], [ -87.643217886451538, 41.853553050011783 ], [ -87.642651266407228, 41.853434387652101 ], [ -87.642102839390347, 41.853274953569155 ], [ -87.641577840239734, 41.853076269624587 ], [ -87.641081280038662, 41.852840232322627 ], [ -87.640617898264324, 41.852569094697436 ], [ -87.640192117536699, 41.852265444796203 ], [ -87.639808001399871, 41.851932180963807 ], [ -87.639469215538554, 41.851572484165793 ], [ -87.639178992800566, 41.851189787613961 ], [ -87.638940102358575, 41.850787743985563 ], [ -87.638754823304922, 41.850370190549214 ], [ -87.638624922930646, 41.849941112531184 ], [ -87.6385516398948, 41.849504605071722 ], [ -87.638508679062952, 41.849082802575182 ], [ -87.638506528928062, 41.849060992408759 ], [ -87.638501333994782, 41.8490064921045 ], [ -87.638488403582144, 41.848561708321185 ], [ -87.63853423282518, 41.848118141052659 ], [ -87.638638373234997, 41.847680119375099 ], [ -87.638799807274196, 41.847251918154335 ], [ -87.639016958332405, 41.846837716329695 ], [ -87.639287706154377, 41.846441556137258 ], [ -87.639609407568344, 41.846067303669905 ], [ -87.639978922310917, 41.845718611158972 ], [ -87.640392643695577, 41.845398881344977 ], [ -87.640846533824572, 41.845111234284367 ], [ -87.641336162999977, 41.844858476915903 ], [ -87.641856752949522, 41.844643075682669 ], [ -87.642403223445172, 41.844467132476588 ], [ -87.64297024186051, 41.844332364139312 ], [ -87.643549363010649, 41.844240547437302 ], [ -87.643866000300079, 41.844123394126875 ], [ -87.644402553229568, 41.843970492073957 ], [ -87.644956139075788, 41.843856490978816 ], [ -87.645521726570493, 41.843782426919859 ], [ -87.646094175439103, 41.843748973009085 ], [ -87.646217666795167, 41.84374617326403 ], [ -87.646812326163314, 41.84375466055382 ], [ -87.647402966738738, 41.843806963686291 ], [ -87.647983829030736, 41.84390257263167 ], [ -87.648549248842258, 41.84404055507126 ], [ -87.649093712471227, 41.844219565483641 ], [ -87.649611910448812, 41.844437858257798 ], [ -87.650098789291661, 41.844693304705885 ], [ -87.650549600765117, 41.844983413810183 ], [ -87.650959948177402, 41.845305356502301 ], [ -87.651325829254276, 41.845655993238516 ], [ -87.651643675176075, 41.846031904603286 ], [ -87.65191038539642, 41.846429424642544 ], [ -87.652123357902511, 41.846844676602821 ], [ -87.652280514621083, 41.847273610728095 ], [ -87.652380321721409, 41.847712043746114 ], [ -87.652421804615386, 41.848155699659799 ], [ -87.652428025980839, 41.848383699186627 ], [ -87.652412304912914, 41.848813413031635 ], [ -87.652341855982598, 41.849240048214213 ], [ -87.652289686979103, 41.849415851226951 ], [ -87.652282794858507, 41.849520225663845 ], [ -87.652192967156878, 41.849966109936979 ], [ -87.652043949844568, 41.850403042259238 ], [ -87.651837235852611, 41.850826641727437 ], [ -87.651574896720348, 41.851232661035404 ] ] ] } },
{ "type": "Feature", "properties": { "query_zone_id": "zone_10", "analysis_unit_count": 1, "analysis_unit_ids": "site_01560", "bbox_wgs84": "-87.6766949,41.8370385,-87.6611953,41.8473420", "buffer_m": 500 }, "geometry": { "type": "Polygon", "coordinates": [ [ [ -87.676663432930496, 41.843070619934863 ], [ -87.676663402228442, 41.843072987700921 ], [ -87.676598188779181, 41.843517989844401 ], [ -87.67647420956186, 41.843955951510971 ], [ -87.676292688615462, 41.844382544536465 ], [ -87.676055418732233, 41.844793553022967 ], [ -87.675764743781272, 41.845184915010798 ], [ -87.675423535580094, 41.845552762632337 ], [ -87.675035165541189, 41.845893460349721 ], [ -87.674603471372919, 41.84620364089853 ], [ -87.674132719163211, 41.846480238581201 ], [ -87.673627561219973, 41.846720519580728 ], [ -87.673092990085479, 41.84692210899415 ], [ -87.672534289179211, 41.847083014318166 ], [ -87.671956980557837, 41.847201645153987 ], [ -87.671366770309703, 41.84727682893628 ], [ -87.670769492124847, 41.847307822530084 ], [ -87.670639583023572, 41.847309722728347 ], [ -87.670042649152876, 41.847296309279201 ], [ -87.669843891699571, 41.847276993853626 ], [ -87.669600216565712, 41.847308083825553 ], [ -87.669005283213181, 41.84733924733127 ], [ -87.668821770357312, 41.847342047619101 ], [ -87.668235000396876, 41.847329605800695 ], [ -87.667652638044473, 41.847274509843423 ], [ -87.667080216497524, 41.847177283222365 ], [ -87.666911588184902, 41.8471353768429 ], [ -87.666878460852899, 41.847134292981004 ], [ -87.666298716144198, 41.847072765515094 ], [ -87.665729703948458, 41.846969430806418 ], [ -87.665720984921663, 41.846967157404279 ], [ -87.6656649096537, 41.846957331336988 ], [ -87.665106566872197, 41.846815184219018 ], [ -87.664569499908595, 41.846632880139147 ], [ -87.664058860443646, 41.84641216786023 ], [ -87.663579546510405, 41.846155164560955 ], [ -87.663136155495252, 41.845864335516126 ], [ -87.66273294003031, 41.845542470436939 ], [ -87.662373767201203, 41.84519265669892 ], [ -87.662062081461073, 41.844818249714727 ], [ -87.661800871606971, 41.844422840736954 ], [ -87.661592642134622, 41.844010222399952 ], [ -87.661439389245473, 41.843584352332016 ], [ -87.661342581735454, 41.843149315187269 ], [ -87.6613332276753, 41.843044938819169 ], [ -87.661272165154173, 41.842827459541496 ], [ -87.661207870360656, 41.842375275728536 ], [ -87.66119968065442, 41.842264875229702 ], [ -87.6611953294193, 41.841833967673153 ], [ -87.661246076263254, 41.841404721902506 ], [ -87.661351455429056, 41.840981068273869 ], [ -87.661510500969612, 41.840566885862849 ], [ -87.66172175563041, 41.840165966950607 ], [ -87.661729287187882, 41.840154908949394 ], [ -87.661822725594575, 41.839943628997126 ], [ -87.662061885053006, 41.839540329685882 ], [ -87.662352665162729, 41.839156464816902 ], [ -87.662692274521348, 41.838795718189331 ], [ -87.663077453292942, 41.838461551685157 ], [ -87.663504504510414, 41.838157172059134 ], [ -87.663969329564424, 41.837885500178459 ], [ -87.664467467538373, 41.837649143006132 ], [ -87.664994138011821, 41.837450368596919 ], [ -87.665544286921943, 41.837291084344805 ], [ -87.666112635043689, 41.837172818690398 ], [ -87.666693728624196, 41.837096706463051 ], [ -87.66728199168702, 41.837063477998264 ], [ -87.668548003056941, 41.83703848037662 ], [ -87.669134707439781, 41.837048283239803 ], [ -87.669717350515981, 41.837100744565305 ], [ -87.670290399841804, 41.837195366202366 ], [ -87.670848414015921, 41.837331249667692 ], [ -87.67106625679223, 41.837402498268204 ], [ -87.671079421207637, 41.837402696595561 ], [ -87.671666116663886, 41.837454840538662 ], [ -87.672243156780794, 41.837549725875057 ], [ -87.672804987874429, 41.837686439385436 ], [ -87.673346202551542, 41.83786366527449 ], [ -87.673861591725526, 41.838079697827681 ], [ -87.674346194729409, 41.838332457818638 ], [ -87.674795347044579, 41.838619512510306 ], [ -87.675204725186617, 41.838938099057366 ], [ -87.675570388316928, 41.839285151085768 ], [ -87.675888816179921, 41.839657328193553 ], [ -87.676156943000294, 41.84005104809021 ], [ -87.676372187013897, 41.840462521065341 ], [ -87.676532475347159, 41.840887786455774 ], [ -87.676636264004458, 41.841322750760433 ], [ -87.676682552769932, 41.841763227036516 ], [ -87.676685359462141, 41.841834726842066 ], [ -87.676677968261245, 41.84211386634405 ], [ -87.676684730883323, 41.842191483960057 ], [ -87.676694863198364, 41.842536483198224 ], [ -87.676678198589045, 41.842984393958666 ], [ -87.676663432930496, 41.843070619934863 ] ] ] } },
{ "type": "Feature", "properties": { "query_zone_id": "zone_11", "analysis_unit_count": 1, "analysis_unit_ids": "site_01940", "bbox_wgs84": "-87.9793110,41.8077710,-87.9663897,41.8173544", "buffer_m": 500 }, "geometry": { "type": "Polygon", "coordinates": [ [ [ -87.978925335200444, 41.814365969952441 ], [ -87.978689588808294, 41.814771291011546 ], [ -87.978401855338547, 41.815157367875379 ], [ -87.978064906598135, 41.815520480142943 ], [ -87.97768198881468, 41.815857128647679 ], [ -87.977256791374245, 41.816164069189313 ], [ -87.976793411280255, 41.816438343809942 ], [ -87.976296313676087, 41.816677309312269 ], [ -87.975770288811361, 41.816878662744692 ], [ -87.975698043964186, 41.816899920698702 ], [ -87.975586381674006, 41.816942637269975 ], [ -87.975036909554674, 41.817104240038724 ], [ -87.974468915422378, 41.817224795935019 ], [ -87.973887864287775, 41.817303144989765 ], [ -87.973299346872921, 41.817338533332851 ], [ -87.972616999182648, 41.81735443494086 ], [ -87.972026465654324, 41.817346507895124 ], [ -87.971439813729077, 41.817295324744158 ], [ -87.970862692125422, 41.817201378304894 ], [ -87.970300657743152, 41.81706557314844 ], [ -87.969759122126661, 41.816889216885578 ], [ -87.969243299331751, 41.816674007569105 ], [ -87.968758155699661, 41.8164220173351 ], [ -87.968308362022611, 41.81613567244078 ], [ -87.967898248562761, 41.815817729891869 ], [ -87.967531763357741, 41.815471250884876 ], [ -87.967212434214986, 41.815099571320935 ], [ -87.966943334760217, 41.814706269675106 ], [ -87.96672705486678, 41.814295132531861 ], [ -87.96656567574982, 41.813870118118437 ], [ -87.966460749963957, 41.813435318188155 ], [ -87.966413286495708, 41.812994918620696 ], [ -87.966389738929777, 41.812433616844004 ], [ -87.966400206058026, 41.811991718763792 ], [ -87.966468525092367, 41.811552716627105 ], [ -87.966594036766395, 41.811120839166087 ], [ -87.966775530960845, 41.810700246399819 ], [ -87.967011258402351, 41.810294989568298 ], [ -87.967298947551228, 41.809908972117007 ], [ -87.967635826514567, 41.809545912108042 ], [ -87.968018649771793, 41.809209306418779 ], [ -87.968443729454762, 41.808902397072863 ], [ -87.968906970880184, 41.808628140027018 ], [ -87.969403911991975, 41.808389176713966 ], [ -87.969929766333408, 41.80818780861442 ], [ -87.97047946913564, 41.808025975103071 ], [ -87.971047726079547, 41.807905234780968 ], [ -87.971629064261691, 41.807826750473694 ], [ -87.972217884875178, 41.807791278039367 ], [ -87.973085424249049, 41.807770980089373 ], [ -87.973675927944399, 41.807778850249093 ], [ -87.97426255850381, 41.807829979243671 ], [ -87.974839668650318, 41.807923874860663 ], [ -87.975401702702953, 41.808059633186723 ], [ -87.975943250028308, 41.808235947304553 ], [ -87.976459097100104, 41.808451119867151 ], [ -87.976944277666462, 41.808703079428838 ], [ -87.977394120543551, 41.808989400376419 ], [ -87.977804294575975, 41.809307326268701 ], [ -87.978170850331722, 41.809653796360578 ], [ -87.978490258130833, 41.81002547505696 ], [ -87.97875944204101, 41.810418784013265 ], [ -87.978975809513031, 41.810829936574351 ], [ -87.979137276369499, 41.811254974220738 ], [ -87.979242286905659, 41.811689804671865 ], [ -87.979289828907113, 41.812130241279604 ], [ -87.979310975809824, 41.812632339684981 ], [ -87.979300576438362, 41.813074298904013 ], [ -87.979232306890367, 41.813513366068932 ], [ -87.97910682381179, 41.813945310471574 ], [ -87.978925335200444, 41.814365969952441 ] ] ] } },
{ "type": "Feature", "properties": { "query_zone_id": "zone_12", "analysis_unit_count": 1, "analysis_unit_ids": "site_02109", "bbox_wgs84": "-88.1020272,41.7969879,-88.0877441,41.8076934", "buffer_m": 500 }, "geometry": { "type": "Polygon", "coordinates": [ [ [ -88.091669178892488, 41.807397516672737 ], [ -88.091128644566282, 41.80721950895888 ], [ -88.090614033697392, 41.807002720008413 ], [ -88.090130301874424, 41.806749237553198 ], [ -88.08968210715696, 41.806461502670047 ], [ -88.089273765208802, 41.806142286261085 ], [ -88.088909207736791, 41.805794662357201 ], [ -88.088591944635454, 41.805421978502793 ], [ -88.088325030202043, 41.805027823507139 ], [ -88.088111033746713, 41.804615992873877 ], [ -88.087952014880301, 41.804190452241784 ], [ -88.087849503716427, 41.803755299189724 ], [ -88.087804486177518, 41.803314723773553 ], [ -88.087744141071113, 41.801656418796121 ], [ -88.087757060075717, 41.801214554496035 ], [ -88.087827806361986, 41.800775766081969 ], [ -88.087955697250237, 41.800344280437777 ], [ -88.088139499644413, 41.799924254015302 ], [ -88.088377441952616, 41.799519732800739 ], [ -88.088667231190598, 41.799134613348009 ], [ -88.089006075102247, 41.798772605254356 ], [ -88.089390709082423, 41.798437195438858 ], [ -88.089817427642203, 41.798131614567552 ], [ -88.090282120112477, 41.797858805948408 ], [ -88.090780310242053, 41.797621397194241 ], [ -88.091307199308332, 41.797421674926873 ], [ -88.091857712326174, 41.797261562764973 ], [ -88.092426546910261, 41.797142602807234 ], [ -88.093008224321139, 41.797065940788777 ], [ -88.093597142204885, 41.797032315053045 ], [ -88.09578768911814, 41.796987919959371 ], [ -88.09637801623046, 41.796997634626109 ], [ -88.096964229863218, 41.797050592488901 ], [ -88.097540687053126, 41.797146283755076 ], [ -88.098101838699122, 41.797283787272811 ], [ -88.098642282947836, 41.797461779393366 ], [ -88.099156817166062, 41.797678546705875 ], [ -88.09964048800073, 41.79793200252201 ], [ -88.100088639046007, 41.798219706952771 ], [ -88.100496955659338, 41.798538890384215 ], [ -88.100861506495477, 41.798886480127031 ], [ -88.101178781359224, 41.799259129983703 ], [ -88.101445725011999, 41.799653252449573 ], [ -88.101659766606573, 41.800065053238065 ], [ -88.101818844465896, 41.800490567798562 ], [ -88.101921425966239, 41.800925699475563 ], [ -88.101966522332106, 41.801366258942551 ], [ -88.102027177212534, 41.803024453943394 ], [ -88.102014344384983, 41.803466294623227 ], [ -88.101943686988832, 41.80390506605832 ], [ -88.101815884453529, 41.804336541800311 ], [ -88.101632166718659, 41.804756565592442 ], [ -88.101394302428858, 41.805161091410334 ], [ -88.101104581934933, 41.805546222443802 ], [ -88.100765795264195, 41.805908248644108 ], [ -88.100381205270509, 41.806243682474225 ], [ -88.099954516222169, 41.806549292517403 ], [ -88.099489838128974, 41.806822134619665 ], [ -88.098991647152431, 41.807059580265573 ], [ -88.098464742480047, 41.807259341913266 ], [ -88.097914200079671, 41.807419495044392 ], [ -88.097345323780061, 41.807538496715324 ], [ -88.096763594149706, 41.807615200431201 ], [ -88.096174615667991, 41.807648867198424 ], [ -88.093983762538556, 41.80769337211278 ], [ -88.09339332272188, 41.807683672341597 ], [ -88.09280699676566, 41.807630721286124 ], [ -88.092230431297708, 41.807535028879094 ], [ -88.091669178892488, 41.807397516672737 ] ] ] } },
{ "type": "Feature", "properties": { "query_zone_id": "zone_13", "analysis_unit_count": 1, "analysis_unit_ids": "aurora_cyrusone_chi1_chi2", "bbox_wgs84": "-88.2537998,41.7900744,-88.2363035,41.8021789", "buffer_m": 500 }, "geometry": { "type": "Polygon", "coordinates": [ [ [ -88.253758998060889, 41.795440801198296 ], [ -88.253799792974363, 41.795882459124591 ], [ -88.253782434120694, 41.796324980188224 ], [ -88.253707088100086, 41.796764086853422 ], [ -88.253574482064536, 41.797195534502521 ], [ -88.253385896733874, 41.797615152469305 ], [ -88.253143154057781, 41.79801888436063 ], [ -88.252848599641695, 41.798402827276398 ], [ -88.252505080104811, 41.798763269548452 ], [ -88.252115915587893, 41.799096726632861 ], [ -88.251684867675721, 41.799399974808459 ], [ -88.251216103043774, 41.799670082354993 ], [ -88.250714153179956, 41.799904437909035 ], [ -88.250388896889049, 41.800024864896486 ], [ -88.250331118561746, 41.800097104749717 ], [ -88.249979405011445, 41.800452404035831 ], [ -88.249582814234998, 41.800780178447084 ], [ -88.24953297044209, 41.800814014435723 ], [ -88.249519751020173, 41.800824954598284 ], [ -88.249082367475836, 41.801122263813518 ], [ -88.248608119766615, 41.801386040252872 ], [ -88.248101580914337, 41.801613740155361 ], [ -88.247567635510066, 41.801803167640209 ], [ -88.247011432596011, 41.801952495894724 ], [ -88.246438335990106, 41.802060284802067 ], [ -88.245853872533061, 41.80212549483813 ], [ -88.245666188796193, 41.802132491967555 ], [ -88.245443470874136, 41.802157213433055 ], [ -88.244853607705394, 41.802178898452048 ], [ -88.244742899953465, 41.802178898557486 ], [ -88.244278489139717, 41.802155352056275 ], [ -88.244054716967611, 41.802155497541023 ], [ -88.243725924526331, 41.802148985223411 ], [ -88.243467806495687, 41.802138584748768 ], [ -88.243293695837295, 41.802124945281285 ], [ -88.243123464322053, 41.802143014712648 ], [ -88.242568341094625, 41.802163188388043 ], [ -88.242511037082494, 41.802163288449428 ], [ -88.241870072214979, 41.80213879844186 ], [ -88.24179096674554, 41.802132598088804 ], [ -88.241210362873289, 41.802065514317789 ], [ -88.240641269148085, 41.801956387677528 ], [ -88.240089110097145, 41.80180625834457 ], [ -88.239559148733917, 41.80161655732465 ], [ -88.239056436366752, 41.801389092804961 ], [ -88.238995762116019, 41.80135518202421 ], [ -88.238984045996489, 41.801349931663211 ], [ -88.238509891146606, 41.801087031092784 ], [ -88.238072434198656, 41.800790642316336 ], [ -88.237675882222561, 41.800463616077735 ], [ -88.237324048681231, 41.800109097758039 ], [ -88.237020316760791, 41.799730497110211 ], [ -88.236767606847778, 41.799331455451977 ], [ -88.236568348464971, 41.798915810632828 ], [ -88.236424456935453, 41.798487560112832 ], [ -88.236337314998053, 41.798050822508692 ], [ -88.23630775954949, 41.797609797977373 ], [ -88.236307572021872, 41.797476497798414 ], [ -88.236307697929576, 41.7974422456887 ], [ -88.236320909346659, 41.795933883338108 ], [ -88.236303640555562, 41.795676263451149 ], [ -88.236303452867659, 41.795544663274313 ], [ -88.236331808377841, 41.795103201706361 ], [ -88.236417860078916, 41.794665946764241 ], [ -88.236560777813253, 41.794237110800154 ], [ -88.236759183667417, 41.793820824977729 ], [ -88.237011165287555, 41.79342109948044 ], [ -88.237314294338717, 41.793041784888075 ], [ -88.237665649928843, 41.792686535093466 ], [ -88.238061846770663, 41.792358772115833 ], [ -88.238499067809286, 41.79206165314951 ], [ -88.238973101000667, 41.791798040164615 ], [ -88.239479379886333, 41.791570472352149 ], [ -88.240013027573724, 41.791381141677995 ], [ -88.240568903698858, 41.791231871781051 ], [ -88.241141653919698, 41.791124100417974 ], [ -88.241725761464551, 41.791058865623278 ], [ -88.242315600240048, 41.791036795717453 ], [ -88.242623978651082, 41.791036596024512 ], [ -88.242729187950431, 41.791037216119108 ], [ -88.242773673110065, 41.791037769400461 ], [ -88.243177234901324, 41.790845195892068 ], [ -88.243717380887318, 41.790641356143354 ], [ -88.244282143737891, 41.79047913385967 ], [ -88.244865815673009, 41.790360168480809 ], [ -88.245011006299336, 41.79033637021918 ], [ -88.245350541362157, 41.790288318083356 ], [ -88.245504516175131, 41.790269936857918 ], [ -88.245876359448161, 41.790194584263389 ], [ -88.245960054043593, 41.790180885264242 ], [ -88.245984467850334, 41.790176928961479 ], [ -88.24600316663917, 41.790173929181172 ], [ -88.246584144023061, 41.790102766955854 ], [ -88.247171632254066, 41.790074433164826 ], [ -88.247760008284786, 41.790089198984646 ], [ -88.24834364057989, 41.79014692307058 ], [ -88.248916942983712, 41.790247052909187 ], [ -88.249474428154599, 41.790388630103998 ], [ -88.250010760056369, 41.790570299543745 ], [ -88.250520805005536, 41.790790322365609 ], [ -88.250999680787558, 41.791046592589808 ], [ -88.251442803372456, 41.791336657266775 ], [ -88.251845930783901, 41.791657739944384 ], [ -88.252205203702147, 41.792006767231456 ], [ -88.252517182412646, 41.792380398203633 ], [ -88.2525743094224, 41.792466550267967 ], [ -88.252583235046814, 41.792477210405842 ], [ -88.252845969981905, 41.792872388231409 ], [ -88.253055745268711, 41.793284917090084 ], [ -88.253210544392218, 41.793710833465767 ], [ -88.253335143293626, 41.794134699203319 ], [ -88.25343022677788, 41.794321723850437 ], [ -88.253584922746342, 41.794747379641926 ], [ -88.253660444896212, 41.795004275515083 ], [ -88.253758998060889, 41.795440801198296 ] ] ] } }
]
}
