{
"type": "FeatureCollection",
"name": "taxonomy_seed_sites",
"crs": { "type": "name", "properties": { "name": "urn:ogc:def:crs:OGC:1.3:CRS84" } },
"features": [
{ "type": "Feature", "properties": { "site_group_id": "site_01911", "canonical_name": "CyrusOne Chicago Aurora CME", "operator_summary": "CyrusOne", "status_summary": "Operating/inferred", "is_currently_built": true, "state": "IL", "county": "DuPage County", "city": null, "latitude": 41.796710709040994, "longitude": -88.243602760854515, "facility_size_sqft": 483103.0, "campus_area_sqft": null, "mw_summary": null, "facility_size_bucket": ">=300k", "reference_confidence": "single_source_geometry", "source_count": 1, "sources": "PNNL", "primary_source": "PNNL", "primary_record_uid": "PNNL:building_00199252950", "name_aliases": "CyrusOne Chicago Aurora CME", "n_chips_ok": 7, "taxonomy_group_id": "large_purpose_built_data_center", "taxonomy_group_name": "Large purpose-built wholesale / colocation data center", "taxonomy_findability_s2": "moderate", "taxonomy_findability_naip": "very_high", "seed_record_id": "site_01911", "analysis_unit_id_candidate": "aurora_cyrusone_chi1_chi2", "entity_resolution_status": "resolved_in_aurora_poc", "poc_status": "complete", "processing_wave": "wave_0_reference_poc" }, "geometry": { "type": "Point", "coordinates": [ -88.243602760854515, 41.796710709040994 ] } },
{ "type": "Feature", "properties": { "site_group_id": "site_02530", "canonical_name": null, "operator_summary": null, "status_summary": "Operating/inferred", "is_currently_built": true, "state": "IL", "county": "DuPage County", "city": null, "latitude": 41.795384289880126, "longitude": -88.246922811837507, "facility_size_sqft": 169253.0, "campus_area_sqft": null, "mw_summary": null, "facility_size_bucket": "<300k", "reference_confidence": "single_source_geometry", "source_count": 1, "sources": "PNNL", "primary_source": "PNNL", "primary_record_uid": "PNNL:building_01426146790", "name_aliases": null, "n_chips_ok": 7, "taxonomy_group_id": "large_purpose_built_data_center", "taxonomy_group_name": "Large purpose-built wholesale / colocation data center", "taxonomy_findability_s2": "moderate", "taxonomy_findability_naip": "very_high", "seed_record_id": "site_02530", "analysis_unit_id_candidate": "aurora_cyrusone_chi1_chi2", "entity_resolution_status": "resolved_in_aurora_poc", "poc_status": "complete", "processing_wave": "wave_0_reference_poc" }, "geometry": { "type": "Point", "coordinates": [ -88.246922811837507, 41.795384289880126 ] } },
{ "type": "Feature", "properties": { "site_group_id": "site_02613", "canonical_name": "Microsoft Data Center - Hoffman Estates", "operator_summary": null, "status_summary": "Operating/inferred", "is_currently_built": true, "state": "IL", "county": "Cook County", "city": null, "latitude": 42.076951984046111, "longitude": -88.133890764203485, "facility_size_sqft": null, "campus_area_sqft": 2105271.0, "mw_summary": null, "facility_size_bucket": "unknown_size", "reference_confidence": "single_source_geometry", "source_count": 1, "sources": "PNNL", "primary_source": "PNNL", "primary_record_uid": "PNNL:campus_00998245264", "name_aliases": "Microsoft Data Center - Hoffman Estates", "n_chips_ok": 7, "taxonomy_group_id": "hyperscale_greenfield_campus", "taxonomy_group_name": "Hyperscale greenfield campus", "taxonomy_findability_s2": "high", "taxonomy_findability_naip": "very_high", "seed_record_id": "site_02613", "analysis_unit_id_candidate": "site_02613", "entity_resolution_status": "pending", "poc_status": "not_started", "processing_wave": "wave_1_hyperscale" }, "geometry": { "type": "Point", "coordinates": [ -88.133890764203485, 42.076951984046111 ] } },
{ "type": "Feature", "properties": { "site_group_id": "site_02615", "canonical_name": "DeKalb Meta Data Center", "operator_summary": "Meta Platforms", "status_summary": "Operating/inferred", "is_currently_built": true, "state": "IL", "county": "DeKalb County", "city": null, "latitude": 41.889040347505414, "longitude": -88.728568980569776, "facility_size_sqft": null, "campus_area_sqft": 12793294.0, "mw_summary": null, "facility_size_bucket": "unknown_size", "reference_confidence": "single_source_geometry", "source_count": 1, "sources": "PNNL", "primary_source": "PNNL", "primary_record_uid": "PNNL:campus_01019770124", "name_aliases": "DeKalb Meta Data Center", "n_chips_ok": 7, "taxonomy_group_id": "hyperscale_greenfield_campus", "taxonomy_group_name": "Hyperscale greenfield campus", "taxonomy_findability_s2": "high", "taxonomy_findability_naip": "very_high", "seed_record_id": "site_02615", "analysis_unit_id_candidate": "site_02615", "entity_resolution_status": "pending", "poc_status": "not_started", "processing_wave": "wave_1_hyperscale" }, "geometry": { "type": "Point", "coordinates": [ -88.728568980569776, 41.889040347505414 ] } },
{ "type": "Feature", "properties": { "site_group_id": "site_00627", "canonical_name": "Aligned Data Center - Chicago ORD-01", "operator_summary": "Aligned|Aligned Data Centers", "status_summary": "Operating", "is_currently_built": true, "state": "IL", "county": "Cook County", "city": "Northlake", "latitude": 41.913983085593358, "longitude": -87.917465458857436, "facility_size_sqft": 220000.0, "campus_area_sqft": null, "mw_summary": "42", "facility_size_bucket": "<300k", "reference_confidence": "multi_source", "source_count": 2, "sources": "FracTracker|PNNL", "primary_source": "PNNL", "primary_record_uid": "PNNL:building_01217649348", "name_aliases": "Aligned Data Center - Chicago ORD-01|ORD-01 Data Center", "n_chips_ok": 7, "taxonomy_group_id": "large_purpose_built_data_center", "taxonomy_group_name": "Large purpose-built wholesale / colocation data center", "taxonomy_findability_s2": "moderate", "taxonomy_findability_naip": "very_high", "seed_record_id": "site_00627", "analysis_unit_id_candidate": "site_00627", "entity_resolution_status": "pending", "poc_status": "not_started", "processing_wave": "wave_2_large_purpose_built" }, "geometry": { "type": "Point", "coordinates": [ -87.917465458857436, 41.913983085593358 ] } },
{ "type": "Feature", "properties": { "site_group_id": "site_02132", "canonical_name": "Microsoft - Azure Datacenter", "operator_summary": "Microsoft", "status_summary": "Operating/inferred", "is_currently_built": true, "state": "IL", "county": "Cook County", "city": null, "latitude": 41.923005619536646, "longitude": -87.918241224846511, "facility_size_sqft": 306766.0, "campus_area_sqft": null, "mw_summary": null, "facility_size_bucket": ">=300k", "reference_confidence": "single_source_geometry", "source_count": 1, "sources": "PNNL", "primary_source": "PNNL", "primary_record_uid": "PNNL:building_00578443547", "name_aliases": "Microsoft - Azure Datacenter", "n_chips_ok": 7, "taxonomy_group_id": "large_purpose_built_data_center", "taxonomy_group_name": "Large purpose-built wholesale / colocation data center", "taxonomy_findability_s2": "moderate", "taxonomy_findability_naip": "very_high", "seed_record_id": "site_02132", "analysis_unit_id_candidate": "site_02132", "entity_resolution_status": "pending", "poc_status": "not_started", "processing_wave": "wave_2_large_purpose_built" }, "geometry": { "type": "Point", "coordinates": [ -87.918241224846511, 41.923005619536646 ] } },
{ "type": "Feature", "properties": { "site_group_id": "site_02253", "canonical_name": "STACK Chicago CHI01", "operator_summary": "Stack Infrastructure", "status_summary": "Operating/inferred", "is_currently_built": true, "state": "IL", "county": "Cook County", "city": null, "latitude": 42.006843875851999, "longitude": -87.965190185753713, "facility_size_sqft": 298471.0, "campus_area_sqft": null, "mw_summary": null, "facility_size_bucket": "<300k", "reference_confidence": "single_source_geometry", "source_count": 1, "sources": "PNNL", "primary_source": "PNNL", "primary_record_uid": "PNNL:building_00863162822", "name_aliases": "STACK Chicago CHI01", "n_chips_ok": 7, "taxonomy_group_id": "large_purpose_built_data_center", "taxonomy_group_name": "Large purpose-built wholesale / colocation data center", "taxonomy_findability_s2": "moderate", "taxonomy_findability_naip": "very_high", "seed_record_id": "site_02253", "analysis_unit_id_candidate": "site_02253", "entity_resolution_status": "pending", "poc_status": "not_started", "processing_wave": "wave_2_large_purpose_built" }, "geometry": { "type": "Point", "coordinates": [ -87.965190185753713, 42.006843875851999 ] } },
{ "type": "Feature", "properties": { "site_group_id": "site_02375", "canonical_name": "NTT Chicago CH1", "operator_summary": "NTT", "status_summary": "Operating/inferred", "is_currently_built": true, "state": "IL", "county": "DuPage County", "city": null, "latitude": 41.987919376056581, "longitude": -88.007264954186013, "facility_size_sqft": 113535.0, "campus_area_sqft": null, "mw_summary": null, "facility_size_bucket": "<150k", "reference_confidence": "single_source_geometry", "source_count": 1, "sources": "PNNL", "primary_source": "PNNL", "primary_record_uid": "PNNL:building_01154636644", "name_aliases": "NTT Chicago CH1", "n_chips_ok": 7, "taxonomy_group_id": "large_purpose_built_data_center", "taxonomy_group_name": "Large purpose-built wholesale / colocation data center", "taxonomy_findability_s2": "moderate", "taxonomy_findability_naip": "very_high", "seed_record_id": "site_02375", "analysis_unit_id_candidate": "site_02375", "entity_resolution_status": "pending", "poc_status": "not_started", "processing_wave": "wave_2_large_purpose_built" }, "geometry": { "type": "Point", "coordinates": [ -88.007264954186013, 41.987919376056581 ] } },
{ "type": "Feature", "properties": { "site_group_id": "site_00614", "canonical_name": "Stream Chicago I", "operator_summary": "Stream", "status_summary": "Operating", "is_currently_built": true, "state": "IL", "county": "Cook County", "city": "Elk Grove Village", "latitude": 42.002600658203278, "longitude": -87.951134815473992, "facility_size_sqft": 126689.0, "campus_area_sqft": null, "mw_summary": "15", "facility_size_bucket": "<150k", "reference_confidence": "multi_source", "source_count": 3, "sources": "FracTracker|NAICS|PNNL", "primary_source": "PNNL", "primary_record_uid": "PNNL:building_00863162825", "name_aliases": "STREAM DATA CENTERS|Stream Chicago I|Stream Data Center: Chicago 1", "n_chips_ok": 7, "taxonomy_group_id": "industrial_park_warehouse_style_colo", "taxonomy_group_name": "Industrial-park, warehouse-style colo", "taxonomy_findability_s2": "low", "taxonomy_findability_naip": "moderate", "seed_record_id": "site_00614", "analysis_unit_id_candidate": "site_00614", "entity_resolution_status": "pending", "poc_status": "not_started", "processing_wave": "wave_3_warehouse_style" }, "geometry": { "type": "Point", "coordinates": [ -87.951134815473992, 42.002600658203278 ] } },
{ "type": "Feature", "properties": { "site_group_id": "site_00616", "canonical_name": "Stream Chicago II", "operator_summary": "Stream", "status_summary": "Operating", "is_currently_built": true, "state": "IL", "county": "Cook County", "city": "Elk Grove Village", "latitude": 41.999124381312747, "longitude": -87.957764581615379, "facility_size_sqft": 226000.0, "campus_area_sqft": null, "mw_summary": "32", "facility_size_bucket": "<300k", "reference_confidence": "multi_source", "source_count": 2, "sources": "FracTracker|PNNL", "primary_source": "PNNL", "primary_record_uid": "PNNL:building_00863162820", "name_aliases": "Stream Chicago II|Stream Data Center: Chicago 2", "n_chips_ok": 7, "taxonomy_group_id": "industrial_park_warehouse_style_colo", "taxonomy_group_name": "Industrial-park, warehouse-style colo", "taxonomy_findability_s2": "low", "taxonomy_findability_naip": "moderate", "seed_record_id": "site_00616", "analysis_unit_id_candidate": "site_00616", "entity_resolution_status": "pending", "poc_status": "not_started", "processing_wave": "wave_3_warehouse_style" }, "geometry": { "type": "Point", "coordinates": [ -87.957764581615379, 41.999124381312747 ] } },
{ "type": "Feature", "properties": { "site_group_id": "site_00617", "canonical_name": "T5 Chicago II", "operator_summary": "T5 Data Centers", "status_summary": "Approved/Permitted/Under construction", "is_currently_built": true, "state": "IL", "county": "Cook County", "city": "Elk Grove Village", "latitude": 42.023042333265693, "longitude": -87.975556875972572, "facility_size_sqft": 250000.0, "campus_area_sqft": null, "mw_summary": "36", "facility_size_bucket": "<300k", "reference_confidence": "multi_source", "source_count": 3, "sources": "FracTracker|NAICS|PNNL", "primary_source": "PNNL", "primary_record_uid": "PNNL:building_01219083554", "name_aliases": "T5 Chicago II|T5 Data Center|T5@CHICAGO II LP", "n_chips_ok": 7, "taxonomy_group_id": "industrial_park_warehouse_style_colo", "taxonomy_group_name": "Industrial-park, warehouse-style colo", "taxonomy_findability_s2": "low", "taxonomy_findability_naip": "moderate", "seed_record_id": "site_00617", "analysis_unit_id_candidate": "site_00617", "entity_resolution_status": "pending", "poc_status": "not_started", "processing_wave": "wave_3_warehouse_style" }, "geometry": { "type": "Point", "coordinates": [ -87.975556875972572, 42.023042333265693 ] } },
{ "type": "Feature", "properties": { "site_group_id": "site_01560", "canonical_name": "QTS Chicago", "operator_summary": "Quality Technology Services", "status_summary": "Operating/inferred", "is_currently_built": true, "state": "IL", "county": "Cook County", "city": null, "latitude": 41.842186528840671, "longitude": -87.669008147129546, "facility_size_sqft": 267112.0, "campus_area_sqft": null, "mw_summary": null, "facility_size_bucket": "<300k", "reference_confidence": "multi_source", "source_count": 2, "sources": "NAICS|PNNL", "primary_source": "PNNL", "primary_record_uid": "PNNL:building_00209786637", "name_aliases": "QTS Chicago|QUALITY TECHNOLOGY SERVICES LLC", "n_chips_ok": 7, "taxonomy_group_id": "industrial_park_warehouse_style_colo", "taxonomy_group_name": "Industrial-park, warehouse-style colo", "taxonomy_findability_s2": "low", "taxonomy_findability_naip": "moderate", "seed_record_id": "site_01560", "analysis_unit_id_candidate": "site_01560", "entity_resolution_status": "pending", "poc_status": "not_started", "processing_wave": "wave_3_warehouse_style" }, "geometry": { "type": "Point", "coordinates": [ -87.669008147129546, 41.842186528840671 ] } },
{ "type": "Feature", "properties": { "site_group_id": "site_01834", "canonical_name": "Element Critical CH1", "operator_summary": "Element Critical", "status_summary": "Operating/inferred", "is_currently_built": true, "state": "IL", "county": "DuPage County", "city": null, "latitude": 41.975761750065587, "longitude": -87.964685438104468, "facility_size_sqft": 92076.0, "campus_area_sqft": null, "mw_summary": null, "facility_size_bucket": "<150k", "reference_confidence": "multi_source", "source_count": 2, "sources": "NAICS|PNNL", "primary_source": "PNNL", "primary_record_uid": "PNNL:building_00384690290", "name_aliases": "CHICAGO ENTERPRISE LLC|Element Critical CH1", "n_chips_ok": 7, "taxonomy_group_id": "industrial_park_warehouse_style_colo", "taxonomy_group_name": "Industrial-park, warehouse-style colo", "taxonomy_findability_s2": "low", "taxonomy_findability_naip": "moderate", "seed_record_id": "site_01834", "analysis_unit_id_candidate": "site_01834", "entity_resolution_status": "pending", "poc_status": "not_started", "processing_wave": "wave_3_warehouse_style" }, "geometry": { "type": "Point", "coordinates": [ -87.964685438104468, 41.975761750065587 ] } },
{ "type": "Feature", "properties": { "site_group_id": "site_01842", "canonical_name": "Equinix Chicago CH3", "operator_summary": "Equinix", "status_summary": "Operating/inferred", "is_currently_built": true, "state": "IL", "county": "Cook County", "city": null, "latitude": 42.001158707879654, "longitude": -87.955213124282281, "facility_size_sqft": 135800.0, "campus_area_sqft": null, "mw_summary": null, "facility_size_bucket": "<150k", "reference_confidence": "multi_source", "source_count": 2, "sources": "NAICS|PNNL", "primary_source": "PNNL", "primary_record_uid": "PNNL:building_00377032061", "name_aliases": "EQUINIX LLC|Equinix Chicago CH3", "n_chips_ok": 7, "taxonomy_group_id": "industrial_park_warehouse_style_colo", "taxonomy_group_name": "Industrial-park, warehouse-style colo", "taxonomy_findability_s2": "low", "taxonomy_findability_naip": "moderate", "seed_record_id": "site_01842", "analysis_unit_id_candidate": "site_01842", "entity_resolution_status": "pending", "poc_status": "not_started", "processing_wave": "wave_3_warehouse_style" }, "geometry": { "type": "Point", "coordinates": [ -87.955213124282281, 42.001158707879654 ] } },
{ "type": "Feature", "properties": { "site_group_id": "site_01881", "canonical_name": "Digital Realty CH1", "operator_summary": "Digital Realty", "status_summary": "Operating/inferred", "is_currently_built": true, "state": "IL", "county": "Cook County", "city": null, "latitude": 41.994237428839703, "longitude": -87.962172161160609, "facility_size_sqft": 469756.0, "campus_area_sqft": null, "mw_summary": null, "facility_size_bucket": ">=300k", "reference_confidence": "single_source_geometry", "source_count": 1, "sources": "PNNL", "primary_source": "PNNL", "primary_record_uid": "PNNL:building_00128499684", "name_aliases": "Digital Realty CH1", "n_chips_ok": 7, "taxonomy_group_id": "industrial_park_warehouse_style_colo", "taxonomy_group_name": "Industrial-park, warehouse-style colo", "taxonomy_findability_s2": "low", "taxonomy_findability_naip": "moderate", "seed_record_id": "site_01881", "analysis_unit_id_candidate": "site_01881", "entity_resolution_status": "pending", "poc_status": "not_started", "processing_wave": "wave_3_warehouse_style" }, "geometry": { "type": "Point", "coordinates": [ -87.962172161160609, 41.994237428839703 ] } },
{ "type": "Feature", "properties": { "site_group_id": "site_01897", "canonical_name": "EdgeConneX CHI01", "operator_summary": "EdgeConneX", "status_summary": "Operating/inferred", "is_currently_built": true, "state": "IL", "county": "Cook County", "city": null, "latitude": 42.000775201398547, "longitude": -87.950768696386305, "facility_size_sqft": 120191.0, "campus_area_sqft": null, "mw_summary": null, "facility_size_bucket": "<150k", "reference_confidence": "single_source_geometry", "source_count": 1, "sources": "PNNL", "primary_source": "PNNL", "primary_record_uid": "PNNL:building_00174242795", "name_aliases": "EdgeConneX CHI01", "n_chips_ok": 7, "taxonomy_group_id": "industrial_park_warehouse_style_colo", "taxonomy_group_name": "Industrial-park, warehouse-style colo", "taxonomy_findability_s2": "low", "taxonomy_findability_naip": "moderate", "seed_record_id": "site_01897", "analysis_unit_id_candidate": "site_01897", "entity_resolution_status": "pending", "poc_status": "not_started", "processing_wave": "wave_3_warehouse_style" }, "geometry": { "type": "Point", "coordinates": [ -87.950768696386305, 42.000775201398547 ] } },
{ "type": "Feature", "properties": { "site_group_id": "site_01928", "canonical_name": "Iron Mountain Data & Record Storage", "operator_summary": "Iron Mountain", "status_summary": "Operating/inferred", "is_currently_built": true, "state": "IL", "county": "Cook County", "city": null, "latitude": 41.848796691559613, "longitude": -87.64550983406528, "facility_size_sqft": 106033.0, "campus_area_sqft": null, "mw_summary": null, "facility_size_bucket": "<150k", "reference_confidence": "single_source_geometry", "source_count": 1, "sources": "PNNL", "primary_source": "PNNL", "primary_record_uid": "PNNL:building_00210222970", "name_aliases": "Iron Mountain Data & Record Storage", "n_chips_ok": 7, "taxonomy_group_id": "industrial_park_warehouse_style_colo", "taxonomy_group_name": "Industrial-park, warehouse-style colo", "taxonomy_findability_s2": "low", "taxonomy_findability_naip": "moderate", "seed_record_id": "site_01928", "analysis_unit_id_candidate": "site_01928", "entity_resolution_status": "pending", "poc_status": "not_started", "processing_wave": "wave_3_warehouse_style" }, "geometry": { "type": "Point", "coordinates": [ -87.64550983406528, 41.848796691559613 ] } },
{ "type": "Feature", "properties": { "site_group_id": "site_01940", "canonical_name": "Equinix Chicago Data CH7", "operator_summary": "Equinix", "status_summary": "Operating/inferred", "is_currently_built": true, "state": "IL", "county": "DuPage County", "city": null, "latitude": 41.812557111453394, "longitude": -87.972843493589806, "facility_size_sqft": 47336.0, "campus_area_sqft": null, "mw_summary": null, "facility_size_bucket": "<75k", "reference_confidence": "single_source_geometry", "source_count": 1, "sources": "PNNL", "primary_source": "PNNL", "primary_record_uid": "PNNL:building_00243242167", "name_aliases": "Equinix Chicago Data CH7", "n_chips_ok": 7, "taxonomy_group_id": "industrial_park_warehouse_style_colo", "taxonomy_group_name": "Industrial-park, warehouse-style colo", "taxonomy_findability_s2": "low", "taxonomy_findability_naip": "moderate", "seed_record_id": "site_01940", "analysis_unit_id_candidate": "site_01940", "entity_resolution_status": "pending", "poc_status": "not_started", "processing_wave": "wave_3_warehouse_style" }, "geometry": { "type": "Point", "coordinates": [ -87.972843493589806, 41.812557111453394 ] } },
{ "type": "Feature", "properties": { "site_group_id": "site_02007", "canonical_name": "EdgeConneX CHI02", "operator_summary": "EdgeConneX", "status_summary": "Operating/inferred", "is_currently_built": true, "state": "IL", "county": "Cook County", "city": null, "latitude": 42.001494373393264, "longitude": -87.952563358153483, "facility_size_sqft": 64358.0, "campus_area_sqft": null, "mw_summary": null, "facility_size_bucket": "<75k", "reference_confidence": "single_source_geometry", "source_count": 1, "sources": "PNNL", "primary_source": "PNNL", "primary_record_uid": "PNNL:building_00377032058", "name_aliases": "EdgeConneX CHI02", "n_chips_ok": 7, "taxonomy_group_id": "industrial_park_warehouse_style_colo", "taxonomy_group_name": "Industrial-park, warehouse-style colo", "taxonomy_findability_s2": "low", "taxonomy_findability_naip": "moderate", "seed_record_id": "site_02007", "analysis_unit_id_candidate": "site_02007", "entity_resolution_status": "pending", "poc_status": "not_started", "processing_wave": "wave_3_warehouse_style" }, "geometry": { "type": "Point", "coordinates": [ -87.952563358153483, 42.001494373393264 ] } },
{ "type": "Feature", "properties": { "site_group_id": "site_02008", "canonical_name": "Element Critical CH2", "operator_summary": "Element Critical", "status_summary": "Operating/inferred", "is_currently_built": true, "state": "IL", "county": "DuPage County", "city": null, "latitude": 41.974227312229637, "longitude": -87.967175762311797, "facility_size_sqft": 44358.0, "campus_area_sqft": null, "mw_summary": null, "facility_size_bucket": "<75k", "reference_confidence": "single_source_geometry", "source_count": 1, "sources": "PNNL", "primary_source": "PNNL", "primary_record_uid": "PNNL:building_00377212693", "name_aliases": "Element Critical CH2", "n_chips_ok": 7, "taxonomy_group_id": "industrial_park_warehouse_style_colo", "taxonomy_group_name": "Industrial-park, warehouse-style colo", "taxonomy_findability_s2": "low", "taxonomy_findability_naip": "moderate", "seed_record_id": "site_02008", "analysis_unit_id_candidate": "site_02008", "entity_resolution_status": "pending", "poc_status": "not_started", "processing_wave": "wave_3_warehouse_style" }, "geometry": { "type": "Point", "coordinates": [ -87.967175762311797, 41.974227312229637 ] } },
{ "type": "Feature", "properties": { "site_group_id": "site_02009", "canonical_name": "Centersquare Elk Grove Village Data Center Campus ORD2", "operator_summary": "Centersquare", "status_summary": "Operating/inferred", "is_currently_built": true, "state": "IL", "county": "DuPage County", "city": null, "latitude": 41.992040415356669, "longitude": -87.958172009618451, "facility_size_sqft": 198323.0, "campus_area_sqft": null, "mw_summary": null, "facility_size_bucket": "<300k", "reference_confidence": "single_source_geometry", "source_count": 1, "sources": "PNNL", "primary_source": "PNNL", "primary_record_uid": "PNNL:building_00377345296", "name_aliases": "Centersquare Elk Grove Village Data Center Campus ORD2", "n_chips_ok": 7, "taxonomy_group_id": "industrial_park_warehouse_style_colo", "taxonomy_group_name": "Industrial-park, warehouse-style colo", "taxonomy_findability_s2": "low", "taxonomy_findability_naip": "moderate", "seed_record_id": "site_02009", "analysis_unit_id_candidate": "site_02009", "entity_resolution_status": "pending", "poc_status": "not_started", "processing_wave": "wave_3_warehouse_style" }, "geometry": { "type": "Point", "coordinates": [ -87.958172009618451, 41.992040415356669 ] } },
{ "type": "Feature", "properties": { "site_group_id": "site_02019", "canonical_name": "Skybox Chicago I", "operator_summary": "Skybox", "status_summary": "Operating/inferred", "is_currently_built": true, "state": "IL", "county": "Cook County", "city": null, "latitude": 41.99366849754896, "longitude": -87.973518517945493, "facility_size_sqft": 174575.0, "campus_area_sqft": null, "mw_summary": null, "facility_size_bucket": "<300k", "reference_confidence": "single_source_geometry", "source_count": 1, "sources": "PNNL", "primary_source": "PNNL", "primary_record_uid": "PNNL:building_00383545769", "name_aliases": "Skybox Chicago I", "n_chips_ok": 7, "taxonomy_group_id": "industrial_park_warehouse_style_colo", "taxonomy_group_name": "Industrial-park, warehouse-style colo", "taxonomy_findability_s2": "low", "taxonomy_findability_naip": "moderate", "seed_record_id": "site_02019", "analysis_unit_id_candidate": "site_02019", "entity_resolution_status": "pending", "poc_status": "not_started", "processing_wave": "wave_3_warehouse_style" }, "geometry": { "type": "Point", "coordinates": [ -87.973518517945493, 41.99366849754896 ] } },
{ "type": "Feature", "properties": { "site_group_id": "site_02031", "canonical_name": "Digital Realty Chicago ORD12", "operator_summary": "Digital Realty", "status_summary": "Operating/inferred", "is_currently_built": true, "state": "IL", "county": "Cook County", "city": null, "latitude": 41.928378286120051, "longitude": -87.859235943251377, "facility_size_sqft": 90165.0, "campus_area_sqft": null, "mw_summary": null, "facility_size_bucket": "<150k", "reference_confidence": "single_source_geometry", "source_count": 1, "sources": "PNNL", "primary_source": "PNNL", "primary_record_uid": "PNNL:building_00409296605", "name_aliases": "Digital Realty Chicago ORD12", "n_chips_ok": 7, "taxonomy_group_id": "industrial_park_warehouse_style_colo", "taxonomy_group_name": "Industrial-park, warehouse-style colo", "taxonomy_findability_s2": "low", "taxonomy_findability_naip": "moderate", "seed_record_id": "site_02031", "analysis_unit_id_candidate": "site_02031", "entity_resolution_status": "pending", "poc_status": "not_started", "processing_wave": "wave_3_warehouse_style" }, "geometry": { "type": "Point", "coordinates": [ -87.859235943251377, 41.928378286120051 ] } },
{ "type": "Feature", "properties": { "site_group_id": "site_02109", "canonical_name": "Centersquare Lisle ORD4 Data Center", "operator_summary": "Centersquare", "status_summary": "Operating/inferred", "is_currently_built": true, "state": "IL", "county": "DuPage County", "city": null, "latitude": 41.802340626463931, "longitude": -88.094885588884139, "facility_size_sqft": 361205.0, "campus_area_sqft": null, "mw_summary": null, "facility_size_bucket": ">=300k", "reference_confidence": "single_source_geometry", "source_count": 1, "sources": "PNNL", "primary_source": "PNNL", "primary_record_uid": "PNNL:building_00530024353", "name_aliases": "Centersquare Lisle ORD4 Data Center", "n_chips_ok": 7, "taxonomy_group_id": "industrial_park_warehouse_style_colo", "taxonomy_group_name": "Industrial-park, warehouse-style colo", "taxonomy_findability_s2": "low", "taxonomy_findability_naip": "moderate", "seed_record_id": "site_02109", "analysis_unit_id_candidate": "site_02109", "entity_resolution_status": "pending", "poc_status": "not_started", "processing_wave": "wave_3_warehouse_style" }, "geometry": { "type": "Point", "coordinates": [ -88.094885588884139, 41.802340626463931 ] } },
{ "type": "Feature", "properties": { "site_group_id": "site_02186", "canonical_name": "Digital Realty CH3", "operator_summary": "Digital Realty", "status_summary": "Operating/inferred", "is_currently_built": true, "state": "IL", "county": "Cook County", "city": null, "latitude": 41.994396472606063, "longitude": -87.964903772447656, "facility_size_sqft": 348220.0, "campus_area_sqft": null, "mw_summary": null, "facility_size_bucket": ">=300k", "reference_confidence": "single_source_geometry", "source_count": 1, "sources": "PNNL", "primary_source": "PNNL", "primary_record_uid": "PNNL:building_00713428715", "name_aliases": "Digital Realty CH3", "n_chips_ok": 7, "taxonomy_group_id": "industrial_park_warehouse_style_colo", "taxonomy_group_name": "Industrial-park, warehouse-style colo", "taxonomy_findability_s2": "low", "taxonomy_findability_naip": "moderate", "seed_record_id": "site_02186", "analysis_unit_id_candidate": "site_02186", "entity_resolution_status": "pending", "poc_status": "not_started", "processing_wave": "wave_3_warehouse_style" }, "geometry": { "type": "Point", "coordinates": [ -87.964903772447656, 41.994396472606063 ] } },
{ "type": "Feature", "properties": { "site_group_id": "site_02187", "canonical_name": "Digital Realty CH2", "operator_summary": "Digital Realty", "status_summary": "Operating/inferred", "is_currently_built": true, "state": "IL", "county": "Cook County", "city": null, "latitude": 41.994463823169475, "longitude": -87.957735613395343, "facility_size_sqft": 302974.0, "campus_area_sqft": null, "mw_summary": null, "facility_size_bucket": ">=300k", "reference_confidence": "single_source_geometry", "source_count": 1, "sources": "PNNL", "primary_source": "PNNL", "primary_record_uid": "PNNL:building_00713433204", "name_aliases": "Digital Realty CH2", "n_chips_ok": 7, "taxonomy_group_id": "industrial_park_warehouse_style_colo", "taxonomy_group_name": "Industrial-park, warehouse-style colo", "taxonomy_findability_s2": "low", "taxonomy_findability_naip": "moderate", "seed_record_id": "site_02187", "analysis_unit_id_candidate": "site_02187", "entity_resolution_status": "pending", "poc_status": "not_started", "processing_wave": "wave_3_warehouse_style" }, "geometry": { "type": "Point", "coordinates": [ -87.957735613395343, 41.994463823169475 ] } },
{ "type": "Feature", "properties": { "site_group_id": "site_02399", "canonical_name": null, "operator_summary": null, "status_summary": "Operating/inferred", "is_currently_built": true, "state": "IL", "county": "Cook County", "city": null, "latitude": 42.02314332706365, "longitude": -87.972186221717436, "facility_size_sqft": 110471.0, "campus_area_sqft": null, "mw_summary": null, "facility_size_bucket": "<150k", "reference_confidence": "single_source_geometry", "source_count": 1, "sources": "PNNL", "primary_source": "PNNL", "primary_record_uid": "PNNL:building_01219083552", "name_aliases": null, "n_chips_ok": 7, "taxonomy_group_id": "industrial_park_warehouse_style_colo", "taxonomy_group_name": "Industrial-park, warehouse-style colo", "taxonomy_findability_s2": "low", "taxonomy_findability_naip": "moderate", "seed_record_id": "site_02399", "analysis_unit_id_candidate": "site_02399", "entity_resolution_status": "pending", "poc_status": "not_started", "processing_wave": "wave_3_warehouse_style" }, "geometry": { "type": "Point", "coordinates": [ -87.972186221717436, 42.02314332706365 ] } }
]
}
