{
"type": "FeatureCollection",
"name": "harmonized-data-center-reference-sites-illinois",
"crs": { "type": "name", "properties": { "name": "urn:ogc:def:crs:OGC:1.3:CRS84" } },
"features": [
{ "type": "Feature", "properties": { "site_group_id": "site_00310", "canonical_name": "Barrington Hills Data Center", "sources": "FracTracker", "source_count": 1, "member_count": 1, "primary_source": "FracTracker", "primary_source_layer": null, "primary_record_uid": "FracTracker:frac_row_1328", "status_summary": "Cancelled", "is_currently_built": false, "has_pipeline_status": true, "state": "IL", "county": "Cook", "city": "Barrington Hills", "latitude": 42.102898, "longitude": -88.228096, "coordinate_valid": true, "geometry_type": "Point", "operator_summary": null, "name_aliases": "Barrington Hills Data Center", "facility_size_sqft": null, "campus_area_sqft": null, "mw_summary": null, "reference_confidence": "single_source_curated", "match_notes": null }, "geometry": { "type": "Point", "coordinates": [ -88.228096, 42.102898 ] } },
{ "type": "Feature", "properties": { "site_group_id": "site_00343", "canonical_name": "Lincoln Rackhouse", "sources": "FracTracker|PNNL", "source_count": 2, "member_count": 2, "primary_source": "PNNL", "primary_source_layer": "building", "primary_record_uid": "PNNL:building_00124088810", "status_summary": "Operating", "is_currently_built": true, "has_pipeline_status": false, "state": "IL", "county": "DuPage County", "city": "Aurora", "latitude": 41.772164804631771, "longitude": -88.217090868317328, "coordinate_valid": true, "geometry_type": "Polygon", "operator_summary": null, "name_aliases": "Lincoln Rackhouse|US Signal Data Center", "facility_size_sqft": 33000.0, "campus_area_sqft": null, "mw_summary": "1.35-6", "reference_confidence": "multi_source", "match_notes": "FracTracker:frac_row_1359<->PNNL:building_00124088810:spatial_100m:8.364m" }, "geometry": { "type": "Point", "coordinates": [ -88.217090868317328, 41.772164804631771 ] } },
{ "type": "Feature", "properties": { "site_group_id": "site_00361", "canonical_name": "PowerHouse Data Centers", "sources": "FracTracker", "source_count": 1, "member_count": 1, "primary_source": "FracTracker", "primary_source_layer": null, "primary_record_uid": "FracTracker:frac_row_1377", "status_summary": "Proposed", "is_currently_built": false, "has_pipeline_status": true, "state": "IL", "county": "Will", "city": "Jackson Twp/ Joliet", "latitude": 41.465225, "longitude": -88.06284, "coordinate_valid": true, "geometry_type": "Point", "operator_summary": null, "name_aliases": "PowerHouse Data Centers", "facility_size_sqft": 3468000.0, "campus_area_sqft": null, "mw_summary": "1800", "reference_confidence": "single_source_curated", "match_notes": null }, "geometry": { "type": "Point", "coordinates": [ -88.06284, 41.465225 ] } },
{ "type": "Feature", "properties": { "site_group_id": "site_00419", "canonical_name": "PowerHouse Hillwood Holding data center", "sources": "FracTracker", "source_count": 1, "member_count": 1, "primary_source": "FracTracker", "primary_source_layer": null, "primary_record_uid": "FracTracker:frac_row_1429", "status_summary": "Approved/Permitted/Under construction", "is_currently_built": false, "has_pipeline_status": true, "state": "IL", "county": "Will", "city": "Joliet", "latitude": 41.46266, "longitude": -88.05086, "coordinate_valid": true, "geometry_type": "Point", "operator_summary": "PowerHouse Hillwood Holding", "name_aliases": "PowerHouse Hillwood Holding data center", "facility_size_sqft": 3468000.0, "campus_area_sqft": null, "mw_summary": "1800", "reference_confidence": "single_source_curated", "match_notes": null }, "geometry": { "type": "Point", "coordinates": [ -88.05086, 41.46266 ] } },
{ "type": "Feature", "properties": { "site_group_id": "site_00603", "canonical_name": "Edged Data Center", "sources": "FracTracker", "source_count": 1, "member_count": 1, "primary_source": "FracTracker", "primary_source_layer": null, "primary_record_uid": "FracTracker:frac_row_259", "status_summary": "Approved/Permitted/Under construction", "is_currently_built": false, "has_pipeline_status": true, "state": "IL", "county": "DuPage", "city": "Aurora", "latitude": 41.80707, "longitude": -88.24102, "coordinate_valid": true, "geometry_type": "Point", "operator_summary": "Edged", "name_aliases": "Edged Data Center", "facility_size_sqft": null, "campus_area_sqft": null, "mw_summary": "72", "reference_confidence": "single_source_curated", "match_notes": null }, "geometry": { "type": "Point", "coordinates": [ -88.24102, 41.80707 ] } },
{ "type": "Feature", "properties": { "site_group_id": "site_00605", "canonical_name": "Western Hospitality Partners Data Center", "sources": "FracTracker", "source_count": 1, "member_count": 1, "primary_source": "FracTracker", "primary_source_layer": null, "primary_record_uid": "FracTracker:frac_row_260", "status_summary": "Suspended", "is_currently_built": false, "has_pipeline_status": true, "state": "IL", "county": "Will", "city": "Braidwood/ Braceville", "latitude": 41.256397, "longitude": -88.2417, "coordinate_valid": true, "geometry_type": "Point", "operator_summary": null, "name_aliases": "Western Hospitality Partners Data Center", "facility_size_sqft": null, "campus_area_sqft": null, "mw_summary": null, "reference_confidence": "single_source_curated", "match_notes": null }, "geometry": { "type": "Point", "coordinates": [ -88.2417, 41.256397 ] } },
{ "type": "Feature", "properties": { "site_group_id": "site_00606", "canonical_name": "HydraVault Data Center", "sources": "FracTracker", "source_count": 1, "member_count": 1, "primary_source": "FracTracker", "primary_source_layer": null, "primary_record_uid": "FracTracker:frac_row_261", "status_summary": "Approved/Permitted/Under construction", "is_currently_built": false, "has_pipeline_status": true, "state": "IL", "county": "Cook", "city": "Chicago", "latitude": 41.84624, "longitude": -87.6257, "coordinate_valid": true, "geometry_type": "Point", "operator_summary": null, "name_aliases": "HydraVault Data Center", "facility_size_sqft": null, "campus_area_sqft": null, "mw_summary": "20", "reference_confidence": "single_source_curated", "match_notes": null }, "geometry": { "type": "Point", "coordinates": [ -87.6257, 41.84624 ] } },
{ "type": "Feature", "properties": { "site_group_id": "site_00607", "canonical_name": "Karis Critical Data Center", "sources": "FracTracker", "source_count": 1, "member_count": 1, "primary_source": "FracTracker", "primary_source_layer": null, "primary_record_uid": "FracTracker:frac_row_262", "status_summary": "Proposed", "is_currently_built": false, "has_pipeline_status": true, "state": "IL", "county": "DeKalb", "city": "Dekalb", "latitude": 41.894, "longitude": -88.7222, "coordinate_valid": true, "geometry_type": "Point", "operator_summary": null, "name_aliases": "Karis Critical Data Center", "facility_size_sqft": 1750000.0, "campus_area_sqft": null, "mw_summary": null, "reference_confidence": "single_source_curated", "match_notes": null }, "geometry": { "type": "Point", "coordinates": [ -88.7222, 41.894 ] } },
{ "type": "Feature", "properties": { "site_group_id": "site_00608", "canonical_name": "Gail Technology Data Center", "sources": "FracTracker", "source_count": 1, "member_count": 1, "primary_source": "FracTracker", "primary_source_layer": null, "primary_record_uid": "FracTracker:frac_row_263", "status_summary": "Proposed", "is_currently_built": false, "has_pipeline_status": true, "state": "IL", "county": "Effingham", "city": "Effingham", "latitude": 39.16273, "longitude": -88.51865, "coordinate_valid": true, "geometry_type": "Point", "operator_summary": "Gail Technology", "name_aliases": "Gail Technology Data Center", "facility_size_sqft": null, "campus_area_sqft": null, "mw_summary": null, "reference_confidence": "single_source_curated", "match_notes": null }, "geometry": { "type": "Point", "coordinates": [ -88.51865, 39.16273 ] } },
{ "type": "Feature", "properties": { "site_group_id": "site_00609", "canonical_name": "Aligned", "sources": "FracTracker", "source_count": 1, "member_count": 1, "primary_source": "FracTracker", "primary_source_layer": null, "primary_record_uid": "FracTracker:frac_row_264", "status_summary": "Proposed", "is_currently_built": false, "has_pipeline_status": true, "state": "IL", "county": "Cook", "city": "Elk Grove Village", "latitude": 42.03573, "longitude": -87.9766, "coordinate_valid": true, "geometry_type": "Point", "operator_summary": null, "name_aliases": "Aligned", "facility_size_sqft": 50000.0, "campus_area_sqft": null, "mw_summary": null, "reference_confidence": "single_source_curated", "match_notes": null }, "geometry": { "type": "Point", "coordinates": [ -87.9766, 42.03573 ] } },
{ "type": "Feature", "properties": { "site_group_id": "site_00610", "canonical_name": "Aligned", "sources": "FracTracker", "source_count": 1, "member_count": 1, "primary_source": "FracTracker", "primary_source_layer": null, "primary_record_uid": "FracTracker:frac_row_265", "status_summary": "Proposed", "is_currently_built": false, "has_pipeline_status": true, "state": "IL", "county": "Cook", "city": "Elk Grove Village", "latitude": 42.03674, "longitude": -87.9827, "coordinate_valid": true, "geometry_type": "Point", "operator_summary": null, "name_aliases": "Aligned", "facility_size_sqft": 115000.0, "campus_area_sqft": null, "mw_summary": null, "reference_confidence": "single_source_curated", "match_notes": null }, "geometry": { "type": "Point", "coordinates": [ -87.9827, 42.03674 ] } },
{ "type": "Feature", "properties": { "site_group_id": "site_00611", "canonical_name": "Aligned", "sources": "FracTracker", "source_count": 1, "member_count": 1, "primary_source": "FracTracker", "primary_source_layer": null, "primary_record_uid": "FracTracker:frac_row_266", "status_summary": "Proposed", "is_currently_built": false, "has_pipeline_status": true, "state": "IL", "county": "Cook", "city": "Elk Grove Village", "latitude": 42.03374, "longitude": -87.9824, "coordinate_valid": true, "geometry_type": "Point", "operator_summary": null, "name_aliases": "Aligned", "facility_size_sqft": 177000.0, "campus_area_sqft": null, "mw_summary": null, "reference_confidence": "single_source_curated", "match_notes": null }, "geometry": { "type": "Point", "coordinates": [ -87.9824, 42.03374 ] } },
{ "type": "Feature", "properties": { "site_group_id": "site_00612", "canonical_name": "Nexstar Media Group Data Center", "sources": "FracTracker", "source_count": 1, "member_count": 1, "primary_source": "FracTracker", "primary_source_layer": null, "primary_record_uid": "FracTracker:frac_row_267", "status_summary": "Proposed", "is_currently_built": false, "has_pipeline_status": true, "state": "IL", "county": "Cook", "city": "Elk Grove Village", "latitude": 42.01142, "longitude": -88.0317, "coordinate_valid": true, "geometry_type": "Point", "operator_summary": null, "name_aliases": "Nexstar Media Group Data Center", "facility_size_sqft": 700000.0, "campus_area_sqft": null, "mw_summary": null, "reference_confidence": "single_source_curated", "match_notes": null }, "geometry": { "type": "Point", "coordinates": [ -88.0317, 42.01142 ] } },
{ "type": "Feature", "properties": { "site_group_id": "site_00613", "canonical_name": "Stream Data Center", "sources": "FracTracker", "source_count": 1, "member_count": 1, "primary_source": "FracTracker", "primary_source_layer": null, "primary_record_uid": "FracTracker:frac_row_268", "status_summary": "Proposed", "is_currently_built": false, "has_pipeline_status": true, "state": "IL", "county": "Cook", "city": "Elk Grove Village", "latitude": 42.01401, "longitude": -87.95375, "coordinate_valid": true, "geometry_type": "Point", "operator_summary": null, "name_aliases": "Stream Data Center", "facility_size_sqft": null, "campus_area_sqft": null, "mw_summary": null, "reference_confidence": "single_source_curated", "match_notes": null }, "geometry": { "type": "Point", "coordinates": [ -87.95375, 42.01401 ] } },
{ "type": "Feature", "properties": { "site_group_id": "site_00614", "canonical_name": "Stream Chicago I", "sources": "FracTracker|NAICS|PNNL", "source_count": 3, "member_count": 3, "primary_source": "PNNL", "primary_source_layer": "building", "primary_record_uid": "PNNL:building_00863162825", "status_summary": "Operating", "is_currently_built": true, "has_pipeline_status": false, "state": "IL", "county": "Cook County", "city": "Elk Grove Village", "latitude": 42.002600658203278, "longitude": -87.951134815473992, "coordinate_valid": true, "geometry_type": "Polygon", "operator_summary": "Stream", "name_aliases": "STREAM DATA CENTERS|Stream Chicago I|Stream Data Center: Chicago 1", "facility_size_sqft": 126689.0, "campus_area_sqft": null, "mw_summary": "15", "reference_confidence": "multi_source", "match_notes": "FracTracker:frac_row_269<->NAICS:naics_436:spatial_100m:58.452m ; FracTracker:frac_row_269<->PNNL:building_00863162825:spatial_100m:55.625m ; NAICS:naics_436<->PNNL:building_00863162825:spatial_100m:4.774m" }, "geometry": { "type": "Point", "coordinates": [ -87.951134815473992, 42.002600658203278 ] } },
{ "type": "Feature", "properties": { "site_group_id": "site_00616", "canonical_name": "Stream Chicago II", "sources": "FracTracker|PNNL", "source_count": 2, "member_count": 2, "primary_source": "PNNL", "primary_source_layer": "building", "primary_record_uid": "PNNL:building_00863162820", "status_summary": "Operating", "is_currently_built": true, "has_pipeline_status": false, "state": "IL", "county": "Cook County", "city": "Elk Grove Village", "latitude": 41.999124381312747, "longitude": -87.957764581615379, "coordinate_valid": true, "geometry_type": "Polygon", "operator_summary": "Stream", "name_aliases": "Stream Chicago II|Stream Data Center: Chicago 2", "facility_size_sqft": 226000.0, "campus_area_sqft": null, "mw_summary": "32", "reference_confidence": "multi_source", "match_notes": "FracTracker:frac_row_270<->PNNL:building_00863162820:spatial_100m:12.169m" }, "geometry": { "type": "Point", "coordinates": [ -87.957764581615379, 41.999124381312747 ] } },
{ "type": "Feature", "properties": { "site_group_id": "site_00617", "canonical_name": "T5 Chicago II", "sources": "FracTracker|NAICS|PNNL", "source_count": 3, "member_count": 3, "primary_source": "PNNL", "primary_source_layer": "building", "primary_record_uid": "PNNL:building_01219083554", "status_summary": "Approved/Permitted/Under construction", "is_currently_built": true, "has_pipeline_status": true, "state": "IL", "county": "Cook County", "city": "Elk Grove Village", "latitude": 42.023042333265693, "longitude": -87.975556875972572, "coordinate_valid": true, "geometry_type": "Polygon", "operator_summary": "T5 Data Centers", "name_aliases": "T5 Chicago II|T5 Data Center|T5@CHICAGO II LP", "facility_size_sqft": 250000.0, "campus_area_sqft": null, "mw_summary": "36", "reference_confidence": "multi_source", "match_notes": "FracTracker:frac_row_271<->NAICS:naics_444:spatial_100m:16.2m ; FracTracker:frac_row_271<->PNNL:building_01219083554:spatial_100m:12.502m ; NAICS:naics_444<->PNNL:building_01219083554:spatial_100m:4.215m" }, "geometry": { "type": "Point", "coordinates": [ -87.975556875972572, 42.023042333265693 ] } },
{ "type": "Feature", "properties": { "site_group_id": "site_00618", "canonical_name": "Western Hospitality Partners Data Center", "sources": "FracTracker", "source_count": 1, "member_count": 1, "primary_source": "FracTracker", "primary_source_layer": null, "primary_record_uid": "FracTracker:frac_row_272", "status_summary": "Cancelled", "is_currently_built": false, "has_pipeline_status": true, "state": "IL", "county": "Tazewell", "city": "Groveland Twp", "latitude": 40.59457, "longitude": -89.590225, "coordinate_valid": true, "geometry_type": "Point", "operator_summary": null, "name_aliases": "Western Hospitality Partners Data Center", "facility_size_sqft": null, "campus_area_sqft": null, "mw_summary": null, "reference_confidence": "single_source_curated", "match_notes": null }, "geometry": { "type": "Point", "coordinates": [ -89.590225, 40.59457 ] } },
{ "type": "Feature", "properties": { "site_group_id": "site_00619", "canonical_name": "Hut8 Data Center", "sources": "FracTracker", "source_count": 1, "member_count": 1, "primary_source": "FracTracker", "primary_source_layer": null, "primary_record_uid": "FracTracker:frac_row_273", "status_summary": "Proposed", "is_currently_built": false, "has_pipeline_status": true, "state": "IL", "county": "Logan", "city": "Latham/ Laenna Twp", "latitude": 39.97475, "longitude": -89.19171, "coordinate_valid": true, "geometry_type": "Point", "operator_summary": "Hut 8", "name_aliases": "Hut8 Data Center", "facility_size_sqft": 1000000.0, "campus_area_sqft": null, "mw_summary": "500", "reference_confidence": "single_source_curated", "match_notes": null }, "geometry": { "type": "Point", "coordinates": [ -89.19171, 39.97475 ] } },
{ "type": "Feature", "properties": { "site_group_id": "site_00620", "canonical_name": "Cloud Centers Data Center", "sources": "FracTracker", "source_count": 1, "member_count": 1, "primary_source": "FracTracker", "primary_source_layer": null, "primary_record_uid": "FracTracker:frac_row_274", "status_summary": "Proposed", "is_currently_built": false, "has_pipeline_status": true, "state": "IL", "county": "DuPage", "city": "Lisle", "latitude": 41.801693, "longitude": -88.06276, "coordinate_valid": true, "geometry_type": "Point", "operator_summary": "Cloud Centers", "name_aliases": "Cloud Centers Data Center", "facility_size_sqft": 256000.0, "campus_area_sqft": null, "mw_summary": "50", "reference_confidence": "single_source_curated", "match_notes": null }, "geometry": { "type": "Point", "coordinates": [ -88.06276, 41.801693 ] } },
{ "type": "Feature", "properties": { "site_group_id": "site_00621", "canonical_name": "CyrusOne Data Center", "sources": "FracTracker", "source_count": 1, "member_count": 1, "primary_source": "FracTracker", "primary_source_layer": null, "primary_record_uid": "FracTracker:frac_row_275", "status_summary": "Approved/Permitted/Under construction", "is_currently_built": false, "has_pipeline_status": true, "state": "IL", "county": "DuPage", "city": "Lombard", "latitude": 41.84915, "longitude": -88.0291, "coordinate_valid": true, "geometry_type": "Point", "operator_summary": null, "name_aliases": "CyrusOne Data Center", "facility_size_sqft": 500000.0, "campus_area_sqft": null, "mw_summary": "18", "reference_confidence": "single_source_curated", "match_notes": null }, "geometry": { "type": "Point", "coordinates": [ -88.0291, 41.84915 ] } },
{ "type": "Feature", "properties": { "site_group_id": "site_00622", "canonical_name": "Cielo Digital Infrastructure", "sources": "FracTracker", "source_count": 1, "member_count": 1, "primary_source": "FracTracker", "primary_source_layer": null, "primary_record_uid": "FracTracker:frac_row_276", "status_summary": "Proposed", "is_currently_built": false, "has_pipeline_status": true, "state": "IL", "county": "Grundy", "city": "Minooka", "latitude": 41.45592, "longitude": -88.2842, "coordinate_valid": true, "geometry_type": "Point", "operator_summary": null, "name_aliases": "Cielo Digital Infrastructure", "facility_size_sqft": null, "campus_area_sqft": null, "mw_summary": "500", "reference_confidence": "single_source_curated", "match_notes": null }, "geometry": { "type": "Point", "coordinates": [ -88.2842, 41.45592 ] } },
{ "type": "Feature", "properties": { "site_group_id": "site_00623", "canonical_name": "Tract Morris Data Center", "sources": "FracTracker", "source_count": 1, "member_count": 1, "primary_source": "FracTracker", "primary_source_layer": null, "primary_record_uid": "FracTracker:frac_row_277", "status_summary": "Proposed", "is_currently_built": false, "has_pipeline_status": true, "state": "IL", "county": "Grundy", "city": "Morris", "latitude": 41.39786, "longitude": -88.37636, "coordinate_valid": true, "geometry_type": "Point", "operator_summary": "Tract Data Centers", "name_aliases": "Tract Morris Data Center", "facility_size_sqft": 2900000.0, "campus_area_sqft": null, "mw_summary": "1,000", "reference_confidence": "single_source_curated", "match_notes": null }, "geometry": { "type": "Point", "coordinates": [ -88.37636, 41.39786 ] } },
{ "type": "Feature", "properties": { "site_group_id": "site_00624", "canonical_name": "Karis Critical Data Center", "sources": "FracTracker", "source_count": 1, "member_count": 1, "primary_source": "FracTracker", "primary_source_layer": null, "primary_record_uid": "FracTracker:frac_row_278", "status_summary": "Cancelled", "is_currently_built": false, "has_pipeline_status": true, "state": "IL", "county": "DuPage", "city": "Naperville", "latitude": 41.81113, "longitude": -88.1191, "coordinate_valid": true, "geometry_type": "Point", "operator_summary": null, "name_aliases": "Karis Critical Data Center", "facility_size_sqft": 145000.0, "campus_area_sqft": null, "mw_summary": "36", "reference_confidence": "single_source_curated", "match_notes": null }, "geometry": { "type": "Point", "coordinates": [ -88.1191, 41.81113 ] } },
{ "type": "Feature", "properties": { "site_group_id": "site_00625", "canonical_name": "Cielo Digital Infrastructure", "sources": "FracTracker", "source_count": 1, "member_count": 1, "primary_source": "FracTracker", "primary_source_layer": null, "primary_record_uid": "FracTracker:frac_row_279", "status_summary": "Proposed", "is_currently_built": false, "has_pipeline_status": true, "state": "IL", "county": "Will", "city": "New Lenox", "latitude": 41.51055, "longitude": -87.969, "coordinate_valid": true, "geometry_type": "Point", "operator_summary": null, "name_aliases": "Cielo Digital Infrastructure", "facility_size_sqft": null, "campus_area_sqft": null, "mw_summary": "350", "reference_confidence": "single_source_curated", "match_notes": null }, "geometry": { "type": "Point", "coordinates": [ -87.969, 41.51055 ] } },
{ "type": "Feature", "properties": { "site_group_id": "site_00627", "canonical_name": "Aligned Data Center - Chicago ORD-01", "sources": "FracTracker|PNNL", "source_count": 2, "member_count": 2, "primary_source": "PNNL", "primary_source_layer": "building", "primary_record_uid": "PNNL:building_01217649348", "status_summary": "Operating", "is_currently_built": true, "has_pipeline_status": false, "state": "IL", "county": "Cook County", "city": "Northlake", "latitude": 41.913983085593358, "longitude": -87.917465458857436, "coordinate_valid": true, "geometry_type": "Polygon", "operator_summary": "Aligned|Aligned Data Centers", "name_aliases": "Aligned Data Center - Chicago ORD-01|ORD-01 Data Center", "facility_size_sqft": 220000.0, "campus_area_sqft": null, "mw_summary": "42", "reference_confidence": "multi_source", "match_notes": "FracTracker:frac_row_280<->PNNL:building_01217649348:spatial_100m:19.755m" }, "geometry": { "type": "Point", "coordinates": [ -87.917465458857436, 41.913983085593358 ] } },
{ "type": "Feature", "properties": { "site_group_id": "site_00628", "canonical_name": "Aligned Data Center - Chicago ORD-02", "sources": "FracTracker|PNNL", "source_count": 2, "member_count": 2, "primary_source": "PNNL", "primary_source_layer": "building", "primary_record_uid": "PNNL:building_01217649350", "status_summary": "Approved/Permitted/Under construction", "is_currently_built": true, "has_pipeline_status": true, "state": "IL", "county": "Cook County", "city": "Northlake", "latitude": 41.912962230246279, "longitude": -87.91749234723224, "coordinate_valid": true, "geometry_type": "Polygon", "operator_summary": "Aligned|Aligned Data Centers", "name_aliases": "Aligned Data Center - Chicago ORD-02|ORD-02 Data Center", "facility_size_sqft": 111422.0, "campus_area_sqft": null, "mw_summary": null, "reference_confidence": "multi_source", "match_notes": "FracTracker:frac_row_281<->PNNL:building_01217649350:spatial_100m:35.424m" }, "geometry": { "type": "Point", "coordinates": [ -87.91749234723224, 41.912962230246279 ] } },
{ "type": "Feature", "properties": { "site_group_id": "site_00629", "canonical_name": "Troy Cloverleaf Data Center", "sources": "FracTracker", "source_count": 1, "member_count": 1, "primary_source": "FracTracker", "primary_source_layer": null, "primary_record_uid": "FracTracker:frac_row_282", "status_summary": "Proposed", "is_currently_built": false, "has_pipeline_status": true, "state": "IL", "county": "Madison", "city": "Troy", "latitude": 38.725338, "longitude": -89.909645, "coordinate_valid": true, "geometry_type": "Point", "operator_summary": "Cloverleaf", "name_aliases": "Troy Cloverleaf Data Center", "facility_size_sqft": 1584000.0, "campus_area_sqft": null, "mw_summary": "500", "reference_confidence": "single_source_curated", "match_notes": null }, "geometry": { "type": "Point", "coordinates": [ -89.909645, 38.725338 ] } },
{ "type": "Feature", "properties": { "site_group_id": "site_00630", "canonical_name": "CyrusOne", "sources": "FracTracker", "source_count": 1, "member_count": 1, "primary_source": "FracTracker", "primary_source_layer": null, "primary_record_uid": "FracTracker:frac_row_283", "status_summary": "Approved/Permitted/Under construction", "is_currently_built": false, "has_pipeline_status": true, "state": "IL", "county": "Sangamon", "city": "Waverly/ Talkington Twp", "latitude": 39.54828, "longitude": -89.89837, "coordinate_valid": true, "geometry_type": "Point", "operator_summary": null, "name_aliases": "CyrusOne", "facility_size_sqft": 250000.0, "campus_area_sqft": null, "mw_summary": "632", "reference_confidence": "single_source_curated", "match_notes": null }, "geometry": { "type": "Point", "coordinates": [ -89.89837, 39.54828 ] } },
{ "type": "Feature", "properties": { "site_group_id": "site_00631", "canonical_name": "CyrusOne Data Center", "sources": "FracTracker", "source_count": 1, "member_count": 1, "primary_source": "FracTracker", "primary_source_layer": null, "primary_record_uid": "FracTracker:frac_row_284", "status_summary": "Approved/Permitted/Under construction", "is_currently_built": false, "has_pipeline_status": true, "state": "IL", "county": "Kendall", "city": "Yorkville", "latitude": 41.6759, "longitude": -88.4834, "coordinate_valid": true, "geometry_type": "Point", "operator_summary": null, "name_aliases": "CyrusOne Data Center", "facility_size_sqft": null, "campus_area_sqft": null, "mw_summary": null, "reference_confidence": "single_source_curated", "match_notes": null }, "geometry": { "type": "Point", "coordinates": [ -88.4834, 41.6759 ] } },
{ "type": "Feature", "properties": { "site_group_id": "site_00632", "canonical_name": "CyrusOne Data Center", "sources": "FracTracker", "source_count": 1, "member_count": 1, "primary_source": "FracTracker", "primary_source_layer": null, "primary_record_uid": "FracTracker:frac_row_285", "status_summary": "Proposed", "is_currently_built": false, "has_pipeline_status": true, "state": "IL", "county": "Kendall", "city": "Yorkville", "latitude": 41.68361, "longitude": -88.4681, "coordinate_valid": true, "geometry_type": "Point", "operator_summary": null, "name_aliases": "CyrusOne Data Center", "facility_size_sqft": 740000.0, "campus_area_sqft": null, "mw_summary": null, "reference_confidence": "single_source_curated", "match_notes": null }, "geometry": { "type": "Point", "coordinates": [ -88.4681, 41.68361 ] } },
{ "type": "Feature", "properties": { "site_group_id": "site_01560", "canonical_name": "QTS Chicago", "sources": "NAICS|PNNL", "source_count": 2, "member_count": 2, "primary_source": "PNNL", "primary_source_layer": "building", "primary_record_uid": "PNNL:building_00209786637", "status_summary": "Operating/inferred", "is_currently_built": true, "has_pipeline_status": false, "state": "IL", "county": "Cook County", "city": null, "latitude": 41.842186528840671, "longitude": -87.669008147129546, "coordinate_valid": true, "geometry_type": "Polygon", "operator_summary": "Quality Technology Services", "name_aliases": "QTS Chicago|QUALITY TECHNOLOGY SERVICES LLC", "facility_size_sqft": 267112.0, "campus_area_sqft": null, "mw_summary": null, "reference_confidence": "multi_source", "match_notes": "NAICS:naics_300<->PNNL:building_00209786637:name_supported_500m:294.612m" }, "geometry": { "type": "Point", "coordinates": [ -87.669008147129546, 41.842186528840671 ] } },
{ "type": "Feature", "properties": { "site_group_id": "site_01834", "canonical_name": "Element Critical CH1", "sources": "NAICS|PNNL", "source_count": 2, "member_count": 2, "primary_source": "PNNL", "primary_source_layer": "building", "primary_record_uid": "PNNL:building_00384690290", "status_summary": "Operating/inferred", "is_currently_built": true, "has_pipeline_status": false, "state": "IL", "county": "DuPage County", "city": null, "latitude": 41.975761750065587, "longitude": -87.964685438104468, "coordinate_valid": true, "geometry_type": "Polygon", "operator_summary": "Element Critical", "name_aliases": "CHICAGO ENTERPRISE LLC|Element Critical CH1", "facility_size_sqft": 92076.0, "campus_area_sqft": null, "mw_summary": null, "reference_confidence": "multi_source", "match_notes": "NAICS:naics_86<->PNNL:building_00384690290:spatial_100m:70.865m" }, "geometry": { "type": "Point", "coordinates": [ -87.964685438104468, 41.975761750065587 ] } },
{ "type": "Feature", "properties": { "site_group_id": "site_01842", "canonical_name": "Equinix Chicago CH3", "sources": "NAICS|PNNL", "source_count": 2, "member_count": 2, "primary_source": "PNNL", "primary_source_layer": "building", "primary_record_uid": "PNNL:building_00377032061", "status_summary": "Operating/inferred", "is_currently_built": true, "has_pipeline_status": false, "state": "IL", "county": "Cook County", "city": null, "latitude": 42.001158707879654, "longitude": -87.955213124282281, "coordinate_valid": true, "geometry_type": "Polygon", "operator_summary": "Equinix", "name_aliases": "EQUINIX LLC|Equinix Chicago CH3", "facility_size_sqft": 135800.0, "campus_area_sqft": null, "mw_summary": null, "reference_confidence": "multi_source", "match_notes": "NAICS:naics_94<->PNNL:building_00377032061:spatial_100m:13.633m" }, "geometry": { "type": "Point", "coordinates": [ -87.955213124282281, 42.001158707879654 ] } },
{ "type": "Feature", "properties": { "site_group_id": "site_01881", "canonical_name": "Digital Realty CH1", "sources": "PNNL", "source_count": 1, "member_count": 1, "primary_source": "PNNL", "primary_source_layer": "building", "primary_record_uid": "PNNL:building_00128499684", "status_summary": "Operating/inferred", "is_currently_built": true, "has_pipeline_status": false, "state": "IL", "county": "Cook County", "city": null, "latitude": 41.994237428839703, "longitude": -87.962172161160609, "coordinate_valid": true, "geometry_type": "Polygon", "operator_summary": "Digital Realty", "name_aliases": "Digital Realty CH1", "facility_size_sqft": 469756.0, "campus_area_sqft": null, "mw_summary": null, "reference_confidence": "single_source_geometry", "match_notes": null }, "geometry": { "type": "Point", "coordinates": [ -87.962172161160609, 41.994237428839703 ] } },
{ "type": "Feature", "properties": { "site_group_id": "site_01885", "canonical_name": "NCSA Petascale Computing Facility", "sources": "PNNL", "source_count": 1, "member_count": 1, "primary_source": "PNNL", "primary_source_layer": "building", "primary_record_uid": "PNNL:building_00138260136", "status_summary": "Operating/inferred", "is_currently_built": true, "has_pipeline_status": false, "state": "IL", "county": "Champaign County", "city": null, "latitude": 40.095259107286459, "longitude": -88.242031400690877, "coordinate_valid": true, "geometry_type": "Polygon", "operator_summary": null, "name_aliases": "NCSA Petascale Computing Facility", "facility_size_sqft": 45620.0, "campus_area_sqft": null, "mw_summary": null, "reference_confidence": "single_source_geometry", "match_notes": null }, "geometry": { "type": "Point", "coordinates": [ -88.242031400690877, 40.095259107286459 ] } },
{ "type": "Feature", "properties": { "site_group_id": "site_01887", "canonical_name": "Digital Realty ORD11", "sources": "PNNL", "source_count": 1, "member_count": 1, "primary_source": "PNNL", "primary_source_layer": "building", "primary_record_uid": "PNNL:building_00149379943", "status_summary": "Operating/inferred", "is_currently_built": true, "has_pipeline_status": false, "state": "IL", "county": "Cook County", "city": null, "latitude": 41.874293455154493, "longitude": -87.629954423012904, "coordinate_valid": true, "geometry_type": "Polygon", "operator_summary": "Digital Realty", "name_aliases": "Digital Realty ORD11", "facility_size_sqft": 9092.0, "campus_area_sqft": null, "mw_summary": null, "reference_confidence": "single_source_geometry", "match_notes": null }, "geometry": { "type": "Point", "coordinates": [ -87.629954423012904, 41.874293455154493 ] } },
{ "type": "Feature", "properties": { "site_group_id": "site_01891", "canonical_name": "Serverfarm CH1", "sources": "PNNL", "source_count": 1, "member_count": 1, "primary_source": "PNNL", "primary_source_layer": "building", "primary_record_uid": "PNNL:building_00152449872", "status_summary": "Operating/inferred", "is_currently_built": true, "has_pipeline_status": false, "state": "IL", "county": "Cook County", "city": null, "latitude": 41.87094383200688, "longitude": -87.640141386675765, "coordinate_valid": true, "geometry_type": "Polygon", "operator_summary": "Serverfarm", "name_aliases": "Serverfarm CH1", "facility_size_sqft": 56419.0, "campus_area_sqft": null, "mw_summary": null, "reference_confidence": "single_source_geometry", "match_notes": null }, "geometry": { "type": "Point", "coordinates": [ -87.640141386675765, 41.87094383200688 ] } },
{ "type": "Feature", "properties": { "site_group_id": "site_01893", "canonical_name": "Lakeside Technology Center", "sources": "PNNL", "source_count": 1, "member_count": 1, "primary_source": "PNNL", "primary_source_layer": "building", "primary_record_uid": "PNNL:building_00156520409", "status_summary": "Operating/inferred", "is_currently_built": true, "has_pipeline_status": false, "state": "IL", "county": "Cook County", "city": null, "latitude": 41.853652605046321, "longitude": -87.618359253376099, "coordinate_valid": true, "geometry_type": "Polygon", "operator_summary": null, "name_aliases": "Lakeside Technology Center", "facility_size_sqft": 129156.0, "campus_area_sqft": null, "mw_summary": null, "reference_confidence": "single_source_geometry", "match_notes": null }, "geometry": { "type": "Point", "coordinates": [ -87.618359253376099, 41.853652605046321 ] } },
{ "type": "Feature", "properties": { "site_group_id": "site_01897", "canonical_name": "EdgeConneX CHI01", "sources": "PNNL", "source_count": 1, "member_count": 1, "primary_source": "PNNL", "primary_source_layer": "building", "primary_record_uid": "PNNL:building_00174242795", "status_summary": "Operating/inferred", "is_currently_built": true, "has_pipeline_status": false, "state": "IL", "county": "Cook County", "city": null, "latitude": 42.000775201398547, "longitude": -87.950768696386305, "coordinate_valid": true, "geometry_type": "Polygon", "operator_summary": "EdgeConneX", "name_aliases": "EdgeConneX CHI01", "facility_size_sqft": 120191.0, "campus_area_sqft": null, "mw_summary": null, "reference_confidence": "single_source_geometry", "match_notes": null }, "geometry": { "type": "Point", "coordinates": [ -87.950768696386305, 42.000775201398547 ] } },
{ "type": "Feature", "properties": { "site_group_id": "site_01911", "canonical_name": "CyrusOne Chicago Aurora CME", "sources": "PNNL", "source_count": 1, "member_count": 1, "primary_source": "PNNL", "primary_source_layer": "building", "primary_record_uid": "PNNL:building_00199252950", "status_summary": "Operating/inferred", "is_currently_built": true, "has_pipeline_status": false, "state": "IL", "county": "DuPage County", "city": null, "latitude": 41.796710709040994, "longitude": -88.243602760854515, "coordinate_valid": true, "geometry_type": "Polygon", "operator_summary": "CyrusOne", "name_aliases": "CyrusOne Chicago Aurora CME", "facility_size_sqft": 483103.0, "campus_area_sqft": null, "mw_summary": null, "reference_confidence": "single_source_geometry", "match_notes": null }, "geometry": { "type": "Point", "coordinates": [ -88.243602760854515, 41.796710709040994 ] } },
{ "type": "Feature", "properties": { "site_group_id": "site_01928", "canonical_name": "Iron Mountain Data & Record Storage", "sources": "PNNL", "source_count": 1, "member_count": 1, "primary_source": "PNNL", "primary_source_layer": "building", "primary_record_uid": "PNNL:building_00210222970", "status_summary": "Operating/inferred", "is_currently_built": true, "has_pipeline_status": false, "state": "IL", "county": "Cook County", "city": null, "latitude": 41.848796691559613, "longitude": -87.64550983406528, "coordinate_valid": true, "geometry_type": "Polygon", "operator_summary": "Iron Mountain", "name_aliases": "Iron Mountain Data & Record Storage", "facility_size_sqft": 106033.0, "campus_area_sqft": null, "mw_summary": null, "reference_confidence": "single_source_geometry", "match_notes": null }, "geometry": { "type": "Point", "coordinates": [ -87.64550983406528, 41.848796691559613 ] } },
{ "type": "Feature", "properties": { "site_group_id": "site_01940", "canonical_name": "Equinix Chicago Data CH7", "sources": "PNNL", "source_count": 1, "member_count": 1, "primary_source": "PNNL", "primary_source_layer": "building", "primary_record_uid": "PNNL:building_00243242167", "status_summary": "Operating/inferred", "is_currently_built": true, "has_pipeline_status": false, "state": "IL", "county": "DuPage County", "city": null, "latitude": 41.812557111453394, "longitude": -87.972843493589806, "coordinate_valid": true, "geometry_type": "Polygon", "operator_summary": "Equinix", "name_aliases": "Equinix Chicago Data CH7", "facility_size_sqft": 47336.0, "campus_area_sqft": null, "mw_summary": null, "reference_confidence": "single_source_geometry", "match_notes": null }, "geometry": { "type": "Point", "coordinates": [ -87.972843493589806, 41.812557111453394 ] } },
{ "type": "Feature", "properties": { "site_group_id": "site_01977", "canonical_name": "VISA", "sources": "PNNL", "source_count": 1, "member_count": 1, "primary_source": "PNNL", "primary_source_layer": "building", "primary_record_uid": "PNNL:building_00317466755", "status_summary": "Operating/inferred", "is_currently_built": true, "has_pipeline_status": false, "state": "IL", "county": "Lake County", "city": null, "latitude": 42.216756536018735, "longitude": -87.952846508623068, "coordinate_valid": true, "geometry_type": "Polygon", "operator_summary": "VISA", "name_aliases": "VISA", "facility_size_sqft": 55001.0, "campus_area_sqft": null, "mw_summary": null, "reference_confidence": "single_source_geometry", "match_notes": null }, "geometry": { "type": "Point", "coordinates": [ -87.952846508623068, 42.216756536018735 ] } },
{ "type": "Feature", "properties": { "site_group_id": "site_01991", "canonical_name": null, "sources": "PNNL", "source_count": 1, "member_count": 1, "primary_source": "PNNL", "primary_source_layer": "building", "primary_record_uid": "PNNL:building_00343593591", "status_summary": "Operating/inferred", "is_currently_built": true, "has_pipeline_status": false, "state": "IL", "county": "DuPage County", "city": null, "latitude": 41.90535458903981, "longitude": -88.21951394141162, "coordinate_valid": true, "geometry_type": "Polygon", "operator_summary": null, "name_aliases": null, "facility_size_sqft": 14550.0, "campus_area_sqft": null, "mw_summary": null, "reference_confidence": "single_source_geometry", "match_notes": null }, "geometry": { "type": "Point", "coordinates": [ -88.21951394141162, 41.90535458903981 ] } },
{ "type": "Feature", "properties": { "site_group_id": "site_02007", "canonical_name": "EdgeConneX CHI02", "sources": "PNNL", "source_count": 1, "member_count": 1, "primary_source": "PNNL", "primary_source_layer": "building", "primary_record_uid": "PNNL:building_00377032058", "status_summary": "Operating/inferred", "is_currently_built": true, "has_pipeline_status": false, "state": "IL", "county": "Cook County", "city": null, "latitude": 42.001494373393264, "longitude": -87.952563358153483, "coordinate_valid": true, "geometry_type": "Polygon", "operator_summary": "EdgeConneX", "name_aliases": "EdgeConneX CHI02", "facility_size_sqft": 64358.0, "campus_area_sqft": null, "mw_summary": null, "reference_confidence": "single_source_geometry", "match_notes": null }, "geometry": { "type": "Point", "coordinates": [ -87.952563358153483, 42.001494373393264 ] } },
{ "type": "Feature", "properties": { "site_group_id": "site_02008", "canonical_name": "Element Critical CH2", "sources": "PNNL", "source_count": 1, "member_count": 1, "primary_source": "PNNL", "primary_source_layer": "building", "primary_record_uid": "PNNL:building_00377212693", "status_summary": "Operating/inferred", "is_currently_built": true, "has_pipeline_status": false, "state": "IL", "county": "DuPage County", "city": null, "latitude": 41.974227312229637, "longitude": -87.967175762311797, "coordinate_valid": true, "geometry_type": "Polygon", "operator_summary": "Element Critical", "name_aliases": "Element Critical CH2", "facility_size_sqft": 44358.0, "campus_area_sqft": null, "mw_summary": null, "reference_confidence": "single_source_geometry", "match_notes": null }, "geometry": { "type": "Point", "coordinates": [ -87.967175762311797, 41.974227312229637 ] } },
{ "type": "Feature", "properties": { "site_group_id": "site_02009", "canonical_name": "Centersquare Elk Grove Village Data Center Campus ORD2", "sources": "PNNL", "source_count": 1, "member_count": 1, "primary_source": "PNNL", "primary_source_layer": "building", "primary_record_uid": "PNNL:building_00377345296", "status_summary": "Operating/inferred", "is_currently_built": true, "has_pipeline_status": false, "state": "IL", "county": "DuPage County", "city": null, "latitude": 41.992040415356669, "longitude": -87.958172009618451, "coordinate_valid": true, "geometry_type": "Polygon", "operator_summary": "Centersquare", "name_aliases": "Centersquare Elk Grove Village Data Center Campus ORD2", "facility_size_sqft": 198323.0, "campus_area_sqft": null, "mw_summary": null, "reference_confidence": "single_source_geometry", "match_notes": null }, "geometry": { "type": "Point", "coordinates": [ -87.958172009618451, 41.992040415356669 ] } },
{ "type": "Feature", "properties": { "site_group_id": "site_02019", "canonical_name": "Skybox Chicago I", "sources": "PNNL", "source_count": 1, "member_count": 1, "primary_source": "PNNL", "primary_source_layer": "building", "primary_record_uid": "PNNL:building_00383545769", "status_summary": "Operating/inferred", "is_currently_built": true, "has_pipeline_status": false, "state": "IL", "county": "Cook County", "city": null, "latitude": 41.99366849754896, "longitude": -87.973518517945493, "coordinate_valid": true, "geometry_type": "Polygon", "operator_summary": "Skybox", "name_aliases": "Skybox Chicago I", "facility_size_sqft": 174575.0, "campus_area_sqft": null, "mw_summary": null, "reference_confidence": "single_source_geometry", "match_notes": null }, "geometry": { "type": "Point", "coordinates": [ -87.973518517945493, 41.99366849754896 ] } },
{ "type": "Feature", "properties": { "site_group_id": "site_02031", "canonical_name": "Digital Realty Chicago ORD12", "sources": "PNNL", "source_count": 1, "member_count": 1, "primary_source": "PNNL", "primary_source_layer": "building", "primary_record_uid": "PNNL:building_00409296605", "status_summary": "Operating/inferred", "is_currently_built": true, "has_pipeline_status": false, "state": "IL", "county": "Cook County", "city": null, "latitude": 41.928378286120051, "longitude": -87.859235943251377, "coordinate_valid": true, "geometry_type": "Polygon", "operator_summary": "Digital Realty", "name_aliases": "Digital Realty Chicago ORD12", "facility_size_sqft": 90165.0, "campus_area_sqft": null, "mw_summary": null, "reference_confidence": "single_source_geometry", "match_notes": null }, "geometry": { "type": "Point", "coordinates": [ -87.859235943251377, 41.928378286120051 ] } },
{ "type": "Feature", "properties": { "site_group_id": "site_02109", "canonical_name": "Centersquare Lisle ORD4 Data Center", "sources": "PNNL", "source_count": 1, "member_count": 1, "primary_source": "PNNL", "primary_source_layer": "building", "primary_record_uid": "PNNL:building_00530024353", "status_summary": "Operating/inferred", "is_currently_built": true, "has_pipeline_status": false, "state": "IL", "county": "DuPage County", "city": null, "latitude": 41.802340626463931, "longitude": -88.094885588884139, "coordinate_valid": true, "geometry_type": "Polygon", "operator_summary": "Centersquare", "name_aliases": "Centersquare Lisle ORD4 Data Center", "facility_size_sqft": 361205.0, "campus_area_sqft": null, "mw_summary": null, "reference_confidence": "single_source_geometry", "match_notes": null }, "geometry": { "type": "Point", "coordinates": [ -88.094885588884139, 41.802340626463931 ] } },
{ "type": "Feature", "properties": { "site_group_id": "site_02132", "canonical_name": "Microsoft - Azure Datacenter", "sources": "PNNL", "source_count": 1, "member_count": 1, "primary_source": "PNNL", "primary_source_layer": "building", "primary_record_uid": "PNNL:building_00578443547", "status_summary": "Operating/inferred", "is_currently_built": true, "has_pipeline_status": false, "state": "IL", "county": "Cook County", "city": null, "latitude": 41.923005619536646, "longitude": -87.918241224846511, "coordinate_valid": true, "geometry_type": "Polygon", "operator_summary": "Microsoft", "name_aliases": "Microsoft - Azure Datacenter", "facility_size_sqft": 306766.0, "campus_area_sqft": null, "mw_summary": null, "reference_confidence": "single_source_geometry", "match_notes": null }, "geometry": { "type": "Point", "coordinates": [ -87.918241224846511, 41.923005619536646 ] } },
{ "type": "Feature", "properties": { "site_group_id": "site_02186", "canonical_name": "Digital Realty CH3", "sources": "PNNL", "source_count": 1, "member_count": 1, "primary_source": "PNNL", "primary_source_layer": "building", "primary_record_uid": "PNNL:building_00713428715", "status_summary": "Operating/inferred", "is_currently_built": true, "has_pipeline_status": false, "state": "IL", "county": "Cook County", "city": null, "latitude": 41.994396472606063, "longitude": -87.964903772447656, "coordinate_valid": true, "geometry_type": "Polygon", "operator_summary": "Digital Realty", "name_aliases": "Digital Realty CH3", "facility_size_sqft": 348220.0, "campus_area_sqft": null, "mw_summary": null, "reference_confidence": "single_source_geometry", "match_notes": null }, "geometry": { "type": "Point", "coordinates": [ -87.964903772447656, 41.994396472606063 ] } },
{ "type": "Feature", "properties": { "site_group_id": "site_02187", "canonical_name": "Digital Realty CH2", "sources": "PNNL", "source_count": 1, "member_count": 1, "primary_source": "PNNL", "primary_source_layer": "building", "primary_record_uid": "PNNL:building_00713433204", "status_summary": "Operating/inferred", "is_currently_built": true, "has_pipeline_status": false, "state": "IL", "county": "Cook County", "city": null, "latitude": 41.994463823169475, "longitude": -87.957735613395343, "coordinate_valid": true, "geometry_type": "Polygon", "operator_summary": "Digital Realty", "name_aliases": "Digital Realty CH2", "facility_size_sqft": 302974.0, "campus_area_sqft": null, "mw_summary": null, "reference_confidence": "single_source_geometry", "match_notes": null }, "geometry": { "type": "Point", "coordinates": [ -87.957735613395343, 41.994463823169475 ] } },
{ "type": "Feature", "properties": { "site_group_id": "site_02244", "canonical_name": "CoreSite Chicago Data Center (CH2)", "sources": "PNNL", "source_count": 1, "member_count": 1, "primary_source": "PNNL", "primary_source_layer": "building", "primary_record_uid": "PNNL:building_00841813139", "status_summary": "Operating/inferred", "is_currently_built": true, "has_pipeline_status": false, "state": "IL", "county": "Cook County", "city": null, "latitude": 41.862798313056182, "longitude": -87.641303936352443, "coordinate_valid": true, "geometry_type": "Polygon", "operator_summary": "CoreSite", "name_aliases": "CoreSite Chicago Data Center (CH2)", "facility_size_sqft": 61773.0, "campus_area_sqft": null, "mw_summary": null, "reference_confidence": "single_source_geometry", "match_notes": null }, "geometry": { "type": "Point", "coordinates": [ -87.641303936352443, 41.862798313056182 ] } },
{ "type": "Feature", "properties": { "site_group_id": "site_02253", "canonical_name": "STACK Chicago CHI01", "sources": "PNNL", "source_count": 1, "member_count": 1, "primary_source": "PNNL", "primary_source_layer": "building", "primary_record_uid": "PNNL:building_00863162822", "status_summary": "Operating/inferred", "is_currently_built": true, "has_pipeline_status": false, "state": "IL", "county": "Cook County", "city": null, "latitude": 42.006843875851999, "longitude": -87.965190185753713, "coordinate_valid": true, "geometry_type": "Polygon", "operator_summary": "Stack Infrastructure", "name_aliases": "STACK Chicago CHI01", "facility_size_sqft": 298471.0, "campus_area_sqft": null, "mw_summary": null, "reference_confidence": "single_source_geometry", "match_notes": null }, "geometry": { "type": "Point", "coordinates": [ -87.965190185753713, 42.006843875851999 ] } },
{ "type": "Feature", "properties": { "site_group_id": "site_02364", "canonical_name": null, "sources": "PNNL", "source_count": 1, "member_count": 1, "primary_source": "PNNL", "primary_source_layer": "building", "primary_record_uid": "PNNL:building_01133944585", "status_summary": "Operating/inferred", "is_currently_built": true, "has_pipeline_status": false, "state": "IL", "county": "Madison County", "city": null, "latitude": 38.810560141279957, "longitude": -89.948703276216207, "coordinate_valid": true, "geometry_type": "Polygon", "operator_summary": null, "name_aliases": null, "facility_size_sqft": 204.0, "campus_area_sqft": null, "mw_summary": null, "reference_confidence": "single_source_geometry", "match_notes": null }, "geometry": { "type": "Point", "coordinates": [ -89.948703276216207, 38.810560141279957 ] } },
{ "type": "Feature", "properties": { "site_group_id": "site_02371", "canonical_name": "Datacenter (386)", "sources": "PNNL", "source_count": 1, "member_count": 1, "primary_source": "PNNL", "primary_source_layer": "building", "primary_record_uid": "PNNL:building_01154349280", "status_summary": "Operating/inferred", "is_currently_built": true, "has_pipeline_status": false, "state": "IL", "county": "DuPage County", "city": null, "latitude": 41.707134165979966, "longitude": -87.975955975954008, "coordinate_valid": true, "geometry_type": "Polygon", "operator_summary": "UChicago Argonne LLC", "name_aliases": "Datacenter (386)", "facility_size_sqft": 12413.0, "campus_area_sqft": null, "mw_summary": null, "reference_confidence": "single_source_geometry", "match_notes": null }, "geometry": { "type": "Point", "coordinates": [ -87.975955975954008, 41.707134165979966 ] } },
{ "type": "Feature", "properties": { "site_group_id": "site_02375", "canonical_name": "NTT Chicago CH1", "sources": "PNNL", "source_count": 1, "member_count": 1, "primary_source": "PNNL", "primary_source_layer": "building", "primary_record_uid": "PNNL:building_01154636644", "status_summary": "Operating/inferred", "is_currently_built": true, "has_pipeline_status": false, "state": "IL", "county": "DuPage County", "city": null, "latitude": 41.987919376056581, "longitude": -88.007264954186013, "coordinate_valid": true, "geometry_type": "Polygon", "operator_summary": "NTT", "name_aliases": "NTT Chicago CH1", "facility_size_sqft": 113535.0, "campus_area_sqft": null, "mw_summary": null, "reference_confidence": "single_source_geometry", "match_notes": null }, "geometry": { "type": "Point", "coordinates": [ -88.007264954186013, 41.987919376056581 ] } },
{ "type": "Feature", "properties": { "site_group_id": "site_02399", "canonical_name": null, "sources": "PNNL", "source_count": 1, "member_count": 1, "primary_source": "PNNL", "primary_source_layer": "building", "primary_record_uid": "PNNL:building_01219083552", "status_summary": "Operating/inferred", "is_currently_built": true, "has_pipeline_status": false, "state": "IL", "county": "Cook County", "city": null, "latitude": 42.02314332706365, "longitude": -87.972186221717436, "coordinate_valid": true, "geometry_type": "Polygon", "operator_summary": null, "name_aliases": null, "facility_size_sqft": 110471.0, "campus_area_sqft": null, "mw_summary": null, "reference_confidence": "single_source_geometry", "match_notes": null }, "geometry": { "type": "Point", "coordinates": [ -87.972186221717436, 42.02314332706365 ] } },
{ "type": "Feature", "properties": { "site_group_id": "site_02435", "canonical_name": "NTT Chicago CH2", "sources": "PNNL", "source_count": 1, "member_count": 1, "primary_source": "PNNL", "primary_source_layer": "building", "primary_record_uid": "PNNL:building_01271571726", "status_summary": "Operating/inferred", "is_currently_built": true, "has_pipeline_status": false, "state": "IL", "county": "DuPage County", "city": null, "latitude": 41.988966811925472, "longitude": -88.007257026998744, "coordinate_valid": true, "geometry_type": "Polygon", "operator_summary": "NTT", "name_aliases": "NTT Chicago CH2", "facility_size_sqft": 115555.0, "campus_area_sqft": null, "mw_summary": null, "reference_confidence": "single_source_geometry", "match_notes": null }, "geometry": { "type": "Point", "coordinates": [ -88.007257026998744, 41.988966811925472 ] } },
{ "type": "Feature", "properties": { "site_group_id": "site_02465", "canonical_name": null, "sources": "PNNL", "source_count": 1, "member_count": 1, "primary_source": "PNNL", "primary_source_layer": "building", "primary_record_uid": "PNNL:building_01312792611", "status_summary": "Operating/inferred", "is_currently_built": true, "has_pipeline_status": false, "state": "IL", "county": "DeKalb County", "city": null, "latitude": 41.888530408607359, "longitude": -88.721858074359659, "coordinate_valid": true, "geometry_type": "Polygon", "operator_summary": "Meta", "name_aliases": null, "facility_size_sqft": 568454.0, "campus_area_sqft": null, "mw_summary": null, "reference_confidence": "single_source_geometry", "match_notes": null }, "geometry": { "type": "Point", "coordinates": [ -88.721858074359659, 41.888530408607359 ] } },
{ "type": "Feature", "properties": { "site_group_id": "site_02466", "canonical_name": null, "sources": "PNNL", "source_count": 1, "member_count": 1, "primary_source": "PNNL", "primary_source_layer": "building", "primary_record_uid": "PNNL:building_01312792612", "status_summary": "Operating/inferred", "is_currently_built": true, "has_pipeline_status": false, "state": "IL", "county": "DeKalb County", "city": null, "latitude": 41.889283819788218, "longitude": -88.731053770727144, "coordinate_valid": true, "geometry_type": "Polygon", "operator_summary": "Meta", "name_aliases": null, "facility_size_sqft": 568442.0, "campus_area_sqft": null, "mw_summary": null, "reference_confidence": "single_source_geometry", "match_notes": null }, "geometry": { "type": "Point", "coordinates": [ -88.731053770727144, 41.889283819788218 ] } },
{ "type": "Feature", "properties": { "site_group_id": "site_02467", "canonical_name": null, "sources": "PNNL", "source_count": 1, "member_count": 1, "primary_source": "PNNL", "primary_source_layer": "building", "primary_record_uid": "PNNL:building_01312792613", "status_summary": "Operating/inferred", "is_currently_built": true, "has_pipeline_status": false, "state": "IL", "county": "DeKalb County", "city": null, "latitude": 41.890274970923663, "longitude": -88.726355196130442, "coordinate_valid": true, "geometry_type": "Polygon", "operator_summary": "Meta", "name_aliases": null, "facility_size_sqft": 320184.0, "campus_area_sqft": null, "mw_summary": null, "reference_confidence": "single_source_geometry", "match_notes": null }, "geometry": { "type": "Point", "coordinates": [ -88.726355196130442, 41.890274970923663 ] } },
{ "type": "Feature", "properties": { "site_group_id": "site_02530", "canonical_name": null, "sources": "PNNL", "source_count": 1, "member_count": 1, "primary_source": "PNNL", "primary_source_layer": "building", "primary_record_uid": "PNNL:building_01426146790", "status_summary": "Operating/inferred", "is_currently_built": true, "has_pipeline_status": false, "state": "IL", "county": "DuPage County", "city": null, "latitude": 41.795384289880126, "longitude": -88.246922811837507, "coordinate_valid": true, "geometry_type": "Polygon", "operator_summary": null, "name_aliases": null, "facility_size_sqft": 169253.0, "campus_area_sqft": null, "mw_summary": null, "reference_confidence": "single_source_geometry", "match_notes": null }, "geometry": { "type": "Point", "coordinates": [ -88.246922811837507, 41.795384289880126 ] } },
{ "type": "Feature", "properties": { "site_group_id": "site_02554", "canonical_name": "NTT Chicago CH3", "sources": "PNNL", "source_count": 1, "member_count": 1, "primary_source": "PNNL", "primary_source_layer": "building", "primary_record_uid": "PNNL:building_01446350367", "status_summary": "Operating/inferred", "is_currently_built": true, "has_pipeline_status": false, "state": "IL", "county": "DuPage County", "city": null, "latitude": 41.98691359199497, "longitude": -88.008003754135629, "coordinate_valid": true, "geometry_type": "Polygon", "operator_summary": "NTT", "name_aliases": "NTT Chicago CH3", "facility_size_sqft": 83897.0, "campus_area_sqft": null, "mw_summary": null, "reference_confidence": "single_source_geometry", "match_notes": null }, "geometry": { "type": "Point", "coordinates": [ -88.008003754135629, 41.98691359199497 ] } },
{ "type": "Feature", "properties": { "site_group_id": "site_02555", "canonical_name": "NTT Chicago CH4", "sources": "PNNL", "source_count": 1, "member_count": 1, "primary_source": "PNNL", "primary_source_layer": "building", "primary_record_uid": "PNNL:building_01446350370", "status_summary": "Operating/inferred", "is_currently_built": true, "has_pipeline_status": false, "state": "IL", "county": "DuPage County", "city": null, "latitude": 41.989095132317807, "longitude": -88.004764825973623, "coordinate_valid": true, "geometry_type": "Polygon", "operator_summary": "NTT", "name_aliases": "NTT Chicago CH4", "facility_size_sqft": 101346.0, "campus_area_sqft": null, "mw_summary": null, "reference_confidence": "single_source_geometry", "match_notes": null }, "geometry": { "type": "Point", "coordinates": [ -88.004764825973623, 41.989095132317807 ] } },
{ "type": "Feature", "properties": { "site_group_id": "site_02613", "canonical_name": "Microsoft Data Center - Hoffman Estates", "sources": "PNNL", "source_count": 1, "member_count": 1, "primary_source": "PNNL", "primary_source_layer": "campus", "primary_record_uid": "PNNL:campus_00998245264", "status_summary": "Operating/inferred", "is_currently_built": true, "has_pipeline_status": false, "state": "IL", "county": "Cook County", "city": null, "latitude": 42.076951984046111, "longitude": -88.133890764203485, "coordinate_valid": true, "geometry_type": "MultiPolygon", "operator_summary": null, "name_aliases": "Microsoft Data Center - Hoffman Estates", "facility_size_sqft": null, "campus_area_sqft": 2105271.0, "mw_summary": null, "reference_confidence": "single_source_geometry", "match_notes": null }, "geometry": { "type": "Point", "coordinates": [ -88.133890764203485, 42.076951984046111 ] } },
{ "type": "Feature", "properties": { "site_group_id": "site_02615", "canonical_name": "DeKalb Meta Data Center", "sources": "PNNL", "source_count": 1, "member_count": 1, "primary_source": "PNNL", "primary_source_layer": "campus", "primary_record_uid": "PNNL:campus_01019770124", "status_summary": "Operating/inferred", "is_currently_built": true, "has_pipeline_status": false, "state": "IL", "county": "DeKalb County", "city": null, "latitude": 41.889040347505414, "longitude": -88.728568980569776, "coordinate_valid": true, "geometry_type": "MultiPolygon", "operator_summary": "Meta Platforms", "name_aliases": "DeKalb Meta Data Center", "facility_size_sqft": null, "campus_area_sqft": 12793294.0, "mw_summary": null, "reference_confidence": "single_source_geometry", "match_notes": null }, "geometry": { "type": "Point", "coordinates": [ -88.728568980569776, 41.889040347505414 ] } },
{ "type": "Feature", "properties": { "site_group_id": "site_02678", "canonical_name": "Netrality", "sources": "PNNL", "source_count": 1, "member_count": 1, "primary_source": "PNNL", "primary_source_layer": "point", "primary_record_uid": "PNNL:point_10537283366", "status_summary": "Operating/inferred", "is_currently_built": true, "has_pipeline_status": false, "state": "IL", "county": "Cook County", "city": null, "latitude": 41.8728811, "longitude": -87.63344, "coordinate_valid": true, "geometry_type": "Point", "operator_summary": "Netrality", "name_aliases": "Netrality", "facility_size_sqft": null, "campus_area_sqft": null, "mw_summary": null, "reference_confidence": "single_source_geometry", "match_notes": null }, "geometry": { "type": "Point", "coordinates": [ -87.63344, 41.8728811 ] } },
{ "type": "Feature", "properties": { "site_group_id": "site_02685", "canonical_name": "Digital Realty ORD10", "sources": "PNNL", "source_count": 1, "member_count": 1, "primary_source": "PNNL", "primary_source_layer": "point", "primary_record_uid": "PNNL:point_10910879064", "status_summary": "Operating/inferred", "is_currently_built": true, "has_pipeline_status": false, "state": "IL", "county": "Cook County", "city": null, "latitude": 41.8533507, "longitude": -87.6183067, "coordinate_valid": true, "geometry_type": "Point", "operator_summary": "Digital Realty", "name_aliases": "Digital Realty ORD10", "facility_size_sqft": null, "campus_area_sqft": null, "mw_summary": null, "reference_confidence": "single_source_geometry", "match_notes": null }, "geometry": { "type": "Point", "coordinates": [ -87.6183067, 41.8533507 ] } },
{ "type": "Feature", "properties": { "site_group_id": "site_02686", "canonical_name": "Centersquare Chicago Data Center - ORD1", "sources": "PNNL", "source_count": 1, "member_count": 1, "primary_source": "PNNL", "primary_source_layer": "point", "primary_record_uid": "PNNL:point_10910879065", "status_summary": "Operating/inferred", "is_currently_built": true, "has_pipeline_status": false, "state": "IL", "county": "Cook County", "city": null, "latitude": 41.8533827, "longitude": -87.6186071, "coordinate_valid": true, "geometry_type": "Point", "operator_summary": "Centersquare", "name_aliases": "Centersquare Chicago Data Center - ORD1", "facility_size_sqft": null, "campus_area_sqft": null, "mw_summary": null, "reference_confidence": "single_source_geometry", "match_notes": null }, "geometry": { "type": "Point", "coordinates": [ -87.6186071, 41.8533827 ] } },
{ "type": "Feature", "properties": { "site_group_id": "site_02688", "canonical_name": "West Monroe", "sources": "PNNL", "source_count": 1, "member_count": 1, "primary_source": "PNNL", "primary_source_layer": "point", "primary_record_uid": "PNNL:point_10945121336", "status_summary": "Operating/inferred", "is_currently_built": true, "has_pipeline_status": false, "state": "IL", "county": "Cook County", "city": null, "latitude": 41.8805271, "longitude": -87.6359383, "coordinate_valid": true, "geometry_type": "Point", "operator_summary": null, "name_aliases": "West Monroe", "facility_size_sqft": null, "campus_area_sqft": null, "mw_summary": null, "reference_confidence": "single_source_geometry", "match_notes": null }, "geometry": { "type": "Point", "coordinates": [ -87.6359383, 41.8805271 ] } },
{ "type": "Feature", "properties": { "site_group_id": "site_02690", "canonical_name": "CoreSite Chicago Data Center (CH1)", "sources": "PNNL", "source_count": 1, "member_count": 1, "primary_source": "PNNL", "primary_source_layer": "point", "primary_record_uid": "PNNL:point_11098469355", "status_summary": "Operating/inferred", "is_currently_built": true, "has_pipeline_status": false, "state": "IL", "county": "Cook County", "city": null, "latitude": 41.8759405, "longitude": -87.6314655, "coordinate_valid": true, "geometry_type": "Point", "operator_summary": "CoreSite", "name_aliases": "CoreSite Chicago Data Center (CH1)", "facility_size_sqft": null, "campus_area_sqft": null, "mw_summary": null, "reference_confidence": "single_source_geometry", "match_notes": null }, "geometry": { "type": "Point", "coordinates": [ -87.6314655, 41.8759405 ] } },
{ "type": "Feature", "properties": { "site_group_id": "site_02716", "canonical_name": "Equinix Chicago Data Center - CH1", "sources": "PNNL", "source_count": 1, "member_count": 1, "primary_source": "PNNL", "primary_source_layer": "point", "primary_record_uid": "PNNL:point_12695496267", "status_summary": "Operating/inferred", "is_currently_built": true, "has_pipeline_status": false, "state": "IL", "county": "Cook County", "city": null, "latitude": 41.8535578, "longitude": -87.6180475, "coordinate_valid": true, "geometry_type": "Point", "operator_summary": "Equinix", "name_aliases": "Equinix Chicago Data Center - CH1", "facility_size_sqft": null, "campus_area_sqft": null, "mw_summary": null, "reference_confidence": "single_source_geometry", "match_notes": null }, "geometry": { "type": "Point", "coordinates": [ -87.6180475, 41.8535578 ] } }
]
}
