{"type": "FeatureCollection", "features": [{"type": "Feature", "id": 279775535, "geometry": {"type": "Polygon", "coordinates": [[[-88.24580351460695, 41.80493620108487], [-88.2461479036704, 41.80488512265703], [-88.24643581956164, 41.80469557738013], [-88.24750828215598, 41.80405362123178], [-88.24755052367425, 41.80402321611629], [-88.2475805128792, 41.804002683289696], [-88.24761097564999, 41.80398254696692], [-88.24764190235891, 41.803962808040794], [-88.2476732845672, 41.80394347820931], [-88.24770511264359, 41.80392456106634], [-88.24773738056204, 41.80390606380993], [-88.24777006906834, 41.80388798732574], [-88.24780318055386, 41.803870343319886], [-88.24783669335542, 41.803853134476924], [-88.24787060506186, 41.803836364396176], [-88.24790490242863, 41.80382003936996], [-88.24793957702566, 41.803804164793846], [-88.24797461320296, 41.80378874605798], [-88.24801000493714, 41.80377378855978], [-88.24804574019196, 41.803759294990996], [-88.24808180933766, 41.80374526804531], [-88.24811820033082, 41.80373171581668], [-88.24815489873095, 41.80371863919449], [-88.24819189851247, 41.803706045376806], [-88.24822918523137, 41.80369393795413], [-88.24826675166955, 41.803682316020456], [-88.2483045809692, 41.80367118856665], [-88.2483426659076, 41.803660558288186], [-88.24838099325002, 41.80365042427465], [-88.2484195497524, 41.803640792818555], [-88.24845832217537, 41.80363166661099], [-88.24849730690737, 41.803623047449726], [-88.24853648228347, 41.80361493982039], [-88.24857584348884, 41.80360734551999], [-88.24861537608562, 41.8036002636373], [-88.24865506682869, 41.80359370136525], [-88.25108963462118, 41.80189991376676], [-88.25110485678015, 41.80189012694339], [-88.25100227769018, 41.801789093378495], [-88.25100089334234, 41.80178953176217], [-88.25086273802341, 41.80188655092352], [-88.2508180361182, 41.801955576453565], [-88.24960070397577, 41.802810394313276], [-88.24934225701487, 41.801089773926215], [-88.24934222825493, 41.801089682968794], [-88.24785118028598, 41.801176859888514], [-88.24674759905884, 41.80117254001581], [-88.24671865186082, 41.801174224377334], [-88.24503892467023, 41.801272040211785], [-88.24502054943841, 41.80128072806994], [-88.24502036641839, 41.801280816164564], [-88.24501304049294, 41.80128456683584], [-88.24499138323701, 41.80129548956139], [-88.24496998549559, 41.80130669429522], [-88.24494885088455, 41.8013181765385], [-88.24492799144033, 41.80132993359949], [-88.24490740717019, 41.80134196007623], [-88.2448871052987, 41.80135425237294], [-88.24486709184096, 41.801366811394786], [-88.2448473788458, 41.80137962544653], [-88.24482796630826, 41.80139269812971], [-88.24480885905251, 41.80140602134504], [-88.2447900691139, 41.80141959330112], [-88.24477159409447, 41.80143340769382], [-88.24475344964196, 41.80144746093385], [-88.24473563094935, 41.80146174851591], [-88.24471814884876, 41.80147626864775], [-88.24470101177687, 41.80149101143205], [-88.24468421973003, 41.80150597957011], [-88.24466777512976, 41.801521162259576], [-88.24465169362007, 41.80153655861233], [-88.24463596678805, 41.80155216141912], [-88.24462061028025, 41.80156796799109], [-88.24460562530875, 41.80158397202681], [-88.24459101669306, 41.8016001690284], [-88.24457678564161, 41.80161655539544], [-88.24456293938174, 41.80163312573147], [-88.24454948153095, 41.8016498746373], [-88.24453664322287, 41.801666728462216], [-88.24453659138698, 41.8016667968495], [-88.24452375034356, 41.8016838838641], [-88.24451147942891, 41.80170113338283], [-88.24449961619918, 41.8017185452803], [-88.24448816428439, 41.80173610515368], [-88.24447711887042, 41.80175381389971], [-88.24446649079455, 41.80177166612477], [-88.24445627646466, 41.801789649221085], [-88.244446489111, 41.80180776770085], [-88.24443712152903, 41.80182601075427], [-88.24443131479885, 41.801837935133406], [-88.24442818094883, 41.80184437118415], [-88.24441967219002, 41.8018628444925], [-88.24441159525671, 41.801881427978394], [-88.2444039525633, 41.80190011624156], [-88.24439674532834, 41.801918898478746], [-88.24438997716332, 41.80193777379249], [-88.24438365409874, 41.801956732283514], [-88.24437777011978, 41.80197577304692], [-88.24437233366356, 41.801994886185334], [-88.2443673411268, 41.802014067194214], [-88.24436279973462, 41.8020333124778], [-88.24435870589001, 41.80205261302973], [-88.24435506682184, 41.802071962553136], [-88.24435187410867, 41.80209136014117], [-88.24434913739472, 41.802110793196334], [-88.24434685427755, 41.80213025901568], [-88.2443450235605, 41.8021497530965], [-88.24434365006964, 41.80216926643901], [-88.24434273140125, 41.8021887972406], [-88.24434226877153, 41.80220833649861], [-88.24434225978173, 41.80222787880907], [-88.24434270925299, 41.80224741877349], [-88.24434361358826, 41.80226694738554], [-88.24434497399247, 41.80228646374575], [-88.24434678807319, 41.802305957948285], [-88.24434905704157, 41.802325424591935], [-88.24435177729436, 41.80234485917203], [-88.24435495605672, 41.80236425809275], [-88.24435858131355, 41.80238360873967], [-88.24436265908045, 41.80240291201776], [-88.24436718817071, 41.80242215622141], [-88.24437216377403, 41.80244133954611], [-88.24437758830237, 41.802460458392225], [-88.24438345575703, 41.80247950015], [-88.2443897673454, 41.80249846211922], [-88.24439651825962, 41.80251734069466], [-88.24440371092165, 41.80253612507378], [-88.24441133931647, 41.80255481435153], [-88.24441940104661, 41.80257340222338], [-88.24442789973347, 41.80259188058882], [-88.24443682334807, 41.80261024673743], [-88.24444617551187, 41.80262849256858], [-88.24580351460695, 41.80493620108487]]]}, "properties": {"OBJECTID": 279775535, "LOCATIONID": 83812, "TWP": "07", "SECT": "06", "BLOCK": "401", "LOT": "013", "PIN": "07-06-401-013", "FIRE_NUM": "", "STREETNUM": "2725", "STREETPRE": "", "STREETDIR": "", "STREETNAME": "BILTER", "STREETSUF": "RD", "STREETSUFDIR": "", "STREETPOST": "", "UNIT": "", "ADDRESS": "2725 BILTER RD", "CITY": "AURORA", "ZIPCODE": "60502", "COUNTY": "DUPAGE", "ZONING": "PDD(C)", "WARD": "10", "CENSUSTRACT": "846409", "LANDUSE": "A100", "OWNERNAME": "C1 CHICAGO AURORA III LLC", "OWNERADDRESS": "2850 N HARWOOD ST STE 2200", "OWNERCITY": "DALLAS", "OWNERSTATE": "TX", "OWNERZIPCODE": "75201", "INSP_AREA": "I6", "ACRES": 32.17041082, "SQ_FT": 1401343.09512823, "X": 1007803.90974, "Y": 1870628.49991, "Shape.STArea()": 1401337.422559814, "Shape.STLength()": 5717.093675321087}}, {"type": "Feature", "id": 279777924, "geometry": {"type": "Polygon", "coordinates": [[[-88.24748251994808, 41.79253721044805], [-88.24748258650034, 41.792545040043116], [-88.24749319479822, 41.793795480960846], [-88.24749585699095, 41.79410956864816], [-88.24841616420727, 41.793961588506335], [-88.2484323547741, 41.79395898492255], [-88.24843197365774, 41.793650612627815], [-88.24843196719853, 41.79364456669542], [-88.24843056577647, 41.792516599832574], [-88.24843053960139, 41.792497231232254], [-88.24843053189845, 41.792489392677574], [-88.24748251994808, 41.79253721044805]]]}, "properties": {"OBJECTID": 279777924, "LOCATIONID": 86464, "TWP": "07", "SECT": "07", "BLOCK": "202", "LOT": "017", "PIN": "07-07-202-017", "FIRE_NUM": "", "STREETNUM": "2770", "STREETPRE": "", "STREETDIR": "", "STREETNAME": "MOLITOR", "STREETSUF": "RD", "STREETSUFDIR": "", "STREETPOST": "", "UNIT": "", "ADDRESS": "2770 MOLITOR RD", "CITY": "AURORA", "ZIPCODE": "60502", "COUNTY": "DUPAGE", "ZONING": "E", "WARD": "10", "CENSUSTRACT": "846409", "LANDUSE": "A500", "OWNERNAME": "C1 CHICAGO - AURORA I &TOWER & CHICAGO - AURORA II LLC", "OWNERADDRESS": "2850 N HARWOOD ST STE 2000", "OWNERCITY": "DALLAS", "OWNERSTATE": "TX", "OWNERZIPCODE": "75201", "INSP_AREA": "I6", "ACRES": 3.2709222, "SQ_FT": 142481.37114153, "X": 1007537.125, "Y": 1867257.375, "Shape.STArea()": 142480.81246360383, "Shape.STLength()": 1628.7742905271657}}, {"type": "Feature", "id": 279878895, "geometry": {"type": "Polygon", "coordinates": [[[-88.24185241362261, 41.79749421246488], [-88.24165383500345, 41.79736619931303], [-88.24167580968475, 41.79711929826159], [-88.2410240638173, 41.79659579183186], [-88.24090005342843, 41.796595392300624], [-88.24085846885801, 41.79704466778751], [-88.2408168763795, 41.79749401434612], [-88.24082810546827, 41.797769633757085], [-88.24094824574448, 41.79792615642591], [-88.2414064287781, 41.797968895853835], [-88.24221016705985, 41.79797165203325], [-88.24221000305317, 41.79772473874516], [-88.24185241362261, 41.79749421246488]]]}, "properties": {"OBJECTID": 279878895, "LOCATIONID": 80214, "TWP": "07", "SECT": "08", "BLOCK": "100", "LOT": "010", "PIN": "07-08-100-010", "FIRE_NUM": "", "STREETNUM": "0", "STREETPRE": "", "STREETDIR": "", "STREETNAME": "OPEN SPACE", "STREETSUF": "", "STREETSUFDIR": "", "STREETPOST": "", "UNIT": "", "ADDRESS": "0 OPEN SPACE", "CITY": "AURORA", "ZIPCODE": "60502", "COUNTY": "DUPAGE", "ZONING": "ORI(S)", "WARD": "10", "CENSUSTRACT": "846409", "LANDUSE": "C300", "OWNERNAME": "C1 CHICAGO - AURORA I &TOWER & CHICAGO - AURORA II LLC", "OWNERADDRESS": "2850 N HARWOOD ST STE 2000", "OWNERCITY": "DALLAS", "OWNERSTATE": "TX", "OWNERZIPCODE": "75201", "INSP_AREA": "I6", "ACRES": 2.65518479, "SQ_FT": 115659.84947259, "X": 1009350.53132, "Y": 1868830.58684, "Shape.STArea()": 115659.41668523877, "Shape.STLength()": 1514.3862996099945}}, {"type": "Feature", "id": 279886757, "geometry": {"type": "Polygon", "coordinates": [[[-88.24540759011285, 41.79797464071092], [-88.24636318923824, 41.79797768924485], [-88.24657961043121, 41.79797578925403], [-88.24679585054369, 41.797968957442755], [-88.24701171580153, 41.79795719816822], [-88.24722700159114, 41.79794052388422], [-88.24744150931319, 41.79791894885123], [-88.24731574565453, 41.79779526852172], [-88.24610542556367, 41.7966049430758], [-88.24595947332513, 41.796688050734936], [-88.24593883761112, 41.79748400996499], [-88.24554193701063, 41.79762638933614], [-88.2454683465228, 41.797817147456286], [-88.24540759011285, 41.79797464071092]]]}, "properties": {"OBJECTID": 279886757, "LOCATIONID": 80213, "TWP": "07", "SECT": "07", "BLOCK": "200", "LOT": "016", "PIN": "07-07-200-016", "FIRE_NUM": "", "STREETNUM": "0", "STREETPRE": "", "STREETDIR": "", "STREETNAME": "OPEN SPACE", "STREETSUF": "", "STREETSUFDIR": "", "STREETPOST": "", "UNIT": "", "ADDRESS": "0 OPEN SPACE", "CITY": "AURORA", "ZIPCODE": "60502", "COUNTY": "DUPAGE", "ZONING": "ORI(S)", "WARD": "10", "CENSUSTRACT": "846409", "LANDUSE": "C300", "OWNERNAME": "C1 CHICAGO - AURORA I &TOWER & CHICAGO - AURORA II LLC", "OWNERADDRESS": "2850 N HARWOOD ST STE 2000", "OWNERCITY": "DALLAS", "OWNERSTATE": "TX", "OWNERZIPCODE": "75201", "INSP_AREA": "I6", "ACRES": 3.05197929, "SQ_FT": 132944.21794701, "X": 1007978.99994, "Y": 1868824.83324, "Shape.STArea()": 132943.67127961532, "Shape.STLength()": 1749.501444300281}}, {"type": "Feature", "id": 279886758, "geometry": {"type": "Polygon", "coordinates": [[[-88.24843418149052, 41.79777966441889], [-88.24843350770112, 41.79624804452532], [-88.24655286843503, 41.79659094819193], [-88.2477681443077, 41.79778660185555], [-88.24843418149052, 41.79777966441889]]]}, "properties": {"OBJECTID": 279886758, "LOCATIONID": 85726, "TWP": "07", "SECT": "07", "BLOCK": "200", "LOT": "019", "PIN": "07-07-200-019", "FIRE_NUM": "", "STREETNUM": "0", "STREETPRE": "", "STREETDIR": "", "STREETNAME": "OPEN SPACE", "STREETSUF": "", "STREETSUFDIR": "", "STREETPOST": "", "UNIT": "", "ADDRESS": "0 OPEN SPACE", "CITY": "AURORA", "ZIPCODE": "60502", "COUNTY": "DUPAGE", "ZONING": "ORI", "WARD": "10", "CENSUSTRACT": "846409", "LANDUSE": "A500", "OWNERNAME": "C1 CHICAGO - AURORA I &TOWER & CHICAGO - AURORA II LLC", "OWNERADDRESS": "2850 N HARWOOD ST STE 2000", "OWNERCITY": "DALLAS", "OWNERSTATE": "TX", "OWNERZIPCODE": "75201", "INSP_AREA": "I6", "ACRES": 4.20325827, "SQ_FT": 183093.9301399, "X": 1007817.5124, "Y": 1868024.14817, "Shape.STArea()": 183093.2296236522, "Shape.STLength()": 1814.9326230868564}}, {"type": "Feature", "id": 279886759, "geometry": {"type": "Polygon", "coordinates": [[[-88.2421871795154, 41.79797165270496], [-88.24540759011285, 41.79797464071092], [-88.2454683465228, 41.797817147456286], [-88.24554193701063, 41.79762638933614], [-88.24593883761112, 41.79748400996499], [-88.24595947332513, 41.796688050734936], [-88.24610542556367, 41.7966049430758], [-88.24731574565453, 41.79779526852172], [-88.24744150931319, 41.79791894885123], [-88.24764488215219, 41.797893867210874], [-88.2478471982448, 41.79786437985866], [-88.2477714632522, 41.797789867235274], [-88.2477681443077, 41.79778660185555], [-88.24655286843503, 41.79659094819193], [-88.24843350770112, 41.79624804452532], [-88.24843322869393, 41.79561705500784], [-88.24843258074445, 41.794144230858734], [-88.24460126207998, 41.794760212462144], [-88.24304927788629, 41.79503199102231], [-88.24185086277123, 41.795230030004966], [-88.24185241362261, 41.79749421246488], [-88.24220951209537, 41.7977247707687], [-88.24219661739299, 41.79786732727923], [-88.2421871795154, 41.79797165270496]]]}, "properties": {"OBJECTID": 279886759, "LOCATIONID": 85725, "TWP": "07", "SECT": "08", "BLOCK": "100", "LOT": "012", "PIN": "07-08-100-012", "FIRE_NUM": "", "STREETNUM": "2905", "STREETPRE": "", "STREETDIR": "", "STREETNAME": "DIEHL", "STREETSUF": "RD", "STREETSUFDIR": "", "STREETPOST": "", "UNIT": "", "ADDRESS": "2905 DIEHL RD", "CITY": "AURORA", "ZIPCODE": "60502", "COUNTY": "DUPAGE", "ZONING": "ORI(C)", "WARD": "10", "CENSUSTRACT": "846409", "LANDUSE": "P100", "OWNERNAME": "C1 CHICAGO - AURORA I &TOWER & CHICAGO - AURORA II LLC", "OWNERADDRESS": "2850 N HARWOOD ST STE 2000", "OWNERCITY": "DALLAS", "OWNERSTATE": "TX", "OWNERZIPCODE": "75201", "INSP_AREA": "I6", "ACRES": 41.52307066, "SQ_FT": 1808744.95785923, "X": 1008422.75, "Y": 1868616.5, "Shape.STArea()": 1808737.8801398545, "Shape.STLength()": 6943.490886146613}}]}