{"type": "FeatureCollection", "features": [{"type": "Feature", "id": 279886922, "geometry": {"type": "Polygon", "coordinates": [[[-88.23938960627132, 41.80708350669798], [-88.24022194343016, 41.80779050183765], [-88.24055040860775, 41.80806949541576], [-88.24265661223444, 41.806563345409906], [-88.24143744472411, 41.80563159751578], [-88.23938960627132, 41.80708350669798]]]}, "properties": {"OBJECTID": 279886922, "LOCATIONID": 85050, "TWP": "07", "SECT": "05", "BLOCK": "105", "LOT": "006", "PIN": "07-05-105-006", "FIRE_NUM": "", "STREETNUM": "2835", "STREETPRE": "", "STREETDIR": "", "STREETNAME": "BILTER", "STREETSUF": "RD", "STREETSUFDIR": "", "STREETPOST": "", "UNIT": "", "ADDRESS": "2835 BILTER RD", "CITY": "AURORA", "ZIPCODE": "60502", "COUNTY": "DUPAGE", "ZONING": "PDD", "WARD": "10", "CENSUSTRACT": "846409", "LANDUSE": "P100", "OWNERNAME": "EDGED CHICAGO LLC", "OWNERADDRESS": "30 OLD KING HIGHWAY S STE 1005", "OWNERCITY": "DARIEN", "OWNERSTATE": "CT", "OWNERZIPCODE": "06820", "INSP_AREA": "I6", "ACRES": 8.55617409, "SQ_FT": 372706.94353841, "X": 1009552.118, "Y": 1872160.648, "Shape.STArea()": 372705.49208079255, "Shape.STLength()": 2517.4151681284266}}, {"type": "Feature", "id": 279886923, "geometry": {"type": "Polygon", "coordinates": [[[-88.24265661223444, 41.806563345409906], [-88.24055040860775, 41.80806949541576], [-88.24022194343016, 41.80779050183765], [-88.24026844892394, 41.80819883623404], [-88.24034269748984, 41.80819355903139], [-88.24041680306668, 41.80818729036957], [-88.2404907571895, 41.808180056352484], [-88.2405645297685, 41.80817185785641], [-88.24063809672958, 41.80816269666302], [-88.2407114424187, 41.8081525772619], [-88.24078453554405, 41.80814149962822], [-88.24085736285201, 41.80812947275543], [-88.24092990148118, 41.808116492123794], [-88.24100212253116, 41.80810256851496], [-88.24107400794269, 41.808087705516456], [-88.2411455348481, 41.8080719031105], [-88.24121668517915, 41.808055171187284], [-88.24128743245294, 41.808037513327726], [-88.24135775620363, 41.808018933117516], [-88.24142763716247, 41.80799943864532], [-88.24149705125494, 41.80797903259376], [-88.24156598041579, 41.80795772305246], [-88.24163440176504, 41.80793551900762], [-88.2417022936365, 41.80791242224356], [-88.24176963796144, 41.80788844355113], [-88.24183641306615, 41.807863590116874], [-88.24190259487153, 41.80783786822517], [-88.2419681677185, 41.80781128686811], [-88.24203311234318, 41.80778385143361], [-88.24209740465899, 41.80775557360823], [-88.24216103021455, 41.80772645968415], [-88.24222396372153, 41.80769652044668], [-88.24228619072872, 41.80766576218802], [-88.24234769196377, 41.8076341965987], [-88.24240844695619, 41.80760183176691], [-88.24246843522798, 41.80756868118299], [-88.24252764473518, 41.80753475114118], [-88.24258605019155, 41.80750005152661], [-88.24264363954201, 41.80746459673671], [-88.24270039472347, 41.80742839486171], [-88.24275629044885, 41.80739145668718], [-88.24283754214363, 41.80733537791498], [-88.24326509128474, 41.80702835734281], [-88.24265661223444, 41.806563345409906]]]}, "properties": {"OBJECTID": 279886923, "LOCATIONID": 85049, "TWP": "07", "SECT": "05", "BLOCK": "105", "LOT": "005", "PIN": "07-05-105-005", "FIRE_NUM": "", "STREETNUM": "2825", "STREETPRE": "", "STREETDIR": "", "STREETNAME": "BILTER", "STREETSUF": "RD", "STREETSUFDIR": "", "STREETPOST": "", "UNIT": "", "ADDRESS": "2825 BILTER RD", "CITY": "AURORA", "ZIPCODE": "60502", "COUNTY": "DUPAGE", "ZONING": "PDD", "WARD": "10", "CENSUSTRACT": "846409", "LANDUSE": "P100", "OWNERNAME": "EDGED CHICAGO LLC", "OWNERADDRESS": "30 OLD KING HIGHWAY S STE 1005", "OWNERCITY": "DARIEN", "OWNERSTATE": "CT", "OWNERZIPCODE": "06820", "INSP_AREA": "I6", "ACRES": 3.61278848, "SQ_FT": 157373.06618226, "X": 1009126.077, "Y": 1872416.377, "Shape.STArea()": 157372.39685271058, "Shape.STLength()": 2260.277610597258}}, {"type": "Feature", "id": 279886924, "geometry": {"type": "Polygon", "coordinates": [[[-88.24499963940089, 41.80572746471407], [-88.24505692832008, 41.80551074716953], [-88.24370824508279, 41.80448005509385], [-88.24177940101879, 41.80589294152349], [-88.24265661223444, 41.806563345409906], [-88.24326509128474, 41.80702835734281], [-88.24499963940089, 41.80572746471407]]]}, "properties": {"OBJECTID": 279886924, "LOCATIONID": 85048, "TWP": "07", "SECT": "05", "BLOCK": "105", "LOT": "004", "PIN": "07-05-105-004", "FIRE_NUM": "", "STREETNUM": "2805", "STREETPRE": "", "STREETDIR": "", "STREETNAME": "BILTER", "STREETSUF": "RD", "STREETSUFDIR": "", "STREETPOST": "", "UNIT": "", "ADDRESS": "2805 BILTER RD", "CITY": "AURORA", "ZIPCODE": "60502", "COUNTY": "DUPAGE", "ZONING": "PDD", "WARD": "10", "CENSUSTRACT": "846409", "LANDUSE": "P100", "OWNERNAME": "EDGED CHICAGO LLC", "OWNERADDRESS": "30 OLD KING HIGHWAY S STE 1005", "OWNERCITY": "DARIEN", "OWNERSTATE": "CT", "OWNERZIPCODE": "06820", "INSP_AREA": "I6", "ACRES": 9.67490007, "SQ_FT": 421438.64716409, "X": 1008779.723, "Y": 1871726.273, "Shape.STArea()": 421436.82283084764, "Shape.STLength()": 2590.640184030227}}, {"type": "Feature", "id": 279886925, "geometry": {"type": "Polygon", "coordinates": [[[-88.24177940101879, 41.80589294152349], [-88.24370824508279, 41.80448005509385], [-88.24408433518259, 41.804204558673376], [-88.241802567777, 41.802372606961626], [-88.23968502510975, 41.803887536911546], [-88.23960046006098, 41.80422831537638], [-88.24007878577021, 41.80427153027611], [-88.24090828063439, 41.804935890045336], [-88.24143744472411, 41.80563159751578], [-88.24177940101879, 41.80589294152349]]]}, "properties": {"OBJECTID": 279886925, "LOCATIONID": 85047, "TWP": "07", "SECT": "05", "BLOCK": "105", "LOT": "008", "PIN": "07-05-105-008", "FIRE_NUM": "", "STREETNUM": "2815", "STREETPRE": "", "STREETDIR": "", "STREETNAME": "BILTER", "STREETSUF": "RD", "STREETSUFDIR": "", "STREETPOST": "", "UNIT": "", "ADDRESS": "2815 BILTER RD", "CITY": "AURORA", "ZIPCODE": "60502", "COUNTY": "DUPAGE", "ZONING": "PDD", "WARD": "10", "CENSUSTRACT": "846409", "LANDUSE": "P100", "OWNERNAME": "EDGED CHICAGO LLC", "OWNERADDRESS": "30 OLD KING HIGHWAY S STE 1005", "OWNERCITY": "DARIEN", "OWNERSTATE": "CT", "OWNERZIPCODE": "06820", "INSP_AREA": "I6", "ACRES": 17.74437586, "SQ_FT": 772945.01239106, "X": 1009203.16, "Y": 1871163.252, "Shape.STArea()": 772941.9698494081, "Shape.STLength()": 3604.637146887032}}, {"type": "Feature", "id": 279886926, "geometry": {"type": "Polygon", "coordinates": [[[-88.24505692832008, 41.80551074716953], [-88.2451718884256, 41.805075877990205], [-88.24474579350385, 41.804340620729384], [-88.24449591688494, 41.80413456589044], [-88.24448547178568, 41.804125954874074], [-88.24425497848432, 41.803728206259], [-88.24423357774266, 41.80343602555951], [-88.24338104942917, 41.80196482645663], [-88.24337013816667, 41.80194659912371], [-88.24335880435638, 41.8019285128153], [-88.24334705279288, 41.80191058104046], [-88.2433348822719, 41.80189280469846], [-88.2433223012079, 41.801875190098286], [-88.24330930959356, 41.801857742641936], [-88.24329591343805, 41.801840467736184], [-88.24328211755092, 41.80182336808572], [-88.24326792553096, 41.8018064517965], [-88.24325334097938, 41.80178972517366], [-88.24323836749993, 41.80177319272174], [-88.24322300749937, 41.80175685444243], [-88.24320727419763, 41.80174072205065], [-88.2431911627817, 41.80172479554249], [-88.24317468407115, 41.80170908212912], [-88.24315784166598, 41.80169358901617], [-88.24314064037807, 41.80167831710753], [-88.24312308621894, 41.80166327000928], [-88.24310518278716, 41.80164845582726], [-88.24308693850197, 41.80163387726905], [-88.24306835335457, 41.801619540636985], [-88.24304944057994, 41.801605446841656], [-88.24303019776131, 41.80159160308392], [-88.24301063812727, 41.80157801477615], [-88.24299076408566, 41.801564681019705], [-88.24297058164018, 41.80155161082276], [-88.2429500968085, 41.80153880328955], [-88.2429293155943, 41.80152626742822], [-88.24290824762004, 41.80151400594728], [-88.2428868964967, 41.801502017949055], [-88.24286526702336, 41.801490313341105], [-88.24284336882494, 41.80147889303125], [-88.24282121032171, 41.80146775882666], [-88.2427987903014, 41.8014569170288], [-88.24277612440402, 41.801446369450524], [-88.24275321623664, 41.80143611789526], [-88.24273006940008, 41.80142616866822], [-88.24270669833226, 41.801416522681066], [-88.24267232178043, 41.801403633009805], [-88.24267161101514, 41.80140336594223], [-88.24265595567131, 41.801396962828846], [-88.24169569281402, 41.80145283982208], [-88.24033267695967, 41.80153214215277], [-88.24033115570012, 41.80153984170255], [-88.24021124914793, 41.802145779729074], [-88.23995859314715, 41.80280334263148], [-88.23993119486745, 41.802874653184816], [-88.23990405381738, 41.80294528596883], [-88.23985102493194, 41.80319614885676], [-88.23979498795407, 41.803444094794706], [-88.2396995431143, 41.80382898843767], [-88.23968502510975, 41.803887536911546], [-88.241802567777, 41.802372606961626], [-88.24408433518259, 41.804204558673376], [-88.24370824508279, 41.80448005509385], [-88.24505692832008, 41.80551074716953]]]}, "properties": {"OBJECTID": 279886926, "LOCATIONID": 85052, "TWP": "07", "SECT": "05", "BLOCK": "307", "LOT": "001", "PIN": "07-05-307-001", "FIRE_NUM": "", "STREETNUM": "0", "STREETPRE": "", "STREETDIR": "", "STREETNAME": "VACANT", "STREETSUF": "", "STREETSUFDIR": "", "STREETPOST": "", "UNIT": "", "ADDRESS": "0 VACANT", "CITY": "AURORA", "ZIPCODE": "60502", "COUNTY": "DUPAGE", "ZONING": "PDD", "WARD": "10", "CENSUSTRACT": "846409", "LANDUSE": "A500", "OWNERNAME": "EDGED CHICAGO LLC", "OWNERADDRESS": "30 OLD KING HIGHWAY S STE 1005", "OWNERCITY": "DARIEN", "OWNERSTATE": "CT", "OWNERZIPCODE": "06820", "INSP_AREA": "I6", "ACRES": 16.2452324, "SQ_FT": 707642.32326213, "X": 1008779.723, "Y": 1871726.273, "Shape.STArea()": 707639.3499624855, "Shape.STLength()": 5593.688742523981}}, {"type": "Feature", "id": 279886927, "geometry": {"type": "Polygon", "coordinates": [[[-88.23869807118628, 41.806805462733834], [-88.23919251916328, 41.80691609729526], [-88.23938960627132, 41.80708350669798], [-88.24143744472411, 41.80563159751578], [-88.24090828063439, 41.804935890045336], [-88.24007878577021, 41.80427153027611], [-88.23960046006098, 41.80422831537638], [-88.2395793641086, 41.80430276242142], [-88.23948598546869, 41.804632254776934], [-88.23936162870238, 41.80503619135351], [-88.2392296924934, 41.805432939389185], [-88.23922786496261, 41.80543843998993], [-88.23921053607667, 41.80548728290876], [-88.23916709474453, 41.80560971152334], [-88.23916503934058, 41.80561550365264], [-88.2390464209318, 41.80593093737606], [-88.23892325899276, 41.806242013086795], [-88.23869807118628, 41.806805462733834]]]}, "properties": {"OBJECTID": 279886927, "LOCATIONID": 85051, "TWP": "07", "SECT": "05", "BLOCK": "105", "LOT": "007", "PIN": "07-05-105-007", "FIRE_NUM": "", "STREETNUM": "2845", "STREETPRE": "", "STREETDIR": "", "STREETNAME": "BILTER", "STREETSUF": "RD", "STREETSUFDIR": "", "STREETPOST": "", "UNIT": "", "ADDRESS": "2845 BILTER RD", "CITY": "AURORA", "ZIPCODE": "60502", "COUNTY": "DUPAGE", "ZONING": "PDD", "WARD": "10", "CENSUSTRACT": "846409", "LANDUSE": "P100", "OWNERNAME": "EDGED CHICAGO LLC", "OWNERADDRESS": "30 OLD KING HIGHWAY S STE 1005", "OWNERCITY": "DARIEN", "OWNERSTATE": "CT", "OWNERZIPCODE": "06820", "INSP_AREA": "I6", "ACRES": 9.31425227, "SQ_FT": 405728.82868811, "X": 1009696.389, "Y": 1871799.19, "Shape.STArea()": 405727.3405897621, "Shape.STLength()": 2716.7374015928613}}]}