{
"type": "FeatureCollection",
"name": "approved_plan_footprints",
"crs": { "type": "name", "properties": { "name": "urn:ogc:def:crs:OGC:1.3:CRS84" } },
"features": [
{ "type": "Feature", "properties": { "building_id": "edged_ord01_2", "site_id": "edged_chicago", "building_name": "Edged ORD01-2", "overture_id": null, "status_as_of": "under_construction", "status_date": "2026-09-08", "geometry_source": "Approved plan dimensions; approximate georeferencing against Sentinel-2", "geometry_class": "approved_plan_footprint_approximate_position", "geometry_confidence": "low-medium", "source_geometry_update": "2023-01-12", "source_release": "Aurora approved plan dated 2023-01-12", "roof_footprint_m2": 23724.474667163526, "roof_footprint_sqft": 255368.12000084738, "reported_gross_floor_area_sqft": 415934.0 }, "geometry": { "type": "Polygon", "coordinates": [ [ [ -88.242080231076926, 41.804034845894826 ], [ -88.243624237334885, 41.805254869116425 ], [ -88.244735609390389, 41.804467454526062 ], [ -88.243191601677921, 41.803247446111428 ], [ -88.242080231076926, 41.804034845894826 ] ] ] } }
]
}
