{
"type": "FeatureCollection",
"name": "dynamic_world_built_inclusive_2026",
"crs": { "type": "name", "properties": { "name": "urn:ogc:def:crs:OGC:1.3:CRS84" } },
"features": [
{ "type": "Feature", "properties": { "dw_polygon_id": "dw26_inclusive_001", "site_id": "cyrusone_aurora_chi1_chi2", "threshold": 0.3, "scene_count": 33, "built_probability_mean": 0.63459299494731225, "built_vote_fraction_mean": 0.83967292863426146, "area_m2": 159856.04655291015, "product": "inclusive", "observation_start": "2026-01-01", "observation_end": "2026-08-31", "dataset": "GOOGLE/DYNAMICWORLD/V1", "nominal_resolution_m": 10, "geometry_confidence": "low", "interpretation": "provisional built surface; not a roof boundary", "known_roof_overlap_m2": 60573.483206173012, "known_roof_overlap_pct": 37.892519246135635, "screening_class": "supports existing roof footprint" }, "geometry": { "type": "Polygon", "coordinates": [ [ [ -88.245462946310724, 41.797981349382454 ], [ -88.24222901128789, 41.797981349382447 ], [ -88.24222901128789, 41.797711854797214 ], [ -88.242139179759477, 41.797711854797214 ], [ -88.242139179759477, 41.797622023268794 ], [ -88.24195951670265, 41.797622023268794 ], [ -88.24195951670265, 41.797532191740395 ], [ -88.241869685174237, 41.797532191740402 ], [ -88.241869685174237, 41.795196572001664 ], [ -88.242318842816303, 41.795196572001664 ], [ -88.242318842816303, 41.795106740473258 ], [ -88.242857831986768, 41.795106740473258 ], [ -88.242857831986768, 41.795016908944852 ], [ -88.243396821157248, 41.795016908944859 ], [ -88.243396821157248, 41.794927077416453 ], [ -88.243935810327713, 41.794927077416453 ], [ -88.243935810327713, 41.79483724588804 ], [ -88.244384967969779, 41.794837245888033 ], [ -88.244384967969779, 41.79474741435962 ], [ -88.245013788668658, 41.79474741435962 ], [ -88.245013788668658, 41.794657582831221 ], [ -88.245552777839137, 41.794657582831221 ], [ -88.245552777839137, 41.7945677513028 ], [ -88.246091767009602, 41.794567751302793 ], [ -88.246091767009602, 41.79447791977438 ], [ -88.246630756180082, 41.794477919774387 ], [ -88.246630756180082, 41.794388088245974 ], [ -88.247169745350547, 41.794388088245981 ], [ -88.247169745350547, 41.794298256717575 ], [ -88.247888397577839, 41.794298256717546 ], [ -88.247888397577839, 41.794388088245967 ], [ -88.247978229106252, 41.794388088245981 ], [ -88.247978229106252, 41.794567751302793 ], [ -88.248157892163078, 41.7945677513028 ], [ -88.248157892163078, 41.794657582831213 ], [ -88.248247723691492, 41.794657582831221 ], [ -88.248247723691492, 41.794837245888033 ], [ -88.248337555219905, 41.794837245888026 ], [ -88.248337555219905, 41.795016908944852 ], [ -88.248427386748318, 41.795016908944859 ], [ -88.248427386748318, 41.796274550342609 ], [ -88.248068060634665, 41.796274550342616 ], [ -88.248068060634665, 41.796364381871022 ], [ -88.2475290714642, 41.796364381871022 ], [ -88.2475290714642, 41.79645421339945 ], [ -88.247079913822134, 41.796454213399457 ], [ -88.247079913822134, 41.79654404492787 ], [ -88.246540924651669, 41.79654404492787 ], [ -88.246540924651669, 41.796633876456269 ], [ -88.246630756180082, 41.796633876456269 ], [ -88.246630756180082, 41.796723707984683 ], [ -88.246181598538016, 41.79672370798469 ], [ -88.246181598538016, 41.796633876456255 ], [ -88.246001935481189, 41.796633876456255 ], [ -88.246001935481189, 41.796723707984675 ], [ -88.245912103952776, 41.79672370798469 ], [ -88.245912103952776, 41.797532191740387 ], [ -88.24564260936755, 41.797532191740402 ], [ -88.24564260936755, 41.797622023268801 ], [ -88.245552777839137, 41.797622023268794 ], [ -88.245552777839137, 41.797711854797207 ], [ -88.245462946310724, 41.7977118547972 ], [ -88.245462946310724, 41.797981349382454 ] ] ] } },
{ "type": "Feature", "properties": { "dw_polygon_id": "dw26_inclusive_002", "site_id": "cyrusone_aurora_iii", "threshold": 0.3, "scene_count": 33, "built_probability_mean": 0.53280232309537878, "built_vote_fraction_mean": 0.85476476476477403, "area_m2": 82636.741666428759, "product": "inclusive", "observation_start": "2026-01-01", "observation_end": "2026-08-31", "dataset": "GOOGLE/DYNAMICWORLD/V1", "nominal_resolution_m": 10, "geometry_confidence": "low", "interpretation": "provisional built surface; not a roof boundary", "known_roof_overlap_m2": 19765.546067607946, "known_roof_overlap_pct": 23.918593193562124, "screening_class": "large unmatched built-surface candidate" }, "geometry": { "type": "Polygon", "coordinates": [ [ [ -88.246181598538016, 41.804898377070167 ], [ -88.245732440895978, 41.804898377070181 ], [ -88.245732440895978, 41.804718714013347 ], [ -88.24564260936755, 41.80471871401334 ], [ -88.24564260936755, 41.804628882484934 ], [ -88.245552777839137, 41.804628882484934 ], [ -88.245552777839137, 41.804449219428108 ], [ -88.245462946310724, 41.804449219428115 ], [ -88.245462946310724, 41.804269556371281 ], [ -88.245373114782311, 41.804269556371295 ], [ -88.245373114782311, 41.804089893314455 ], [ -88.245283283253897, 41.804089893314455 ], [ -88.245283283253897, 41.804000061786049 ], [ -88.245193451725484, 41.804000061786049 ], [ -88.245193451725484, 41.803820398729229 ], [ -88.245103620197071, 41.803820398729236 ], [ -88.245103620197071, 41.803640735672396 ], [ -88.245013788668658, 41.803640735672403 ], [ -88.245013788668658, 41.803550904143989 ], [ -88.244923957140244, 41.803550904143989 ], [ -88.244923957140244, 41.80337124108717 ], [ -88.244834125611831, 41.803371241087177 ], [ -88.244834125611831, 41.803191578030336 ], [ -88.244744294083432, 41.803191578030344 ], [ -88.244744294083432, 41.803101746501937 ], [ -88.244654462555033, 41.80310174650193 ], [ -88.244654462555033, 41.802922083445111 ], [ -88.244564631026606, 41.802922083445111 ], [ -88.244564631026606, 41.802652588859871 ], [ -88.244474799498192, 41.802652588859864 ], [ -88.244474799498192, 41.802472925803052 ], [ -88.244564631026606, 41.802472925803052 ], [ -88.244564631026606, 41.802293262746218 ], [ -88.244654462555033, 41.802293262746225 ], [ -88.244654462555033, 41.802113599689406 ], [ -88.244744294083432, 41.802113599689399 ], [ -88.244744294083432, 41.802023768160986 ], [ -88.245283283253897, 41.802023768160979 ], [ -88.245283283253897, 41.80193393663258 ], [ -88.245373114782311, 41.80193393663258 ], [ -88.245373114782311, 41.802023768160986 ], [ -88.245552777839137, 41.802023768160993 ], [ -88.245552777839137, 41.802113599689399 ], [ -88.24564260936755, 41.802113599689392 ], [ -88.24564260936755, 41.802203431217819 ], [ -88.246361261594842, 41.802203431217812 ], [ -88.246361261594842, 41.802113599689385 ], [ -88.246451093123255, 41.802113599689392 ], [ -88.246451093123255, 41.801754273575746 ], [ -88.246810419236894, 41.801754273575746 ], [ -88.246810419236894, 41.801664442047333 ], [ -88.246900250765307, 41.801664442047333 ], [ -88.246900250765307, 41.801574610518919 ], [ -88.247079913822134, 41.801574610518919 ], [ -88.247079913822134, 41.801484778990528 ], [ -88.2475290714642, 41.801484778990513 ], [ -88.2475290714642, 41.801574610518927 ], [ -88.247708734521026, 41.801574610518912 ], [ -88.247708734521026, 41.80166444204734 ], [ -88.247888397577839, 41.801664442047333 ], [ -88.247888397577839, 41.80193393663258 ], [ -88.247798566049426, 41.801933936632572 ], [ -88.247798566049426, 41.802023768160979 ], [ -88.248068060634665, 41.802023768160979 ], [ -88.248068060634665, 41.802113599689399 ], [ -88.248157892163078, 41.802113599689399 ], [ -88.248157892163078, 41.802293262746218 ], [ -88.248247723691492, 41.802293262746218 ], [ -88.248247723691492, 41.802472925803045 ], [ -88.248427386748318, 41.802472925803052 ], [ -88.248427386748318, 41.802652588859871 ], [ -88.248517218276731, 41.802652588859871 ], [ -88.248517218276731, 41.802742420388277 ], [ -88.248607049805145, 41.802742420388284 ], [ -88.248607049805145, 41.802832251916691 ], [ -88.24914603897561, 41.802832251916705 ], [ -88.24914603897561, 41.802922083445111 ], [ -88.249056207447197, 41.802922083445104 ], [ -88.249056207447197, 41.803371241087177 ], [ -88.248786712861957, 41.80337124108717 ], [ -88.248786712861957, 41.803550904143982 ], [ -88.248607049805145, 41.803550904143989 ], [ -88.248607049805145, 41.803640735672403 ], [ -88.248247723691492, 41.803640735672403 ], [ -88.248247723691492, 41.803730567200823 ], [ -88.247978229106252, 41.803730567200809 ], [ -88.247978229106252, 41.803820398729229 ], [ -88.247798566049426, 41.803820398729222 ], [ -88.247798566049426, 41.803910230257635 ], [ -88.247618902992613, 41.803910230257635 ], [ -88.247618902992613, 41.804000061786049 ], [ -88.2475290714642, 41.804000061786049 ], [ -88.2475290714642, 41.804089893314462 ], [ -88.247349408407374, 41.804089893314455 ], [ -88.247349408407374, 41.804179724842861 ], [ -88.24725957687896, 41.804179724842868 ], [ -88.24725957687896, 41.804269556371288 ], [ -88.247079913822134, 41.804269556371288 ], [ -88.247079913822134, 41.804359387899702 ], [ -88.246900250765307, 41.804359387899702 ], [ -88.246900250765307, 41.804449219428108 ], [ -88.246810419236894, 41.804449219428108 ], [ -88.246810419236894, 41.804539050956528 ], [ -88.246630756180082, 41.804539050956514 ], [ -88.246630756180082, 41.804628882484941 ], [ -88.246451093123255, 41.804628882484941 ], [ -88.246451093123255, 41.804718714013333 ], [ -88.246361261594842, 41.80471871401334 ], [ -88.246361261594842, 41.804808545541754 ], [ -88.246181598538016, 41.804808545541754 ], [ -88.246181598538016, 41.804898377070167 ] ], [ [ -88.245912103952776, 41.804808545541746 ], [ -88.246001935481189, 41.804808545541768 ], [ -88.246001935481189, 41.804628882484934 ], [ -88.246181598538016, 41.804628882484934 ], [ -88.246181598538016, 41.804449219428108 ], [ -88.245912103952776, 41.804449219428093 ], [ -88.245912103952776, 41.804628882484934 ], [ -88.245822272424363, 41.804628882484941 ], [ -88.245822272424363, 41.80471871401334 ], [ -88.245912103952776, 41.804718714013347 ], [ -88.245912103952776, 41.804808545541746 ] ] ] } },
{ "type": "Feature", "properties": { "dw_polygon_id": "dw26_inclusive_003", "site_id": "edged_chicago", "threshold": 0.3, "scene_count": 33, "built_probability_mean": 0.4486854869290034, "built_vote_fraction_mean": 0.81399450781580651, "area_m2": 78314.441684211371, "product": "inclusive", "observation_start": "2026-01-01", "observation_end": "2026-08-31", "dataset": "GOOGLE/DYNAMICWORLD/V1", "nominal_resolution_m": 10, "geometry_confidence": "low", "interpretation": "provisional built surface; not a roof boundary", "known_roof_overlap_m2": 10810.499166623496, "known_roof_overlap_pct": 13.803966336394062, "screening_class": "large unmatched built-surface candidate" }, "geometry": { "type": "Polygon", "coordinates": [ [ [ -88.241061201418532, 41.808132312093001 ], [ -88.240971369890119, 41.808132312093001 ], [ -88.240971369890119, 41.808042480564588 ], [ -88.240522212248067, 41.808042480564581 ], [ -88.240522212248067, 41.807862817507768 ], [ -88.240432380719653, 41.807862817507768 ], [ -88.240432380719653, 41.807772985979348 ], [ -88.240342549191254, 41.807772985979355 ], [ -88.240342549191254, 41.807683154450942 ], [ -88.240073054606, 41.807683154450942 ], [ -88.240073054606, 41.807593322922529 ], [ -88.239983223077587, 41.807593322922536 ], [ -88.239983223077587, 41.807503491394122 ], [ -88.239803560020775, 41.807503491394115 ], [ -88.239803560020775, 41.807413659865709 ], [ -88.239713728492362, 41.807413659865709 ], [ -88.239713728492362, 41.807323828337303 ], [ -88.239623896963963, 41.80732382833731 ], [ -88.239623896963963, 41.807233996808876 ], [ -88.239534065435535, 41.807233996808883 ], [ -88.239534065435535, 41.807144165280476 ], [ -88.239444233907122, 41.807144165280469 ], [ -88.239444233907122, 41.806695007638417 ], [ -88.239534065435535, 41.80669500763841 ], [ -88.239534065435535, 41.806425513053171 ], [ -88.239713728492362, 41.806425513053171 ], [ -88.239713728492362, 41.806156018467931 ], [ -88.239893391549174, 41.806156018467931 ], [ -88.239893391549174, 41.806066186939525 ], [ -88.240073054606, 41.806066186939518 ], [ -88.240073054606, 41.805976355411111 ], [ -88.240162886134414, 41.805976355411119 ], [ -88.240162886134414, 41.806066186939525 ], [ -88.240432380719653, 41.806066186939525 ], [ -88.240432380719653, 41.805796692354292 ], [ -88.24061204377648, 41.805796692354285 ], [ -88.24061204377648, 41.805706860825872 ], [ -88.240791706833306, 41.805706860825879 ], [ -88.240791706833306, 41.805617029297473 ], [ -88.241510359060598, 41.805617029297466 ], [ -88.241510359060598, 41.805706860825886 ], [ -88.241600190589011, 41.805706860825879 ], [ -88.241600190589011, 41.80561702929748 ], [ -88.241869685174237, 41.80561702929748 ], [ -88.241869685174237, 41.805437366240646 ], [ -88.242318842816303, 41.805437366240646 ], [ -88.242318842816303, 41.805527197769045 ], [ -88.242588337401543, 41.805527197769052 ], [ -88.242588337401543, 41.805617029297466 ], [ -88.242678168929956, 41.805617029297458 ], [ -88.242678168929956, 41.805527197769052 ], [ -88.242768000458369, 41.805527197769052 ], [ -88.242768000458369, 41.805437366240639 ], [ -88.243037495043595, 41.805437366240639 ], [ -88.243037495043595, 41.805257703183813 ], [ -88.243127326572008, 41.80525770318382 ], [ -88.243127326572008, 41.805347534712233 ], [ -88.243306989628834, 41.805347534712226 ], [ -88.243306989628834, 41.805437366240639 ], [ -88.243486652685661, 41.805437366240646 ], [ -88.243486652685661, 41.805347534712233 ], [ -88.243666315742487, 41.805347534712233 ], [ -88.243666315742487, 41.805167871655406 ], [ -88.244025641856126, 41.805167871655392 ], [ -88.244025641856126, 41.805437366240639 ], [ -88.244115473384539, 41.805437366240632 ], [ -88.244115473384539, 41.805527197769038 ], [ -88.244295136441366, 41.805527197769045 ], [ -88.244295136441366, 41.80561702929748 ], [ -88.244115473384539, 41.80561702929748 ], [ -88.244115473384539, 41.805706860825879 ], [ -88.244025641856126, 41.805706860825886 ], [ -88.244025641856126, 41.805796692354292 ], [ -88.244295136441366, 41.805796692354278 ], [ -88.244295136441366, 41.805706860825865 ], [ -88.244474799498192, 41.805706860825879 ], [ -88.244474799498192, 41.805796692354285 ], [ -88.244834125611831, 41.805796692354292 ], [ -88.244834125611831, 41.805886523882698 ], [ -88.244744294083432, 41.805886523882698 ], [ -88.244744294083432, 41.805976355411104 ], [ -88.244564631026606, 41.805976355411104 ], [ -88.244564631026606, 41.806066186939518 ], [ -88.244474799498192, 41.806066186939532 ], [ -88.244474799498192, 41.806156018467924 ], [ -88.244384967969779, 41.806156018467931 ], [ -88.244384967969779, 41.806245849996351 ], [ -88.244205304912953, 41.806245849996337 ], [ -88.244205304912953, 41.806335681524757 ], [ -88.244115473384539, 41.806335681524757 ], [ -88.244115473384539, 41.806425513053171 ], [ -88.244025641856126, 41.806425513053185 ], [ -88.244025641856126, 41.806515344581577 ], [ -88.2438459787993, 41.806515344581577 ], [ -88.2438459787993, 41.80660517610999 ], [ -88.243756147270901, 41.806605176109997 ], [ -88.243756147270901, 41.806695007638417 ], [ -88.243666315742487, 41.806695007638403 ], [ -88.243666315742487, 41.806784839166824 ], [ -88.243576484214088, 41.806784839166824 ], [ -88.243576484214088, 41.80687467069523 ], [ -88.243396821157248, 41.806874670695244 ], [ -88.243396821157248, 41.806964502223636 ], [ -88.243306989628834, 41.806964502223643 ], [ -88.243306989628834, 41.807054333752056 ], [ -88.243127326572008, 41.807054333752063 ], [ -88.243127326572008, 41.807144165280469 ], [ -88.243037495043595, 41.807144165280469 ], [ -88.243037495043595, 41.807233996808883 ], [ -88.242947663515181, 41.807233996808876 ], [ -88.242947663515181, 41.80732382833731 ], [ -88.242768000458369, 41.807323828337303 ], [ -88.242768000458369, 41.807413659865709 ], [ -88.242678168929956, 41.807413659865709 ], [ -88.242678168929956, 41.807503491394108 ], [ -88.242498505873144, 41.807503491394108 ], [ -88.242498505873144, 41.807593322922529 ], [ -88.242318842816303, 41.807593322922529 ], [ -88.242318842816303, 41.807683154450935 ], [ -88.242139179759477, 41.807683154450949 ], [ -88.242139179759477, 41.807772985979348 ], [ -88.24195951670265, 41.807772985979355 ], [ -88.24195951670265, 41.807862817507768 ], [ -88.241779853645852, 41.807862817507754 ], [ -88.241779853645852, 41.807772985979355 ], [ -88.241869685174237, 41.807772985979355 ], [ -88.241869685174237, 41.807593322922536 ], [ -88.241600190589011, 41.807593322922529 ], [ -88.241600190589011, 41.807683154450942 ], [ -88.241151032946945, 41.807683154450935 ], [ -88.241151032946945, 41.807772985979355 ], [ -88.241061201418532, 41.807772985979348 ], [ -88.241061201418532, 41.807952649036167 ], [ -88.241330696003772, 41.807952649036174 ], [ -88.241330696003772, 41.808042480564581 ], [ -88.241061201418532, 41.808042480564581 ], [ -88.241061201418532, 41.808132312093001 ] ], [ [ -88.242857831986768, 41.80669500763841 ], [ -88.243576484214088, 41.80669500763841 ], [ -88.243576484214088, 41.806605176109983 ], [ -88.243306989628834, 41.80660517610999 ], [ -88.243306989628834, 41.806515344581591 ], [ -88.242947663515181, 41.806515344581584 ], [ -88.242947663515181, 41.806425513053185 ], [ -88.243217158100421, 41.806425513053163 ], [ -88.243217158100421, 41.806245849996337 ], [ -88.243306989628834, 41.806245849996337 ], [ -88.243306989628834, 41.806156018467931 ], [ -88.243037495043595, 41.806156018467938 ], [ -88.243037495043595, 41.806335681524757 ], [ -88.242857831986768, 41.806335681524764 ], [ -88.242857831986768, 41.806245849996351 ], [ -88.242678168929956, 41.806245849996351 ], [ -88.242678168929956, 41.806515344581577 ], [ -88.242857831986768, 41.806515344581577 ], [ -88.242857831986768, 41.80669500763841 ] ] ] } },
{ "type": "Feature", "properties": { "dw_polygon_id": "dw26_inclusive_004", "site_id": "edged_chicago", "threshold": 0.3, "scene_count": 33, "built_probability_mean": 0.34776412183000971, "built_vote_fraction_mean": 0.71943019943019859, "area_m2": 14517.027874794627, "product": "inclusive", "observation_start": "2026-01-01", "observation_end": "2026-08-31", "dataset": "GOOGLE/DYNAMICWORLD/V1", "nominal_resolution_m": 10, "geometry_confidence": "low", "interpretation": "provisional built surface; not a roof boundary", "known_roof_overlap_m2": 0.0, "known_roof_overlap_pct": 0.0, "screening_class": "large unmatched built-surface candidate" }, "geometry": { "type": "MultiPolygon", "coordinates": [ [ [ [ -88.240881538361705, 41.803640735672396 ], [ -88.241061201418532, 41.803640735672396 ], [ -88.241061201418532, 41.803820398729215 ], [ -88.241240864475358, 41.803820398729215 ], [ -88.241240864475358, 41.803910230257642 ], [ -88.241330696003772, 41.803910230257642 ], [ -88.241330696003772, 41.803730567200809 ], [ -88.241600190589011, 41.803730567200816 ], [ -88.241600190589011, 41.803820398729229 ], [ -88.241690022117425, 41.803820398729229 ], [ -88.241690022117425, 41.804000061786056 ], [ -88.241330696003772, 41.804000061786056 ], [ -88.241330696003772, 41.804179724842861 ], [ -88.241600190589011, 41.804179724842875 ], [ -88.241600190589011, 41.804359387899709 ], [ -88.241420527532199, 41.804359387899694 ], [ -88.241420527532199, 41.804449219428115 ], [ -88.241330696003772, 41.804449219428115 ], [ -88.241330696003772, 41.804359387899687 ], [ -88.240971369890119, 41.804359387899694 ], [ -88.240971369890119, 41.804269556371295 ], [ -88.240881538361705, 41.804269556371281 ], [ -88.240881538361705, 41.804359387899694 ], [ -88.24061204377648, 41.804359387899694 ], [ -88.24061204377648, 41.804179724842875 ], [ -88.240342549191254, 41.804179724842875 ], [ -88.240342549191254, 41.804359387899694 ], [ -88.240162886134414, 41.804359387899702 ], [ -88.240162886134414, 41.804179724842868 ], [ -88.240252717662827, 41.804179724842868 ], [ -88.240252717662827, 41.804000061786056 ], [ -88.239983223077587, 41.804000061786049 ], [ -88.239983223077587, 41.804269556371281 ], [ -88.239893391549174, 41.804269556371281 ], [ -88.239893391549174, 41.804718714013347 ], [ -88.239803560020775, 41.804718714013347 ], [ -88.239803560020775, 41.804898377070167 ], [ -88.239623896963963, 41.804898377070167 ], [ -88.239623896963963, 41.804988208598573 ], [ -88.239534065435535, 41.80498820859858 ], [ -88.239534065435535, 41.805078040126986 ], [ -88.239444233907122, 41.805078040126986 ], [ -88.239444233907122, 41.805167871655406 ], [ -88.239354402378709, 41.805167871655399 ], [ -88.239354402378709, 41.804898377070174 ], [ -88.239444233907122, 41.804898377070181 ], [ -88.239444233907122, 41.804628882484934 ], [ -88.239534065435535, 41.804628882484941 ], [ -88.239534065435535, 41.804269556371281 ], [ -88.239623896963963, 41.804269556371288 ], [ -88.239623896963963, 41.804000061786049 ], [ -88.239713728492362, 41.804000061786049 ], [ -88.239713728492362, 41.803550904143975 ], [ -88.239803560020775, 41.803550904143975 ], [ -88.239803560020775, 41.803191578030336 ], [ -88.239893391549174, 41.803191578030336 ], [ -88.239893391549174, 41.802832251916691 ], [ -88.239983223077587, 41.802832251916691 ], [ -88.239983223077587, 41.802742420388277 ], [ -88.240073054606, 41.802742420388277 ], [ -88.240073054606, 41.803371241087163 ], [ -88.240342549191254, 41.80337124108717 ], [ -88.240342549191254, 41.80328140955875 ], [ -88.24061204377648, 41.80328140955875 ], [ -88.24061204377648, 41.803550904143989 ], [ -88.240522212248067, 41.803550904143982 ], [ -88.240522212248067, 41.803640735672396 ], [ -88.24061204377648, 41.803640735672403 ], [ -88.24061204377648, 41.803820398729229 ], [ -88.240342549191254, 41.803820398729229 ], [ -88.240342549191254, 41.804000061786049 ], [ -88.24061204377648, 41.804000061786056 ], [ -88.24061204377648, 41.80391023025765 ], [ -88.240701875304907, 41.803910230257642 ], [ -88.240701875304907, 41.803820398729229 ], [ -88.240881538361705, 41.803820398729236 ], [ -88.240881538361705, 41.803640735672396 ] ], [ [ -88.24061204377648, 41.804179724842875 ], [ -88.240701875304907, 41.804179724842875 ], [ -88.240701875304907, 41.804089893314462 ], [ -88.24061204377648, 41.804089893314455 ], [ -88.24061204377648, 41.804179724842875 ] ], [ [ -88.240342549191254, 41.803820398729229 ], [ -88.240342549191254, 41.803640735672388 ], [ -88.240162886134414, 41.803640735672396 ], [ -88.240162886134414, 41.80346107261559 ], [ -88.239983223077587, 41.803461072615598 ], [ -88.239983223077587, 41.803910230257635 ], [ -88.240162886134414, 41.803910230257635 ], [ -88.240162886134414, 41.803820398729229 ], [ -88.240342549191254, 41.803820398729229 ] ] ], [ [ [ -88.240881538361705, 41.803640735672396 ], [ -88.24061204377648, 41.803640735672403 ], [ -88.24061204377648, 41.803550904143989 ], [ -88.240701875304907, 41.803550904143989 ], [ -88.240701875304907, 41.80346107261559 ], [ -88.240881538361705, 41.803461072615598 ], [ -88.240881538361705, 41.803640735672396 ] ] ] ] } }
]
}
