{
"type": "FeatureCollection",
"name": "dynamic_world_built_core_2026",
"crs": { "type": "name", "properties": { "name": "urn:ogc:def:crs:OGC:1.3:CRS84" } },
"features": [
{ "type": "Feature", "properties": { "dw_polygon_id": "dw26_core_001", "site_id": "cyrusone_aurora_chi1_chi2", "threshold": 0.5, "scene_count": 33, "built_probability_mean": 0.65115393466147642, "built_vote_fraction_mean": 0.84136144713260597, "area_m2": 147719.74752690271, "product": "core", "observation_start": "2026-01-01", "observation_end": "2026-08-31", "dataset": "GOOGLE/DYNAMICWORLD/V1", "nominal_resolution_m": 10, "geometry_confidence": "low", "interpretation": "provisional built surface; not a roof boundary", "known_roof_overlap_m2": 56031.745119077292, "known_roof_overlap_pct": 37.931113515390216, "screening_class": "supports existing roof footprint" }, "geometry": { "type": "Polygon", "coordinates": [ [ [ -88.245462946310724, 41.797981349382454 ], [ -88.24222901128789, 41.797981349382447 ], [ -88.24222901128789, 41.797711854797214 ], [ -88.242139179759477, 41.797711854797214 ], [ -88.242139179759477, 41.797622023268794 ], [ -88.242049348231063, 41.797622023268794 ], [ -88.242049348231063, 41.797532191740395 ], [ -88.24195951670265, 41.797532191740395 ], [ -88.24195951670265, 41.797352528683568 ], [ -88.241869685174237, 41.797352528683554 ], [ -88.241869685174237, 41.795196572001664 ], [ -88.242318842816303, 41.795196572001664 ], [ -88.242318842816303, 41.795106740473258 ], [ -88.242857831986768, 41.795106740473258 ], [ -88.242857831986768, 41.795016908944852 ], [ -88.243306989628834, 41.795016908944852 ], [ -88.243306989628834, 41.795106740473251 ], [ -88.243576484214088, 41.795106740473258 ], [ -88.243576484214088, 41.795196572001672 ], [ -88.243666315742487, 41.795196572001672 ], [ -88.243666315742487, 41.795106740473258 ], [ -88.243935810327713, 41.795106740473258 ], [ -88.243935810327713, 41.795016908944859 ], [ -88.244205304912953, 41.795016908944852 ], [ -88.244205304912953, 41.794927077416453 ], [ -88.244564631026606, 41.794927077416453 ], [ -88.244564631026606, 41.794837245888026 ], [ -88.244744294083432, 41.794837245888026 ], [ -88.244744294083432, 41.794747414359627 ], [ -88.245462946310724, 41.794747414359627 ], [ -88.245462946310724, 41.794657582831206 ], [ -88.246001935481189, 41.794657582831221 ], [ -88.246001935481189, 41.7945677513028 ], [ -88.246451093123255, 41.7945677513028 ], [ -88.246451093123255, 41.794477919774373 ], [ -88.247079913822134, 41.79447791977438 ], [ -88.247079913822134, 41.794388088245967 ], [ -88.247618902992613, 41.794388088245974 ], [ -88.247618902992613, 41.794477919774387 ], [ -88.247888397577839, 41.79447791977438 ], [ -88.247888397577839, 41.794657582831221 ], [ -88.247978229106252, 41.794657582831213 ], [ -88.247978229106252, 41.794837245888033 ], [ -88.248157892163078, 41.794837245888026 ], [ -88.248157892163078, 41.795106740473265 ], [ -88.248247723691492, 41.795106740473258 ], [ -88.248247723691492, 41.795286403530092 ], [ -88.248427386748318, 41.795286403530092 ], [ -88.248427386748318, 41.796274550342609 ], [ -88.247888397577839, 41.796274550342616 ], [ -88.247888397577839, 41.79636438187103 ], [ -88.247169745350547, 41.796364381871037 ], [ -88.247169745350547, 41.796454213399457 ], [ -88.246990082293721, 41.796454213399443 ], [ -88.246990082293721, 41.796544044927863 ], [ -88.246091767009602, 41.796544044927863 ], [ -88.246091767009602, 41.796633876456269 ], [ -88.246001935481189, 41.796633876456255 ], [ -88.246001935481189, 41.796723707984675 ], [ -88.245912103952776, 41.79672370798469 ], [ -88.245912103952776, 41.797352528683561 ], [ -88.245822272424363, 41.797352528683561 ], [ -88.245822272424363, 41.797532191740387 ], [ -88.24564260936755, 41.797532191740402 ], [ -88.24564260936755, 41.797622023268801 ], [ -88.245552777839137, 41.797622023268794 ], [ -88.245552777839137, 41.797711854797207 ], [ -88.245462946310724, 41.7977118547972 ], [ -88.245462946310724, 41.797981349382454 ] ], [ [ -88.242678168929956, 41.797083034098328 ], [ -88.243127326572008, 41.797083034098328 ], [ -88.243127326572008, 41.796903371041502 ], [ -88.243217158100421, 41.796903371041509 ], [ -88.243217158100421, 41.796633876456262 ], [ -88.243127326572008, 41.796633876456269 ], [ -88.243127326572008, 41.796454213399443 ], [ -88.242947663515181, 41.796454213399457 ], [ -88.242947663515181, 41.796364381871022 ], [ -88.242857831986768, 41.79636438187103 ], [ -88.242857831986768, 41.796274550342616 ], [ -88.242498505873144, 41.796274550342616 ], [ -88.242498505873144, 41.79645421339945 ], [ -88.242408674344716, 41.796454213399443 ], [ -88.242408674344716, 41.796633876456262 ], [ -88.242498505873144, 41.796633876456255 ], [ -88.242498505873144, 41.796993202569922 ], [ -88.242678168929956, 41.796993202569915 ], [ -88.242678168929956, 41.797083034098328 ] ] ] } },
{ "type": "Feature", "properties": { "dw_polygon_id": "dw26_core_002", "site_id": "cyrusone_aurora_iii", "threshold": 0.5, "scene_count": 33, "built_probability_mean": 0.61913009783148443, "built_vote_fraction_mean": 0.88908730158731075, "area_m2": 50028.547520790307, "product": "core", "observation_start": "2026-01-01", "observation_end": "2026-08-31", "dataset": "GOOGLE/DYNAMICWORLD/V1", "nominal_resolution_m": 10, "geometry_confidence": "low", "interpretation": "provisional built surface; not a roof boundary", "known_roof_overlap_m2": 18981.817000850231, "known_roof_overlap_pct": 37.941971017571475, "screening_class": "supports existing roof footprint" }, "geometry": { "type": "Polygon", "coordinates": [ [ [ -88.247349408407374, 41.804089893314455 ], [ -88.247349408407374, 41.804179724842861 ], [ -88.24725957687896, 41.804179724842868 ], [ -88.24725957687896, 41.804269556371288 ], [ -88.247079913822134, 41.804269556371288 ], [ -88.247079913822134, 41.804359387899702 ], [ -88.246900250765307, 41.804359387899702 ], [ -88.246900250765307, 41.804449219428108 ], [ -88.246810419236894, 41.804449219428108 ], [ -88.246810419236894, 41.804539050956528 ], [ -88.246630756180082, 41.804539050956514 ], [ -88.246630756180082, 41.804628882484941 ], [ -88.246451093123255, 41.804628882484941 ], [ -88.246451093123255, 41.804718714013333 ], [ -88.246361261594842, 41.80471871401334 ], [ -88.246361261594842, 41.804539050956521 ], [ -88.246540924651669, 41.804539050956514 ], [ -88.246540924651669, 41.804449219428122 ], [ -88.246361261594842, 41.804449219428122 ], [ -88.246361261594842, 41.804359387899694 ], [ -88.246271430066429, 41.804359387899694 ], [ -88.246271430066429, 41.804269556371288 ], [ -88.246181598538016, 41.804269556371288 ], [ -88.246181598538016, 41.804179724842875 ], [ -88.245822272424363, 41.804179724842868 ], [ -88.245822272424363, 41.804269556371281 ], [ -88.24564260936755, 41.804269556371288 ], [ -88.24564260936755, 41.804359387899694 ], [ -88.245552777839137, 41.804359387899702 ], [ -88.245552777839137, 41.804089893314469 ], [ -88.245462946310724, 41.804089893314455 ], [ -88.245462946310724, 41.803910230257635 ], [ -88.245283283253897, 41.80391023025765 ], [ -88.245283283253897, 41.803640735672403 ], [ -88.245193451725484, 41.803640735672403 ], [ -88.245193451725484, 41.803461072615583 ], [ -88.245013788668658, 41.803461072615576 ], [ -88.245013788668658, 41.803101746501916 ], [ -88.244923957140244, 41.803101746501923 ], [ -88.244923957140244, 41.802562757331458 ], [ -88.245013788668658, 41.802562757331444 ], [ -88.245013788668658, 41.802652588859864 ], [ -88.245193451725484, 41.802652588859871 ], [ -88.245193451725484, 41.802742420388284 ], [ -88.245283283253897, 41.80274242038827 ], [ -88.245283283253897, 41.802652588859871 ], [ -88.245373114782311, 41.802652588859871 ], [ -88.245373114782311, 41.802742420388277 ], [ -88.245462946310724, 41.80274242038827 ], [ -88.245462946310724, 41.802652588859864 ], [ -88.246361261594842, 41.802652588859857 ], [ -88.246361261594842, 41.802562757331465 ], [ -88.246451093123255, 41.802562757331451 ], [ -88.246451093123255, 41.802472925803038 ], [ -88.246630756180082, 41.802472925803059 ], [ -88.246630756180082, 41.802383094274646 ], [ -88.247349408407374, 41.802383094274639 ], [ -88.247349408407374, 41.802293262746218 ], [ -88.247798566049426, 41.802293262746218 ], [ -88.247798566049426, 41.802203431217805 ], [ -88.247888397577839, 41.802203431217805 ], [ -88.247888397577839, 41.802293262746211 ], [ -88.248068060634665, 41.802293262746225 ], [ -88.248068060634665, 41.802472925803045 ], [ -88.248157892163078, 41.802472925803052 ], [ -88.248157892163078, 41.802652588859878 ], [ -88.248247723691492, 41.802652588859864 ], [ -88.248247723691492, 41.802832251916691 ], [ -88.248427386748318, 41.802832251916705 ], [ -88.248427386748318, 41.803191578030344 ], [ -88.248517218276731, 41.803191578030329 ], [ -88.248517218276731, 41.80337124108717 ], [ -88.248427386748318, 41.80337124108717 ], [ -88.248427386748318, 41.803640735672388 ], [ -88.248247723691492, 41.803640735672403 ], [ -88.248247723691492, 41.803730567200823 ], [ -88.247978229106252, 41.803730567200809 ], [ -88.247978229106252, 41.803820398729229 ], [ -88.247798566049426, 41.803820398729222 ], [ -88.247798566049426, 41.803910230257635 ], [ -88.247618902992613, 41.803910230257635 ], [ -88.247618902992613, 41.804000061786049 ], [ -88.2475290714642, 41.804000061786049 ], [ -88.2475290714642, 41.804089893314462 ], [ -88.247349408407374, 41.804089893314455 ] ], [ [ -88.247349408407374, 41.804089893314455 ], [ -88.247349408407374, 41.803910230257642 ], [ -88.247079913822134, 41.803910230257635 ], [ -88.247079913822134, 41.804000061786056 ], [ -88.24725957687896, 41.804000061786049 ], [ -88.24725957687896, 41.804089893314455 ], [ -88.247349408407374, 41.804089893314455 ] ] ] } },
{ "type": "Feature", "properties": { "dw_polygon_id": "dw26_core_003", "site_id": "edged_chicago", "threshold": 0.5, "scene_count": 33, "built_probability_mean": 0.56722033159289442, "built_vote_fraction_mean": 0.88168916580131607, "area_m2": 23896.178554349674, "product": "core", "observation_start": "2026-01-01", "observation_end": "2026-08-31", "dataset": "GOOGLE/DYNAMICWORLD/V1", "nominal_resolution_m": 10, "geometry_confidence": "low", "interpretation": "provisional built surface; not a roof boundary", "known_roof_overlap_m2": 9840.8816071399142, "known_roof_overlap_pct": 41.181821540032971, "screening_class": "supports existing roof footprint" }, "geometry": { "type": "Polygon", "coordinates": [ [ [ -88.240881538361705, 41.807683154450942 ], [ -88.240432380719653, 41.807683154450935 ], [ -88.240432380719653, 41.807593322922529 ], [ -88.240162886134414, 41.807593322922521 ], [ -88.240162886134414, 41.807503491394115 ], [ -88.240073054606, 41.807503491394101 ], [ -88.240073054606, 41.807413659865695 ], [ -88.239983223077587, 41.807413659865709 ], [ -88.239983223077587, 41.807323828337303 ], [ -88.239713728492362, 41.807323828337303 ], [ -88.239713728492362, 41.807233996808876 ], [ -88.239623896963963, 41.807233996808876 ], [ -88.239623896963963, 41.806874670695237 ], [ -88.239713728492362, 41.80687467069523 ], [ -88.239713728492362, 41.806784839166831 ], [ -88.239803560020775, 41.806784839166824 ], [ -88.239803560020775, 41.80660517610999 ], [ -88.239893391549174, 41.80660517610999 ], [ -88.239893391549174, 41.806515344581577 ], [ -88.240252717662827, 41.806515344581584 ], [ -88.240252717662827, 41.806425513053163 ], [ -88.240432380719653, 41.806425513053171 ], [ -88.240432380719653, 41.806335681524757 ], [ -88.240522212248067, 41.806335681524764 ], [ -88.240522212248067, 41.806245849996351 ], [ -88.24061204377648, 41.806245849996344 ], [ -88.24061204377648, 41.806156018467931 ], [ -88.241330696003772, 41.806156018467931 ], [ -88.241330696003772, 41.806245849996337 ], [ -88.241420527532199, 41.806245849996344 ], [ -88.241420527532199, 41.80633568152475 ], [ -88.241240864475358, 41.806335681524764 ], [ -88.241240864475358, 41.806425513053171 ], [ -88.241151032946945, 41.806425513053178 ], [ -88.241151032946945, 41.806695007638403 ], [ -88.241420527532199, 41.806695007638403 ], [ -88.241420527532199, 41.806515344581591 ], [ -88.241510359060598, 41.806515344581591 ], [ -88.241510359060598, 41.806425513053185 ], [ -88.241869685174237, 41.806425513053178 ], [ -88.241869685174237, 41.806515344581584 ], [ -88.242139179759477, 41.806515344581584 ], [ -88.242139179759477, 41.806695007638403 ], [ -88.24222901128789, 41.806695007638403 ], [ -88.24222901128789, 41.806874670695223 ], [ -88.242139179759477, 41.806874670695244 ], [ -88.242139179759477, 41.807054333752056 ], [ -88.24195951670265, 41.807054333752049 ], [ -88.24195951670265, 41.807233996808876 ], [ -88.241600190589011, 41.80723399680889 ], [ -88.241600190589011, 41.807413659865702 ], [ -88.241510359060598, 41.807413659865702 ], [ -88.241510359060598, 41.807503491394108 ], [ -88.241240864475358, 41.807503491394101 ], [ -88.241240864475358, 41.807593322922536 ], [ -88.240881538361705, 41.807593322922521 ], [ -88.240881538361705, 41.807683154450942 ] ] ] } },
{ "type": "Feature", "properties": { "dw_polygon_id": "dw26_core_004", "site_id": "edged_chicago", "threshold": 0.5, "scene_count": 33, "built_probability_mean": 0.51278562788502313, "built_vote_fraction_mean": 0.88888888888888884, "area_m2": 595.5386247566114, "product": "core", "observation_start": "2026-01-01", "observation_end": "2026-08-31", "dataset": "GOOGLE/DYNAMICWORLD/V1", "nominal_resolution_m": 10, "geometry_confidence": "low", "interpretation": "provisional built surface; not a roof boundary", "known_roof_overlap_m2": 0.0, "known_roof_overlap_pct": 0.0, "screening_class": "unmatched built-surface candidate" }, "geometry": { "type": "MultiPolygon", "coordinates": [ [ [ [ -88.242678168929956, 41.807413659865709 ], [ -88.242678168929956, 41.807503491394108 ], [ -88.242498505873144, 41.807503491394108 ], [ -88.242498505873144, 41.807413659865695 ], [ -88.242678168929956, 41.807413659865709 ] ] ], [ [ [ -88.242678168929956, 41.807413659865709 ], [ -88.242678168929956, 41.807323828337296 ], [ -88.242768000458369, 41.807323828337303 ], [ -88.242768000458369, 41.807413659865709 ], [ -88.242678168929956, 41.807413659865709 ] ] ], [ [ [ -88.242498505873144, 41.807503491394108 ], [ -88.242498505873144, 41.807593322922529 ], [ -88.242318842816303, 41.807593322922529 ], [ -88.242318842816303, 41.807683154450935 ], [ -88.24222901128789, 41.807683154450949 ], [ -88.24222901128789, 41.807413659865709 ], [ -88.242318842816303, 41.807413659865709 ], [ -88.242318842816303, 41.807503491394115 ], [ -88.242498505873144, 41.807503491394108 ] ] ] ] } }
]
}
