{
"type": "FeatureCollection",
"name": "mapped_building_footprints",
"crs": { "type": "name", "properties": { "name": "urn:ogc:def:crs:OGC:1.3:CRS84" } },
"features": [
{ "type": "Feature", "properties": { "building_id": "edged_ord01_1", "site_id": "edged_chicago", "building_name": "Edged ORD01-1", "overture_id": "2bb5f41d-b1d2-4ca2-855e-4d93af62a66f", "status_as_of": "operating", "status_date": "2026-09-08", "geometry_source": "Overture building polygon sourced from OpenStreetMap", "geometry_class": "current_mapped_footprint", "geometry_confidence": "high", "source_geometry_update": "2026-02-21", "source_release": "Overture 2026-08-19.0", "roof_footprint_m2": 10789.209086878973, "roof_footprint_sqft": 116134.08007831576, "reported_gross_floor_area_sqft": 207967.0 }, "geometry": { "type": "Polygon", "coordinates": [ [ [ -88.2408941, 41.807598699999986 ], [ -88.2420164, 41.8067996 ], [ -88.2413373, 41.806263 ], [ -88.2401773, 41.8070644 ], [ -88.2408941, 41.807598699999986 ] ] ] } },
{ "type": "Feature", "properties": { "building_id": "cyrus_chi1", "site_id": "cyrusone_aurora_chi1_chi2", "building_name": "CyrusOne CHI1 / Aurora CME", "overture_id": "539ab7e6-603a-406a-b98e-05c2b52a59a0", "status_as_of": "operating", "status_date": "2026-09-08", "geometry_source": "Overture building polygon sourced from OpenStreetMap", "geometry_class": "current_mapped_footprint", "geometry_confidence": "high", "source_geometry_update": "2025-10-13", "source_release": "Overture 2026-08-19.0", "roof_footprint_m2": 44857.707190307097, "roof_footprint_sqft": 482844.34169546113, "reported_gross_floor_area_sqft": 428000.0 }, "geometry": { "type": "Polygon", "coordinates": [ [ [ -88.2436272, 41.796160499999985 ], [ -88.243626600000013, 41.7955519 ], [ -88.2426292, 41.7955524 ], [ -88.2426292, 41.795539499999983 ], [ -88.2423208, 41.7955397 ], [ -88.242321, 41.7956713 ], [ -88.2423407, 41.7956713 ], [ -88.2423426, 41.7974716 ], [ -88.2423251, 41.797471599999987 ], [ -88.2423253, 41.7976049 ], [ -88.2424178, 41.7976049 ], [ -88.2424179, 41.7976542 ], [ -88.242497, 41.797654099999988 ], [ -88.242497, 41.7976604 ], [ -88.2425543, 41.7976603 ], [ -88.2425543, 41.79765350000001 ], [ -88.2426023, 41.7976535 ], [ -88.2426023, 41.797623 ], [ -88.2426022, 41.79761 ], [ -88.2425525, 41.79761 ], [ -88.2425524, 41.7976048 ], [ -88.2426353, 41.7976048 ], [ -88.2426353, 41.79758970000001 ], [ -88.2432202, 41.7975894 ], [ -88.243633, 41.79758910000001 ], [ -88.2436329, 41.7975168 ], [ -88.2437244, 41.7975167 ], [ -88.2437244, 41.7975944 ], [ -88.2437913, 41.7975944 ], [ -88.2437914, 41.7976422 ], [ -88.2440495, 41.797642 ], [ -88.2440495, 41.7976526 ], [ -88.2443574, 41.7976524 ], [ -88.244418, 41.7976524 ], [ -88.244418, 41.7976429 ], [ -88.2447429, 41.7976427 ], [ -88.2447429, 41.797676 ], [ -88.2448016, 41.797676 ], [ -88.2448536, 41.797676 ], [ -88.2448536, 41.7976448 ], [ -88.2452597, 41.7976446 ], [ -88.2452596, 41.7975977 ], [ -88.245293500000017, 41.7975977 ], [ -88.2453256, 41.7975977 ], [ -88.2453255, 41.7975166 ], [ -88.2450856, 41.7975168 ], [ -88.2450856, 41.797506799999987 ], [ -88.2450856, 41.7974449 ], [ -88.245034, 41.7974449 ], [ -88.2450326, 41.796159 ], [ -88.2446914, 41.7961592 ], [ -88.2446914, 41.7961193 ], [ -88.244594, 41.7961194 ], [ -88.2445939, 41.796036899999983 ], [ -88.2437698, 41.7960374 ], [ -88.2437699, 41.7961605 ], [ -88.2436272, 41.796160499999985 ] ] ] } },
{ "type": "Feature", "properties": { "building_id": "cyrus_chi2", "site_id": "cyrusone_aurora_chi1_chi2", "building_name": "CyrusOne CHI2", "overture_id": "8f138e06-fc92-442f-a4a5-7d6968d82dc3", "status_as_of": "operating", "status_date": "2026-09-08", "geometry_source": "Overture building polygon sourced from OpenStreetMap", "geometry_class": "current_mapped_footprint", "geometry_confidence": "high", "source_geometry_update": "2025-12-01", "source_release": "Overture 2026-08-19.0", "roof_footprint_m2": 15715.776015752308, "roof_footprint_sqft": 169163.20516263306, "reported_gross_floor_area_sqft": 316000.0 }, "geometry": { "type": "Polygon", "coordinates": [ [ [ -88.2477189, 41.7959821 ], [ -88.2477836, 41.7959716 ], [ -88.2477081, 41.7957147 ], [ -88.2476416, 41.7957255 ], [ -88.2473338, 41.7946781 ], [ -88.2473148, 41.7946812 ], [ -88.2472959, 41.7946843 ], [ -88.2472644, 41.7945768 ], [ -88.2472516, 41.7945789 ], [ -88.2472457, 41.7945798 ], [ -88.247162, 41.7945935 ], [ -88.2471729, 41.7946306 ], [ -88.2463092, 41.794771699999984 ], [ -88.2462984, 41.794735 ], [ -88.2462119, 41.7947492 ], [ -88.2461532, 41.7947588 ], [ -88.2461846, 41.7948656 ], [ -88.2461714, 41.7948677 ], [ -88.24615, 41.7948712 ], [ -88.246146, 41.7948719 ], [ -88.246452, 41.7959131 ], [ -88.2464004, 41.7959215 ], [ -88.24640260000001, 41.79592920000001 ], [ -88.2464267, 41.7960111 ], [ -88.2464305, 41.796024 ], [ -88.2464736, 41.7960169 ], [ -88.2465207, 41.7961771 ], [ -88.246876, 41.7961188 ], [ -88.2469938, 41.7961001 ], [ -88.246974, 41.7960311 ], [ -88.2469582, 41.7959782 ], [ -88.2470863, 41.795957199999989 ], [ -88.2471012, 41.7959548 ], [ -88.2470904, 41.795918 ], [ -88.247197900000018, 41.7959005 ], [ -88.2472447, 41.7960596 ], [ -88.2477189, 41.7959821 ] ] ] } },
{ "type": "Feature", "properties": { "building_id": "cyrus_chi3", "site_id": "cyrusone_aurora_iii", "building_name": "CyrusOne CHI3 building 1", "overture_id": "e1769c58-a74b-4991-bc03-5ce1ffd3c73e", "status_as_of": "substantially_complete", "status_date": "2026-09-08", "geometry_source": "Overture building polygon sourced from OpenStreetMap", "geometry_class": "current_mapped_footprint", "geometry_confidence": "high", "source_geometry_update": "2026-02-21", "source_release": "Overture 2026-08-19.0", "roof_footprint_m2": 19765.546067607949, "roof_footprint_sqft": 212754.56720908108, "reported_gross_floor_area_sqft": 223000.0 }, "geometry": { "type": "Polygon", "coordinates": [ [ [ -88.2453652, 41.8029356 ], [ -88.245668, 41.8035608 ], [ -88.2465188, 41.8033364 ], [ -88.2465136, 41.803309 ], [ -88.2467073, 41.8032622 ], [ -88.2467492, 41.803352 ], [ -88.2481394, 41.8029948 ], [ -88.2477519, 41.8021615 ], [ -88.2465188, 41.8024991 ], [ -88.2465555, 41.8025655 ], [ -88.2461994, 41.8026592 ], [ -88.2461445, 41.8025479 ], [ -88.2455135, 41.8027021 ], [ -88.2455423, 41.8027821 ], [ -88.245503, 41.802788 ], [ -88.2455528, 41.8028875 ], [ -88.2453652, 41.8029356 ] ] ] } }
]
}
