{
"type": "FeatureCollection",
"name": "sites",
"crs": { "type": "name", "properties": { "name": "urn:ogc:def:crs:OGC:1.3:CRS84" } },
"features": [
{ "type": "Feature", "properties": { "site_id": "edged_chicago", "campus_name": "Edged Chicago Campus", "operator": "Edged Energy", "address": "2815–2845 Bilter Road, Aurora, IL 60502", "status_as_of": "Operating plus active construction", "first_construction_start": "2023-05-22", "first_operational_date": "2025-02-27", "predevelopment_land_use": "agricultural", "predevelopment_summary": "Row-crop agriculture; Dynamic World classified 95.4% crops in 2022.", "land_use_confidence": "high", "campus_area_m2": 263514.51786667574, "campus_area_acres": 65.11585545958107, "current_roof_footprint_m2": 34513.683754042497, "current_roof_footprint_acres": 8.5285169898797779, "mapped_roof_footprint_m2": 10789.209086878973, "approved_plan_active_roof_m2": 23724.474667163526, "current_roof_metric_status": "provisional total: mapped ORD01-1 plus plan-dimension ORD01-2", "disturbed_area_estimate_m2": 213330.5135029513, "disturbed_area_estimate_acres": 52.715117917733046, "disturbed_area_lower_acres": 52.715117917733046, "disturbed_area_upper_acres": 65.11585545958107, "disturbance_method": "2026 Dynamic World built+bare lower bound; parcel union upper bound", "disturbance_confidence": "medium" }, "geometry": { "type": "Polygon", "coordinates": [ [ [ -88.23979498795407, 41.803444094794713 ], [ -88.239851024931937, 41.803196148856763 ], [ -88.239904053817384, 41.802945285968839 ], [ -88.239931194867467, 41.802874653184823 ], [ -88.239958593147165, 41.802803342631471 ], [ -88.240211249147933, 41.802145779729081 ], [ -88.240331155700119, 41.801539841702535 ], [ -88.240332676959682, 41.801532142152773 ], [ -88.241695692814019, 41.801452839822076 ], [ -88.24265595567131, 41.801396962828854 ], [ -88.242671611015155, 41.801403365942228 ], [ -88.242672321780432, 41.801403633009805 ], [ -88.242706698332256, 41.801416522681066 ], [ -88.242730069400082, 41.801426168668229 ], [ -88.242753216236636, 41.801436117895257 ], [ -88.242776124404017, 41.801446369450531 ], [ -88.242798790301407, 41.801456917028787 ], [ -88.242821210321708, 41.801467758826654 ], [ -88.242843368824936, 41.801478893031252 ], [ -88.242865267023362, 41.801490313341091 ], [ -88.242886896496699, 41.801502017949055 ], [ -88.242908247620036, 41.801514005947283 ], [ -88.242929315594296, 41.801526267428216 ], [ -88.242950096808499, 41.801538803289553 ], [ -88.242970581640179, 41.801551610822763 ], [ -88.242990764085661, 41.801564681019705 ], [ -88.243010638127274, 41.801578014776148 ], [ -88.243030197761328, 41.801591603083928 ], [ -88.243049440579938, 41.801605446841648 ], [ -88.243068353354573, 41.801619540636977 ], [ -88.243086938501975, 41.801633877269055 ], [ -88.243105182787161, 41.801648455827255 ], [ -88.243123086218944, 41.801663270009271 ], [ -88.243140640378073, 41.80167831710753 ], [ -88.24315784166599, 41.801693589016161 ], [ -88.243174684071164, 41.801709082129122 ], [ -88.243191162781699, 41.801724795542484 ], [ -88.24320727419763, 41.801740722050653 ], [ -88.243223007499367, 41.801756854442424 ], [ -88.243238367499927, 41.801773192721733 ], [ -88.243253340979379, 41.801789725173656 ], [ -88.243267925530958, 41.801806451796509 ], [ -88.243282117550919, 41.801823368085714 ], [ -88.243295913438047, 41.801840467736191 ], [ -88.243309309593556, 41.801857742641936 ], [ -88.243322301207897, 41.801875190098279 ], [ -88.243334882271895, 41.801892804698454 ], [ -88.243347052792899, 41.801910581040467 ], [ -88.243358804356376, 41.801928512815294 ], [ -88.243370138166668, 41.801946599123696 ], [ -88.243381049429175, 41.80196482645664 ], [ -88.244233577742662, 41.803436025559513 ], [ -88.244254978484321, 41.803728206259002 ], [ -88.24448547178568, 41.804125954874067 ], [ -88.244495916884944, 41.804134565890443 ], [ -88.244745793503853, 41.804340620729384 ], [ -88.245171888425602, 41.805075877990198 ], [ -88.245056928320082, 41.805510747169521 ], [ -88.244999639400888, 41.805727464714074 ], [ -88.243265091284741, 41.807028357342801 ], [ -88.242837542143647, 41.807335377914974 ], [ -88.242756290448852, 41.807391456687171 ], [ -88.242700394723471, 41.807428394861709 ], [ -88.242643639542024, 41.807464596736715 ], [ -88.242586050191548, 41.807500051526603 ], [ -88.242527644735176, 41.807534751141176 ], [ -88.242468435227977, 41.807568681182993 ], [ -88.24240844695619, 41.807601831766902 ], [ -88.242347691963786, 41.807634196598698 ], [ -88.24228619072872, 41.807665762188023 ], [ -88.242223963721528, 41.807696520446683 ], [ -88.242161030214547, 41.80772645968414 ], [ -88.242097404659006, 41.807755573608226 ], [ -88.242033112343179, 41.807783851433605 ], [ -88.241968167718497, 41.807811286868109 ], [ -88.241902594871533, 41.807837868225164 ], [ -88.241836413066153, 41.807863590116874 ], [ -88.24176963796144, 41.807888443551143 ], [ -88.241702293636493, 41.807912422243568 ], [ -88.24163440176504, 41.807935519007621 ], [ -88.241565980415785, 41.807957723052468 ], [ -88.241497051254939, 41.807979032593757 ], [ -88.241427637162474, 41.807999438645304 ], [ -88.241357756203641, 41.808018933117523 ], [ -88.241287432452935, 41.808037513327719 ], [ -88.241216685179154, 41.808055171187291 ], [ -88.241145534848101, 41.808071903110502 ], [ -88.241074007942686, 41.808087705516463 ], [ -88.241002122531157, 41.808102568514961 ], [ -88.240929901481181, 41.808116492123801 ], [ -88.240857362852012, 41.808129472755432 ], [ -88.240784535544051, 41.808141499628213 ], [ -88.2407114424187, 41.8081525772619 ], [ -88.240638096729583, 41.808162696663025 ], [ -88.240564529768506, 41.808171857856401 ], [ -88.240490757189505, 41.808180056352477 ], [ -88.24041680306668, 41.808187290369574 ], [ -88.240342697489837, 41.808193559031388 ], [ -88.240268448923942, 41.808198836234027 ], [ -88.240221943430157, 41.807790501837644 ], [ -88.239389606271331, 41.807083506697992 ], [ -88.239192519163282, 41.806916097295257 ], [ -88.238698071186278, 41.806805462733834 ], [ -88.238923258992756, 41.806242013086795 ], [ -88.2390464209318, 41.805930937376047 ], [ -88.239165039340577, 41.805615503652639 ], [ -88.239167094744531, 41.805609711523338 ], [ -88.239210536076669, 41.805487282908764 ], [ -88.239227864962615, 41.805438439989928 ], [ -88.239229692493396, 41.805432939389185 ], [ -88.239361628702383, 41.805036191353508 ], [ -88.23948598546869, 41.804632254776934 ], [ -88.239579364108593, 41.804302762421408 ], [ -88.239600460060984, 41.804228315376378 ], [ -88.23968502510975, 41.803887536911546 ], [ -88.239699543114298, 41.803828988437672 ], [ -88.23979498795407, 41.803444094794713 ] ] ] } },
{ "type": "Feature", "properties": { "site_id": "cyrusone_aurora_chi1_chi2", "campus_name": "CyrusOne Aurora CHI1–CHI2 Campus", "operator": "CyrusOne", "address": "2705–2905 Diehl Road, Aurora, IL 60502", "status_as_of": "Operating", "first_construction_start": "2006/2007", "first_operational_date": "2009 (reported year built)", "predevelopment_land_use": "mixed agricultural / previously developed / forested", "predevelopment_summary": "CHI1 footprint was mostly pasture/cropland in 2006 with some developed land; CHI2 was a wooded/open/developed mix before its 2016 start.", "land_use_confidence": "medium", "campus_area_m2": 167955.98557893923, "campus_area_acres": 41.502827886177499, "current_roof_footprint_m2": 60573.483206059405, "current_roof_footprint_acres": 14.968033674428243, "mapped_roof_footprint_m2": 60573.483206059405, "approved_plan_active_roof_m2": 0.0, "current_roof_metric_status": "mapped Overture/OSM total", "disturbed_area_estimate_m2": 165078.94332736099, "disturbed_area_estimate_acres": 40.791895263104102, "disturbed_area_lower_acres": 32.0, "disturbed_area_upper_acres": 41.502827886177499, "disturbance_method": "2023 Dynamic World built proxy; documentary 32-acre core lower bound and parcel upper bound", "disturbance_confidence": "low-medium" }, "geometry": { "type": "Polygon", "coordinates": [ [ [ -88.242187179515398, 41.797971652704952 ], [ -88.242196617392992, 41.797867327279221 ], [ -88.242209512095371, 41.797724770768696 ], [ -88.24185241362261, 41.797494212464883 ], [ -88.24185086277123, 41.795230030004973 ], [ -88.243049277886286, 41.795031991022313 ], [ -88.244601262079996, 41.794760212462144 ], [ -88.248432580744449, 41.794144230858734 ], [ -88.248433228693926, 41.795617055007838 ], [ -88.248433507701122, 41.796248044525328 ], [ -88.246552868435032, 41.79659094819192 ], [ -88.247768144307699, 41.797786601855549 ], [ -88.247771463252221, 41.797789867235281 ], [ -88.247847198244799, 41.797864379858652 ], [ -88.247644882152187, 41.797893867210874 ], [ -88.247441509313191, 41.797918948851226 ], [ -88.247315745654532, 41.79779526852171 ], [ -88.24610542556367, 41.796604943075792 ], [ -88.245959473325129, 41.796688050734943 ], [ -88.245938837611121, 41.79748400996499 ], [ -88.245541937010628, 41.797626389336138 ], [ -88.245468346522813, 41.797817147456286 ], [ -88.245407590112848, 41.797974640710919 ], [ -88.242187179515398, 41.797971652704952 ] ] ] } },
{ "type": "Feature", "properties": { "site_id": "cyrusone_aurora_iii", "campus_name": "CyrusOne Aurora III / CHI3 Campus", "operator": "CyrusOne", "address": "2725 Bilter Road, Aurora, IL 60502", "status_as_of": "First building substantially complete; second building planned", "first_construction_start": "2024-09-13", "first_operational_date": null, "predevelopment_land_use": "agricultural", "predevelopment_summary": "Row-crop agriculture; Dynamic World classified 98.7% crops in 2023.", "land_use_confidence": "high", "campus_area_m2": 130125.65376813291, "campus_area_acres": 32.154749313038764, "current_roof_footprint_m2": 19765.546067607949, "current_roof_footprint_acres": 4.8841728009430918, "mapped_roof_footprint_m2": 19765.546067607949, "approved_plan_active_roof_m2": 0.0, "current_roof_metric_status": "mapped Overture/OSM total; later site work may be omitted", "disturbed_area_estimate_m2": 118023.25933562638, "disturbed_area_estimate_acres": 29.16418252012814, "disturbed_area_lower_acres": 29.16418252012814, "disturbed_area_upper_acres": 32.154749313038764, "disturbance_method": "2025 Dynamic World built+bare lower bound; parcel boundary upper bound", "disturbance_confidence": "medium" }, "geometry": { "type": "Polygon", "coordinates": [ [ [ -88.245803514606962, 41.804936201084864 ], [ -88.244446175511868, 41.80262849256858 ], [ -88.244436823348067, 41.802610246737423 ], [ -88.244427899733466, 41.802591880588828 ], [ -88.244419401046613, 41.802573402223373 ], [ -88.244411339316471, 41.802554814351524 ], [ -88.244403710921645, 41.802536125073779 ], [ -88.244396518259634, 41.802517340694664 ], [ -88.244389767345396, 41.802498462119217 ], [ -88.244383455757031, 41.802479500150007 ], [ -88.24437758830237, 41.802460458392225 ], [ -88.244372163774031, 41.8024413395461 ], [ -88.244367188170713, 41.802422156221418 ], [ -88.244362659080451, 41.802402912017747 ], [ -88.244358581313548, 41.802383608739675 ], [ -88.244354956056739, 41.802364258092759 ], [ -88.244351777294355, 41.802344859172038 ], [ -88.244349057041575, 41.802325424591942 ], [ -88.244346788073187, 41.802305957948285 ], [ -88.244344973992469, 41.802286463745745 ], [ -88.244343613588256, 41.80226694738554 ], [ -88.24434270925299, 41.802247418773504 ], [ -88.244342259781732, 41.802227878809063 ], [ -88.244342268771547, 41.802208336498616 ], [ -88.244342731401247, 41.802188797240589 ], [ -88.244343650069638, 41.802169266439016 ], [ -88.244345023560513, 41.802149753096494 ], [ -88.244346854277552, 41.802130259015684 ], [ -88.244349137394721, 41.802110793196334 ], [ -88.244351874108673, 41.802091360141169 ], [ -88.244355066821839, 41.802071962553136 ], [ -88.244358705890008, 41.802052613029723 ], [ -88.244362799734617, 41.802033312477796 ], [ -88.244367341126804, 41.802014067194214 ], [ -88.244372333663563, 41.801994886185334 ], [ -88.244377770119783, 41.801975773046927 ], [ -88.244383654098741, 41.801956732283521 ], [ -88.244389977163323, 41.801937773792496 ], [ -88.244396745328345, 41.801918898478753 ], [ -88.244403952563303, 41.801900116241576 ], [ -88.244411595256707, 41.801881427978394 ], [ -88.24441967219002, 41.801862844492497 ], [ -88.24442818094883, 41.801844371184146 ], [ -88.244431314798845, 41.801837935133406 ], [ -88.244437121529032, 41.801826010754262 ], [ -88.244446489110999, 41.801807767700843 ], [ -88.244456276464661, 41.801789649221092 ], [ -88.244466490794551, 41.801771666124786 ], [ -88.244477118870421, 41.801753813899708 ], [ -88.244488164284391, 41.801736105153672 ], [ -88.244499616199178, 41.801718545280295 ], [ -88.244511479428908, 41.801701133382828 ], [ -88.244523750343561, 41.801683883864108 ], [ -88.244536591386975, 41.801666796849496 ], [ -88.244536643222872, 41.801666728462216 ], [ -88.244549481530953, 41.801649874637285 ], [ -88.244562939381737, 41.801633125731477 ], [ -88.244576785641627, 41.801616555395434 ], [ -88.244591016693064, 41.801600169028397 ], [ -88.244605625308751, 41.801583972026805 ], [ -88.244620610280265, 41.801567967991097 ], [ -88.244635966788053, 41.801552161419103 ], [ -88.244651693620071, 41.801536558612327 ], [ -88.24466777512977, 41.801521162259569 ], [ -88.244684219730033, 41.801505979570109 ], [ -88.244701011776868, 41.801491011432056 ], [ -88.244718148848762, 41.801476268647747 ], [ -88.24473563094935, 41.801461748515919 ], [ -88.244753449641962, 41.801447460933836 ], [ -88.244771594094473, 41.801433407693821 ], [ -88.244790069113904, 41.801419593301119 ], [ -88.244808859052512, 41.801406021345038 ], [ -88.244827966308264, 41.80139269812971 ], [ -88.244847378845805, 41.801379625446529 ], [ -88.244867091840959, 41.801366811394793 ], [ -88.244887105298702, 41.801354252372931 ], [ -88.244907407170189, 41.801341960076229 ], [ -88.244927991440335, 41.801329933599497 ], [ -88.244948850884569, 41.801318176538508 ], [ -88.244969985495587, 41.801306694295214 ], [ -88.244991383237021, 41.801295489561376 ], [ -88.245013040492935, 41.801284566835839 ], [ -88.245020366418387, 41.801280816164564 ], [ -88.245020549438408, 41.801280728069948 ], [ -88.245038924670226, 41.801272040211785 ], [ -88.246718651860817, 41.801174224377327 ], [ -88.246747599058835, 41.801172540015806 ], [ -88.247851180285991, 41.8011768598885 ], [ -88.249342228254932, 41.801089682968794 ], [ -88.249342257014874, 41.801089773926215 ], [ -88.249600703975773, 41.802810394313276 ], [ -88.250818036118204, 41.801955576453558 ], [ -88.250862738023415, 41.801886550923527 ], [ -88.251000893342336, 41.801789531762168 ], [ -88.251002277690176, 41.801789093378495 ], [ -88.251104856780145, 41.801890126943384 ], [ -88.251089634621181, 41.801899913766754 ], [ -88.24865506682869, 41.803593701365251 ], [ -88.248615376085624, 41.8036002636373 ], [ -88.248575843488837, 41.803607345519985 ], [ -88.24853648228347, 41.803614939820385 ], [ -88.248497306907382, 41.803623047449733 ], [ -88.248458322175367, 41.803631666610983 ], [ -88.248419549752398, 41.803640792818548 ], [ -88.248380993250024, 41.803650424274643 ], [ -88.2483426659076, 41.803660558288179 ], [ -88.248304580969204, 41.803671188566646 ], [ -88.248266751669547, 41.803682316020456 ], [ -88.248229185231367, 41.803693937954122 ], [ -88.248191898512474, 41.803706045376806 ], [ -88.248154898730945, 41.8037186391945 ], [ -88.248118200330822, 41.803731715816681 ], [ -88.248081809337663, 41.803745268045311 ], [ -88.248045740191955, 41.803759294990996 ], [ -88.248010004937157, 41.803773788559774 ], [ -88.24797461320297, 41.803788746057982 ], [ -88.247939577025662, 41.803804164793853 ], [ -88.24790490242863, 41.803820039369946 ], [ -88.247870605061863, 41.803836364396183 ], [ -88.247836693355424, 41.803853134476917 ], [ -88.247803180553859, 41.803870343319893 ], [ -88.247770069068338, 41.803887987325737 ], [ -88.247737380562043, 41.80390606380994 ], [ -88.247705112643587, 41.803924561066331 ], [ -88.247673284567199, 41.803943478209305 ], [ -88.247641902358907, 41.803962808040787 ], [ -88.247610975649991, 41.803982546966921 ], [ -88.247580512879196, 41.804002683289703 ], [ -88.247550523674249, 41.804023216116285 ], [ -88.247508282155977, 41.80405362123178 ], [ -88.246435819561654, 41.804695577380123 ], [ -88.246147903670405, 41.804885122657026 ], [ -88.245803514606962, 41.804936201084864 ] ] ] } }
]
}
