{
"type": "FeatureCollection",
"name": "screening_envelopes",
"crs": { "type": "name", "properties": { "name": "urn:ogc:def:crs:OGC:1.3:CRS84" } },
"features": [
{ "type": "Feature", "properties": { "analysis_unit_id": "aligned_northlake_ord01_ord02", "taxonomy_group_id": "large_purpose_built_data_center", "screening_geometry_basis": "reference_building_union_buffer", "buffer_m": 120, "screening_geometry_confidence": "low", "screening_area_m2": 179857.1, "overlap_with_other_screening_masks_m2": 0.0, "neighbor_contamination_flag": false }, "geometry": { "type": "Polygon", "coordinates": [ [ [ -87.920469546070706, 41.914266574810554 ], [ -87.920460454319866, 41.914371835114736 ], [ -87.920437667998925, 41.914475932092692 ], [ -87.920401404096367, 41.914577874152585 ], [ -87.920352007987702, 41.914676690224972 ], [ -87.920289950147904, 41.914771439013201 ], [ -87.920215821671803, 41.914861217960386 ], [ -87.920130328645143, 41.914945171847585 ], [ -87.920034285419931, 41.915022500941085 ], [ -87.91992860685798, 41.915092468611185 ], [ -87.919814299616476, 41.915154408350077 ], [ -87.91969245255882, 41.915207730121587 ], [ -87.919564226381695, 41.915251925982503 ], [ -87.919430842557617, 41.915286574922014 ], [ -87.919293571697921, 41.915311346872649 ], [ -87.9191537214476, 41.915326005855093 ], [ -87.91901262402682, 41.915330412226439 ], [ -87.918472552451462, 41.915327573990851 ], [ -87.918413066761516, 41.915349051857618 ], [ -87.918275590610094, 41.915386432342338 ], [ -87.918133763245763, 41.915413252548845 ], [ -87.917989034697541, 41.915429238268537 ], [ -87.917842884660516, 41.915434226063596 ], [ -87.916131155776654, 41.915427926245734 ], [ -87.915985751577594, 41.915421916349615 ], [ -87.915841892644039, 41.915405020260366 ], [ -87.915701036222345, 41.91537740912954 ], [ -87.915564609139949, 41.915339362648496 ], [ -87.915433993350291, 41.915291266214922 ], [ -87.915310511932248, 41.915233607028334 ], [ -87.915195415686739, 41.915166969154249 ], [ -87.915089870465607, 41.915092027607152 ], [ -87.914995699489481, 41.915010196819729 ], [ -87.914973802599235, 41.914995167634736 ], [ -87.914880574282677, 41.914917526679417 ], [ -87.914797799790023, 41.914833535279833 ], [ -87.914726249937829, 41.914743975626934 ], [ -87.91466659100179, 41.914649681764132 ], [ -87.914619378513194, 41.914551531819583 ], [ -87.914585052087034, 41.91445043982786 ], [ -87.914563931330008, 41.914347347217515 ], [ -87.914556212866344, 41.914243214043488 ], [ -87.914550726018547, 41.913660813844459 ], [ -87.914556784524464, 41.913554121171927 ], [ -87.914576910431606, 41.913448395944691 ], [ -87.914610907172062, 41.913344670408826 ], [ -87.914658442754401, 41.913243957281523 ], [ -87.914719053007659, 41.913147239863825 ], [ -87.914792146115317, 41.913055462440731 ], [ -87.914877008395393, 41.912969521062443 ], [ -87.914972811269863, 41.912890254796586 ], [ -87.915052852820182, 41.912835926601495 ], [ -87.915052317202679, 41.912682120258935 ], [ -87.915058915961453, 41.912576171964353 ], [ -87.91507938644888, 41.912471217009369 ], [ -87.915113531441463, 41.912368266238786 ], [ -87.915161022017571, 41.912268311189919 ], [ -87.915221400727702, 41.912172314543099 ], [ -87.915294086002376, 41.912081200850594 ], [ -87.915378377755161, 41.911995847632568 ], [ -87.915473464126677, 41.911917076926386 ], [ -87.915578429304645, 41.911845647370143 ], [ -87.915692262344649, 41.911782246897104 ], [ -87.915813866906646, 41.911727486110941 ], [ -87.915942071813419, 41.911681892405689 ], [ -87.916075642329261, 41.911645904887322 ], [ -87.9162132920505, 41.91161987014523 ], [ -87.916353695293139, 41.911604038914788 ], [ -87.916495499858627, 41.911598563662999 ], [ -87.918320069078447, 41.911595064027665 ], [ -87.918461889460048, 41.911599993803826 ], [ -87.918602380298566, 41.911615281892296 ], [ -87.918740188933143, 41.91164078109712 ], [ -87.918873988523856, 41.911676245908431 ], [ -87.919002490824838, 41.911721334866023 ], [ -87.919124458586239, 41.911775613846473 ], [ -87.919238717465461, 41.911838560242352 ], [ -87.919251009612239, 41.911846837531989 ], [ -87.919357606155387, 41.911884240357821 ], [ -87.919479592147525, 41.911938529587957 ], [ -87.919593866498502, 41.912001488820508 ], [ -87.919699328582311, 41.912072511680122 ], [ -87.919794962636132, 41.912150914126777 ], [ -87.919879847543527, 41.912235941043193 ], [ -87.919953165706445, 41.912326773506926 ], [ -87.920014210920769, 41.912422536676964 ], [ -87.920062395179386, 41.912522308218882 ], [ -87.920097254337321, 41.912625127187809 ], [ -87.920118452584205, 41.912730003283087 ], [ -87.920125785680966, 41.912835926386066 ], [ -87.92012619206352, 41.912953813362371 ], [ -87.920163067099011, 41.912984822511639 ], [ -87.920247047918352, 41.913071335267361 ], [ -87.920319180058527, 41.913163619922962 ], [ -87.920378758262132, 41.913260774250197 ], [ -87.920425199997936, 41.913361848407909 ], [ -87.920458051157965, 41.913465854227958 ], [ -87.920476990499438, 41.913571774875429 ], [ -87.920481832787871, 41.913678574789799 ], [ -87.920469546070706, 41.914266574810554 ] ] ] } },
{ "type": "Feature", "properties": { "analysis_unit_id": "aurora_cyrusone_chi1_chi2", "taxonomy_group_id": "large_purpose_built_data_center", "screening_geometry_basis": "reviewed_aurora_campus_boundary", "buffer_m": 0, "screening_geometry_confidence": "high", "screening_area_m2": 167956.0, "overlap_with_other_screening_masks_m2": 0.0, "neighbor_contamination_flag": false }, "geometry": { "type": "Polygon", "coordinates": [ [ [ -88.242187179515398, 41.797971652704952 ], [ -88.242196617392992, 41.797867327279214 ], [ -88.242209512095371, 41.797724770768696 ], [ -88.24185241362261, 41.797494212464883 ], [ -88.24185086277123, 41.795230030004973 ], [ -88.243049277886286, 41.795031991022313 ], [ -88.244601262079996, 41.794760212462144 ], [ -88.248432580744449, 41.794144230858734 ], [ -88.248433228693926, 41.795617055007838 ], [ -88.248433507701122, 41.796248044525328 ], [ -88.246552868435032, 41.796590948191913 ], [ -88.247768144307699, 41.797786601855549 ], [ -88.247771463252221, 41.797789867235281 ], [ -88.247847198244799, 41.797864379858652 ], [ -88.247644882152187, 41.797893867210874 ], [ -88.247441509313191, 41.797918948851226 ], [ -88.247315745654532, 41.79779526852171 ], [ -88.24610542556367, 41.796604943075785 ], [ -88.245959473325129, 41.796688050734943 ], [ -88.245938837611121, 41.79748400996499 ], [ -88.245541937010628, 41.797626389336138 ], [ -88.245468346522813, 41.797817147456286 ], [ -88.245407590112848, 41.797974640710919 ], [ -88.242187179515398, 41.797971652704952 ] ] ] } },
{ "type": "Feature", "properties": { "analysis_unit_id": "edgeconnex_elk_grove_chi01_chi02", "taxonomy_group_id": "industrial_park_warehouse_style_colo", "screening_geometry_basis": "reference_building_union_buffer", "buffer_m": 120, "screening_geometry_confidence": "low", "screening_area_m2": 161793.3, "overlap_with_other_screening_masks_m2": 82462.1, "neighbor_contamination_flag": true }, "geometry": { "type": "Polygon", "coordinates": [ [ [ -87.953117932812233, 41.999903181814069 ], [ -87.953120901234016, 41.999903476304006 ], [ -87.953259014697153, 41.999927616569828 ], [ -87.95339330146976, 41.999961715417378 ], [ -87.953522474333681, 42.000005445989949 ], [ -87.953645295083675, 42.000058389104836 ], [ -87.953760586394978, 42.000120037270896 ], [ -87.95386724310795, 42.000189799552508 ], [ -87.953964242821073, 42.000267007233369 ], [ -87.954050655691489, 42.000350920225927 ], [ -87.954125653348513, 42.000440734164805 ], [ -87.954188516835046, 42.000535588116513 ], [ -87.954238643500616, 42.000634572831551 ], [ -87.954275552780032, 42.00073673945959 ], [ -87.954298890801923, 42.000841108644558 ], [ -87.954308433783297, 42.000946679912204 ], [ -87.954334257574217, 42.001996279345249 ], [ -87.954329877838305, 42.002102377888868 ], [ -87.954311564640165, 42.002207644166859 ], [ -87.954279494585734, 42.002311062635876 ], [ -87.954233977002318, 42.002411635574227 ], [ -87.954175450956853, 42.002508392707639 ], [ -87.954104481022156, 42.002600400570351 ], [ -87.954021751832244, 42.002686771511264 ], [ -87.953928061478678, 42.002766672258296 ], [ -87.953824313812106, 42.00283933195805 ], [ -87.953711509722879, 42.002904049613562 ], [ -87.953590737485086, 42.002960200847951 ], [ -87.953463162256853, 42.003007243929005 ], [ -87.953330014838627, 42.003044724996265 ], [ -87.953192579797658, 42.003072282440421 ], [ -87.953052183073382, 42.00308965039256 ], [ -87.95291017918332, 42.003096661289497 ], [ -87.952293668758543, 42.00310446152718 ], [ -87.952151936469548, 42.003101077816567 ], [ -87.95201132646288, 42.003087376372925 ], [ -87.951873185613636, 42.00306348843899 ], [ -87.951738837141988, 42.00302964283167 ], [ -87.951609567936572, 42.002986163750052 ], [ -87.951486616226134, 42.002933467669436 ], [ -87.951371159717652, 42.002872059351617 ], [ -87.951264304314449, 42.00280252700918 ], [ -87.951167073522697, 42.002725536670567 ], [ -87.951080398647406, 42.002641825799678 ], [ -87.951005109872412, 42.002552196231193 ], [ -87.950941928308978, 42.002457506489442 ], [ -87.95089145909013, 42.002358663564273 ], [ -87.950854185575835, 42.002256614222823 ], [ -87.950830464725257, 42.002152335940394 ], [ -87.950827473663551, 42.002120590612755 ], [ -87.949667266593707, 42.002140530933183 ], [ -87.949525154011496, 42.00213776931659 ], [ -87.949384088347998, 42.002124633070927 ], [ -87.949245427674683, 42.002101248661191 ], [ -87.949110506906308, 42.002067841213595 ], [ -87.948980624947666, 42.002024732348076 ], [ -87.948857032187192, 42.001972337081455 ], [ -87.948740918457943, 42.001911159831558 ], [ -87.948633401582043, 42.00184178956038 ], [ -87.948535516608672, 42.001764894103502 ], [ -87.948448205849587, 42.001681213739914 ], [ -87.948372309807723, 42.001591554064667 ], [ -87.948308559086584, 42.001496778232521 ], [ -87.948257567357942, 42.001397798647815 ], [ -87.948219825455809, 42.001295568180076 ], [ -87.948195696653144, 42.001191070990338 ], [ -87.948185413167124, 42.001085313056343 ], [ -87.948168825183728, 42.000554912726265 ], [ -87.948172489362946, 42.000448878258595 ], [ -87.94819007123445, 42.00034362242485 ], [ -87.948221401366212, 42.000240159140041 ], [ -87.948266177894766, 42.000139485047065 ], [ -87.948323969435449, 42.000042569916339 ], [ -87.948394219240143, 41.999950347304718 ], [ -87.948476250562081, 41.999863705563357 ], [ -87.948569273176318, 41.999783479281092 ], [ -87.948672390992883, 41.999710441245796 ], [ -87.948784610689088, 41.999645295001258 ], [ -87.948904851278044, 41.999588668070871 ], [ -87.949031954521118, 41.99954110591375 ], [ -87.94916469608404, 41.99950306667133 ], [ -87.949301797329184, 41.999474916754785 ], [ -87.949441937630709, 41.999456927316253 ], [ -87.949583767093728, 41.999449271637282 ], [ -87.951869828461909, 41.999409772694491 ], [ -87.952011961842942, 41.999412520618669 ], [ -87.952153049785238, 41.999425646780388 ], [ -87.952291733632208, 41.999449024775913 ], [ -87.952426677875152, 41.999482429477702 ], [ -87.952556583012083, 41.999525539202061 ], [ -87.952680198060321, 41.999577938806453 ], [ -87.952796332602034, 41.999639123686805 ], [ -87.952903868246935, 41.999708504636139 ], [ -87.953001769401865, 41.999785413518012 ], [ -87.953089093243463, 41.999869109699787 ], [ -87.953117932812233, 41.999903181814069 ] ] ] } },
{ "type": "Feature", "properties": { "analysis_unit_id": "element_critical_wood_dale_ch1_ch2", "taxonomy_group_id": "industrial_park_warehouse_style_colo", "screening_geometry_basis": "reference_building_union_buffer", "buffer_m": 120, "screening_geometry_confidence": "low", "screening_area_m2": 170061.5, "overlap_with_other_screening_masks_m2": 0.0, "neighbor_contamination_flag": false }, "geometry": { "type": "Polygon", "coordinates": [ [ [ -87.966823906225954, 41.975602595851697 ], [ -87.966683210294264, 41.975599078138302 ], [ -87.96658440002976, 41.975589383592258 ], [ -87.966584758342009, 41.975624475046317 ], [ -87.966578803778177, 41.975730951988751 ], [ -87.966566213401734, 41.975797448196865 ], [ -87.966581611876762, 41.976195853311957 ], [ -87.966578550198122, 41.976303829879704 ], [ -87.966561060998771, 41.976411039248561 ], [ -87.966529318869235, 41.976516410731257 ], [ -87.966510217790727, 41.976559265041764 ], [ -87.966494663028882, 41.976606283192197 ], [ -87.966448074701859, 41.976704924499373 ], [ -87.966388926142898, 41.976799743517432 ], [ -87.966317771271534, 41.976889852189281 ], [ -87.966235276464261, 41.976974406570271 ], [ -87.966142214314814, 41.977052614733211 ], [ -87.966039456399116, 41.977123744185945 ], [ -87.965927965112755, 41.977187128732631 ], [ -87.965808784657412, 41.977242174713957 ], [ -87.965683031260625, 41.977288366568011 ], [ -87.96555188272059, 41.977325271659602 ], [ -87.965416567373822, 41.977352544333066 ], [ -87.965278352589209, 41.977369929149951 ], [ -87.965138532896191, 41.97737726328203 ], [ -87.964282918447424, 41.977391163665061 ], [ -87.964139706449586, 41.977388201121869 ], [ -87.963997587398708, 41.977374695290841 ], [ -87.963857951967242, 41.977350778329388 ], [ -87.963722166521293, 41.977316684270484 ], [ -87.963591559748579, 41.977272746732176 ], [ -87.963467409655252, 41.977219395652682 ], [ -87.963350931059054, 41.977157153082828 ], [ -87.963243263701145, 41.977086628076947 ], [ -87.963145461093092, 41.977008510732531 ], [ -87.963058480208062, 41.976923565436714 ], [ -87.962983172117248, 41.97683262338591 ], [ -87.962920273662931, 41.976736574451778 ], [ -87.96287040024994, 41.97663635847308 ], [ -87.962834039825665, 41.976532956058733 ], [ -87.962811548107666, 41.976427378992042 ], [ -87.96280314510544, 41.976320660330209 ], [ -87.962797854816202, 41.97589196016304 ], [ -87.962803399867028, 41.975787009618294 ], [ -87.96281674926388, 41.975714556928537 ], [ -87.962803455169336, 41.975261570247049 ], [ -87.962807208016258, 41.975156647645385 ], [ -87.962824582970171, 41.975052491529013 ], [ -87.962855416078852, 41.974950084331638 ], [ -87.962899416452046, 41.974850391985989 ], [ -87.962956169007469, 41.974754354813022 ], [ -87.963025138388119, 41.974662878653191 ], [ -87.963105674013647, 41.97457682632276 ], [ -87.963197016218231, 41.974497009476252 ], [ -87.96329830341692, 41.974424180951409 ], [ -87.963408580232922, 41.974359027669124 ], [ -87.963526806508852, 41.974302164155084 ], [ -87.963651867117477, 41.974254126744242 ], [ -87.963782582478999, 41.974215368522721 ], [ -87.963917719685767, 41.974186255054953 ], [ -87.964056004129745, 41.974167060936168 ], [ -87.964196131522982, 41.974157967202906 ], [ -87.964262879119943, 41.974156065068939 ], [ -87.96437502509923, 41.97412520993926 ], [ -87.964511446577461, 41.974098582152472 ], [ -87.964650691573908, 41.974081980465677 ], [ -87.964791440104293, 41.974075562255109 ], [ -87.965008736432296, 41.974073562326836 ], [ -87.965147130032506, 41.974077229202294 ], [ -87.965284421692132, 41.974090742526784 ], [ -87.965336031769596, 41.974099629994342 ], [ -87.965330993560016, 41.973974723193308 ], [ -87.96533376787238, 41.973867874996479 ], [ -87.96535067039315, 41.973761753670935 ], [ -87.965381535772494, 41.973657396915819 ], [ -87.965426062129552, 41.973555825170564 ], [ -87.965483814006916, 41.973458031636987 ], [ -87.965554226630928, 41.973364972567786 ], [ -87.965636611436238, 41.973277557916632 ], [ -87.965730162800398, 41.973196642441053 ], [ -87.965833965922528, 41.973123017345209 ], [ -87.965947005769166, 41.973057402544008 ], [ -87.966068176999599, 41.973000439624585 ], [ -87.966196294773823, 41.972952685573496 ], [ -87.966330106337281, 41.972914607331113 ], [ -87.966468303269224, 41.972886577226632 ], [ -87.966609534275136, 41.97286886933783 ], [ -87.966752418397846, 41.972861656811595 ], [ -87.96752300538212, 41.972851257121498 ], [ -87.967663995437633, 41.972854480740743 ], [ -87.967803896538314, 41.972867924159374 ], [ -87.967941381580445, 41.972891459852249 ], [ -87.968075146375782, 41.972924864558706 ], [ -87.968203922021488, 41.972967821399983 ], [ -87.968326486935396, 41.973019922884873 ], [ -87.968441678442915, 41.97308067477465 ], [ -87.968548403805229, 41.973149500770845 ], [ -87.968645650584804, 41.973225747981409 ], [ -87.968732496249388, 41.973308693113452 ], [ -87.968808116923654, 41.973397549333797 ], [ -87.968871795205544, 41.973491473732352 ], [ -87.968922926972851, 41.973589575317426 ], [ -87.96896102711581, 41.973690923467437 ], [ -87.96898573414083, 41.973794556758513 ], [ -87.968996813602061, 41.973899492084492 ], [ -87.969020126749086, 41.974480991656201 ], [ -87.969017309298223, 41.974588023265646 ], [ -87.969000315060384, 41.974694321762733 ], [ -87.968969310716872, 41.974798844121047 ], [ -87.968924600423378, 41.974900564737027 ], [ -87.968866622827846, 41.974998485493778 ], [ -87.968795946768864, 41.975091645555423 ], [ -87.96871326569584, 41.975179130795659 ], [ -87.968619390866323, 41.975260082768294 ], [ -87.968515243386733, 41.975333707131405 ], [ -87.968401845174682, 41.975399281442563 ], [ -87.96828030893171, 41.975456162248591 ], [ -87.96815182722446, 41.975503791400357 ], [ -87.968017660781953, 41.975541701530219 ], [ -87.967879126123307, 41.975569520638899 ], [ -87.967737582637824, 41.975586975746211 ], [ -87.96759441924398, 41.975593895570192 ], [ -87.966823906225954, 41.975602595851697 ] ] ] } },
{ "type": "Feature", "properties": { "analysis_unit_id": "meta_dekalb_campus", "taxonomy_group_id": "hyperscale_greenfield_campus", "screening_geometry_basis": "reference_campus_geometry", "buffer_m": 0, "screening_geometry_confidence": "medium", "screening_area_m2": 1188182.6, "overlap_with_other_screening_masks_m2": 0.0, "neighbor_contamination_flag": false }, "geometry": { "type": "Polygon", "coordinates": [ [ [ -88.7361482, 41.889740699999969 ], [ -88.73618, 41.892678 ], [ -88.7317684, 41.8927059 ], [ -88.7289038, 41.892715900000042 ], [ -88.7263691, 41.8926959 ], [ -88.724902, 41.89262609999998 ], [ -88.7243146, 41.892630100000034 ], [ -88.7241536, 41.892526199999963 ], [ -88.7237325, 41.892520200000078 ], [ -88.7236467, 41.8926081 ], [ -88.7234536, 41.892662 ], [ -88.7232363, 41.892682 ], [ -88.7218845, 41.89269 ], [ -88.7194008, 41.8926979 ], [ -88.7193793, 41.88558160000003 ], [ -88.7388518, 41.8857091 ], [ -88.7387675, 41.889749799999976 ], [ -88.7361482, 41.889740699999969 ] ] ] } },
{ "type": "Feature", "properties": { "analysis_unit_id": "microsoft_elk_grove_campus", "taxonomy_group_id": "industrial_park_warehouse_style_colo", "screening_geometry_basis": "reference_building_union_buffer", "buffer_m": 300, "screening_geometry_confidence": "low", "screening_area_m2": 431496.9, "overlap_with_other_screening_masks_m2": 96688.2, "neighbor_contamination_flag": true }, "geometry": { "type": "Polygon", "coordinates": [ [ [ -87.976849770237436, 42.022893737400288 ], [ -87.976845800757957, 42.023431137204405 ], [ -87.976826398669758, 42.023695869344067 ], [ -87.976772290867913, 42.023957908885876 ], [ -87.976683997977432, 42.024214732433911 ], [ -87.976562369846434, 42.024463866791351 ], [ -87.976408577377043, 42.024702912779389 ], [ -87.976224101262972, 42.02492956834422 ], [ -87.976010717741474, 42.025141650729815 ], [ -87.975770481496724, 42.025337117502445 ], [ -87.97550570587876, 42.025514086224447 ], [ -87.975218940628409, 42.025670852587602 ], [ -87.974912947322551, 42.025805906831131 ], [ -87.974590672776316, 42.025917948286128 ], [ -87.974255220658407, 42.026005897905996 ], [ -87.97390982159331, 42.026068908662118 ], [ -87.973557802038698, 42.026106373704451 ], [ -87.973202552238035, 42.026117932208244 ], [ -87.971125964297883, 42.026109432772486 ], [ -87.970770909526607, 42.0260949672574 ], [ -87.970419466139745, 42.026054623699643 ], [ -87.97007501876611, 42.025988790630073 ], [ -87.969740884634334, 42.025898102059188 ], [ -87.969420281614987, 42.025783431369121 ], [ -87.969116297221362, 42.02564588289971 ], [ -87.968831858867688, 42.025486781309532 ], [ -87.96856970567184, 42.025307658814775 ], [ -87.968332362074179, 42.025110240429001 ], [ -87.968122113526803, 42.024896427346079 ], [ -87.967940984487555, 42.024668278626564 ], [ -87.967790718930246, 42.02442799136405 ], [ -87.96767276355898, 42.02417787952308 ], [ -87.967588253887584, 42.023920351651796 ], [ -87.967538003318225, 42.023657887685125 ], [ -87.967522495323223, 42.023393015061217 ], [ -87.967526425826605, 42.022855914865211 ], [ -87.967545808736716, 42.022591187277492 ], [ -87.967599894933258, 42.022329150746387 ], [ -87.967688163192278, 42.022072328441816 ], [ -87.967809763174699, 42.021823193295567 ], [ -87.967963523629081, 42.021584144191536 ], [ -87.968147963682782, 42.021357482870201 ], [ -87.968361307112232, 42.021145391769174 ], [ -87.968601499454579, 42.020949913013382 ], [ -87.968866227795345, 42.02077292875682 ], [ -87.969152943041877, 42.020616143064863 ], [ -87.9694588844675, 42.020481065511568 ], [ -87.969781106290455, 42.020368996649523 ], [ -87.970116506031843, 42.020281015491882 ], [ -87.970461854379536, 42.020217969127245 ], [ -87.970813826271225, 42.020180464566636 ], [ -87.971169032897606, 42.020168862901592 ], [ -87.973245544967128, 42.020177063478478 ], [ -87.973600650721167, 42.020191476475901 ], [ -87.973952151438482, 42.020231777556852 ], [ -87.974296661242988, 42.020297578512057 ], [ -87.97463086157552, 42.020388245500399 ], [ -87.974951533149408, 42.020502905152547 ], [ -87.975255586951647, 42.020640452980849 ], [ -87.975540093991242, 42.020799564015284 ], [ -87.975802313508581, 42.020978705562435 ], [ -87.976039719374569, 42.021176151965406 ], [ -87.976250024425198, 42.021390001222393 ], [ -87.976431202497153, 42.021618193303979 ], [ -87.976581507952304, 42.021858529993274 ], [ -87.976699492502689, 42.022108696057607 ], [ -87.976784019173465, 42.022366281548159 ], [ -87.976834273269276, 42.022628805013099 ], [ -87.976849770237436, 42.022893737400288 ] ] ] } },
{ "type": "Feature", "properties": { "analysis_unit_id": "ntt_itasca_chicago_campus", "taxonomy_group_id": "large_purpose_built_data_center", "screening_geometry_basis": "reference_building_union_buffer", "buffer_m": 120, "screening_geometry_confidence": "low", "screening_area_m2": 276515.9, "overlap_with_other_screening_masks_m2": 0.0, "neighbor_contamination_flag": false }, "geometry": { "type": "Polygon", "coordinates": [ [ [ -88.00986008646268, 41.988003922424994 ], [ -88.009854420005055, 41.988291494440098 ], [ -88.009845421145016, 41.988396920976825 ], [ -88.009822668256803, 41.988501188350106 ], [ -88.009820461446282, 41.988507397901614 ], [ -88.009838352755267, 41.988603992465244 ], [ -88.009843914157045, 41.988709980533443 ], [ -88.009835328730333, 41.989352580481999 ], [ -88.009826939553591, 41.989458443960373 ], [ -88.009804682920404, 41.989563184334678 ], [ -88.009768773078179, 41.98966579303216 ], [ -88.009719555748987, 41.989765282001756 ], [ -88.009657504802874, 41.989860693228692 ], [ -88.009583217696971, 41.989951107960032 ], [ -88.009497409724077, 41.990035655552198 ], [ -88.009400907126235, 41.990113521855541 ], [ -88.009294639139426, 41.990183957054782 ], [ -88.009179629046045, 41.990246282890162 ], [ -88.009056984321234, 41.99029989918953 ], [ -88.008927885967992, 41.990344289648405 ], [ -88.008793577143777, 41.990379026802465 ], [ -88.008655351188267, 41.99040377614449 ], [ -88.00851453916745, 41.99041829934594 ], [ -88.008372497054111, 41.990422456552437 ], [ -88.00807389200186, 41.990420256570602 ], [ -88.007931946926064, 41.990414004084002 ], [ -88.007791507378442, 41.990397399822406 ], [ -88.007653926523517, 41.990370603770678 ], [ -88.007520529977725, 41.990333874113631 ], [ -88.007392603035186, 41.990287564747923 ], [ -88.007368053688239, 41.990276336973459 ], [ -88.006424064945165, 41.990269368192195 ], [ -88.006378579356692, 41.990358629858299 ], [ -88.00631607144058, 41.990452649011196 ], [ -88.006241633930259, 41.990541701631521 ], [ -88.006155968777719, 41.990624947887362 ], [ -88.006059883829181, 41.990701602701868 ], [ -88.005954285207523, 41.99077094315787 ], [ -88.005840168767165, 41.990832315316091 ], [ -88.005718610702559, 41.990885140383227 ], [ -88.005590757398252, 41.990928920171058 ], [ -88.005457814616719, 41.990963241795427 ], [ -88.005321036125864, 41.990987781570652 ], [ -88.005181711873405, 41.991002308062718 ], [ -88.00504115581974, 41.991006684272179 ], [ -88.004436145583171, 41.99100358433126 ], [ -88.004292991264435, 41.990997556678067 ], [ -88.00415133694105, 41.990981001008507 ], [ -88.004012570393073, 41.990954079516953 ], [ -88.003878051105161, 41.990917055951044 ], [ -88.003749096946009, 41.99087029302742 ], [ -88.003626971255656, 41.990814248877719 ], [ -88.003512870467603, 41.990749472559749 ], [ -88.003407912386564, 41.99067659867773 ], [ -88.003313125237227, 41.990596341164427 ], [ -88.003229437591074, 41.990509486286172 ], [ -88.003157669269882, 41.990416884939144 ], [ -88.003098523315288, 41.990319444312632 ], [ -88.003052579102715, 41.990218119000907 ], [ -88.003020286667478, 41.990113901650744 ], [ -88.003001962298114, 41.990007813236346 ], [ -88.0029977854403, 41.989900893056969 ], [ -88.003000993118434, 41.989783450194899 ], [ -88.002989592201089, 41.98974719289378 ], [ -88.002970827547145, 41.989641632836253 ], [ -88.002966078857298, 41.989535207516134 ], [ -88.002968881819001, 41.989404607519013 ], [ -88.002978305772885, 41.989297634877545 ], [ -88.002998365176992, 41.98920768813219 ], [ -88.002982893393238, 41.989114240261195 ], [ -88.002979491940991, 41.989007088400633 ], [ -88.002984094942434, 41.988874688425597 ], [ -88.002994575494, 41.988769974919812 ], [ -88.003006031641519, 41.98872069715415 ], [ -88.002991392894131, 41.988627045662298 ], [ -88.002989026324499, 41.988519362293133 ], [ -88.003001532641733, 41.988240562380724 ], [ -88.003013146232249, 41.9881354706853 ], [ -88.003038432648211, 41.988031723645733 ], [ -88.00307715108616, 41.987930308978214 ], [ -88.003128932868663, 41.987832192189138 ], [ -88.003193284956524, 41.987738307383459 ], [ -88.003269594644664, 41.987649548372183 ], [ -88.003357135396996, 41.987566760163475 ], [ -88.003455073764457, 41.987490730918815 ], [ -88.0035624773205, 41.987422184450061 ], [ -88.003678323538452, 41.987361773329418 ], [ -88.003801509526099, 41.987310072677509 ], [ -88.003930862524939, 41.987267574688921 ], [ -88.004065151074116, 41.987234683946994 ], [ -88.004203096732809, 41.987211713572805 ], [ -88.00434338624963, 41.987198882244613 ], [ -88.004484684063101, 41.987196312116367 ], [ -88.004709135589877, 41.987200403515423 ], [ -88.004760066127744, 41.987123350714405 ], [ -88.004834749610012, 41.987033659475721 ], [ -88.004920808235411, 41.986949833677855 ], [ -88.005017420471447, 41.986872673495945 ], [ -88.005123664054224, 41.986802915474293 ], [ -88.005238524792489, 41.986741225496388 ], [ -88.005360906248882, 41.986688192429277 ], [ -88.005489640205681, 41.986644322503224 ], [ -88.005623497815264, 41.986610034480059 ], [ -88.005687866984189, 41.98659863868172 ], [ -88.005691429696469, 41.986588730595443 ], [ -88.005882438368289, 41.986145332771834 ], [ -88.005887981306046, 41.986132731542888 ], [ -88.005901181873355, 41.98610333169303 ], [ -88.005952971955907, 41.986004413158511 ], [ -88.006017524715091, 41.985909764536032 ], [ -88.006094216771601, 41.985820299756206 ], [ -88.006182307537671, 41.985736882690389 ], [ -88.006280946369543, 41.985660318809991 ], [ -88.006389180782151, 41.985591347409439 ], [ -88.006505965646767, 41.985530634468475 ], [ -88.006630173282545, 41.985478766222151 ], [ -88.006760604344862, 41.985436243501056 ], [ -88.006895999405117, 41.985403476895918 ], [ -88.007035051110265, 41.985380782793641 ], [ -88.007176416804882, 41.985368380322804 ], [ -88.007318731493669, 41.985366389238067 ], [ -88.007460621019661, 41.985374828764151 ], [ -88.007600715330753, 41.985393617410196 ], [ -88.007737661706599, 41.98542257375653 ], [ -88.007904159315331, 41.985464473118022 ], [ -88.008038125119128, 41.985503819230189 ], [ -88.008146182033443, 41.985545224606128 ], [ -88.008271207331504, 41.985562752647802 ], [ -88.008408747380145, 41.985592785230338 ], [ -88.008577044987874, 41.985636384567016 ], [ -88.008707883766192, 41.985675703572603 ], [ -88.008768386035769, 41.985699222411711 ], [ -88.008893540226381, 41.985717467166417 ], [ -88.009031501708549, 41.985748459675918 ], [ -88.009384796734864, 41.98584235824967 ], [ -88.009515666959786, 41.985882618857026 ], [ -88.009640645102422, 41.985932217642969 ], [ -88.009758537596838, 41.985990680934343 ], [ -88.009868218537051, 41.986057450399883 ], [ -88.009968640428909, 41.986131888381699 ], [ -88.010058844193608, 41.98621328398437 ], [ -88.010137968327413, 41.986300859863327 ], [ -88.010205257129854, 41.986393779647933 ], [ -88.01026006792199, 41.986491155928448 ], [ -88.010301877185711, 41.986592058730253 ], [ -88.010330285565459, 41.986695524395081 ], [ -88.010345021684302, 41.986800564783707 ], [ -88.010345944738177, 41.986906176712885 ], [ -88.010333045843154, 41.987011351535948 ], [ -88.010306448122932, 41.987115084775965 ], [ -88.01026640553539, 41.987216385719009 ], [ -88.009997716464639, 41.987790988767848 ], [ -88.00994468447827, 41.987888770527249 ], [ -88.009879127514481, 41.987982229355211 ], [ -88.00986008646268, 41.988003922424994 ] ] ] } },
{ "type": "Feature", "properties": { "analysis_unit_id": "site_00614", "taxonomy_group_id": "industrial_park_warehouse_style_colo", "screening_geometry_basis": "reference_building_union_buffer", "buffer_m": 120, "screening_geometry_confidence": "low", "screening_area_m2": 116728.3, "overlap_with_other_screening_masks_m2": 60137.1, "neighbor_contamination_flag": true }, "geometry": { "type": "Polygon", "coordinates": [ [ [ -87.952284451390639, 42.003995653741207 ], [ -87.951953445798011, 42.004002053905758 ], [ -87.951811309035548, 42.003999597524199 ], [ -87.951670179332254, 42.003986762854638 ], [ -87.951531415567601, 42.003963673476122 ], [ -87.951415366613304, 42.003935214302665 ], [ -87.950932063807642, 42.003944474485976 ], [ -87.950821698065027, 42.003976327307619 ], [ -87.950684600070645, 42.004004733567783 ], [ -87.950544427524306, 42.004022973009334 ], [ -87.950402532265727, 42.004030869728197 ], [ -87.950238629496255, 42.004033969808397 ], [ -87.950096548409576, 42.004031456609724 ], [ -87.9499554809356, 42.004018573396685 ], [ -87.949816784323346, 42.003995444121536 ], [ -87.949681793007812, 42.003962291316569 ], [ -87.949551805769318, 42.003919433952817 ], [ -87.949428073236078, 42.003867284370685 ], [ -87.949311785850242, 42.003806344312217 ], [ -87.949204062413571, 42.003737200093184 ], [ -87.949117730897186, 42.003669732083395 ], [ -87.949103109192592, 42.003662072881184 ], [ -87.94899535052889, 42.003592931807127 ], [ -87.948897193661054, 42.003516247992124 ], [ -87.948809583254913, 42.003432759471707 ], [ -87.948733362463059, 42.0033432697698 ], [ -87.948669264810832, 42.003248640164514 ], [ -87.948617907137987, 42.003149781398342 ], [ -87.948579783663618, 42.003047644912172 ], [ -87.94855526123186, 42.002943213688049 ], [ -87.948544575783444, 42.002837492788174 ], [ -87.948528486166751, 42.002379092480957 ], [ -87.948531745335771, 42.0022730492297 ], [ -87.948548925897555, 42.002167755050714 ], [ -87.948579862281207, 42.0020642242566 ], [ -87.948624256407754, 42.001963454168205 ], [ -87.948681680564178, 42.001866415507607 ], [ -87.948751581525727, 42.001774043047526 ], [ -87.948833285887105, 42.00168722660726 ], [ -87.94892600655082, 42.001606802481618 ], [ -87.949028850310526, 42.001533545385747 ], [ -87.949140826455732, 42.00146816099307 ], [ -87.94926085631549, 42.001411279138452 ], [ -87.949387783648802, 42.001363447751707 ], [ -87.949520385781838, 42.001325127580373 ], [ -87.949657385384569, 42.001296687751918 ], [ -87.949797462773589, 42.001278402218574 ], [ -87.949939268622671, 42.001270447118912 ], [ -87.952187930631339, 42.001226848238311 ], [ -87.952330068820075, 42.001229295793117 ], [ -87.952471201113937, 42.001242122422823 ], [ -87.952609968603156, 42.001265204623969 ], [ -87.952745035144588, 42.001298320145871 ], [ -87.952875100225071, 42.001341150130408 ], [ -87.952998911482126, 42.001393282181681 ], [ -87.953115276761181, 42.001454214336384 ], [ -87.95322307559357, 42.001523359896396 ], [ -87.953321269984755, 42.001600053077233 ], [ -87.95340891440874, 42.001683555418055 ], [ -87.95348516491282, 42.00177306289126 ], [ -87.953549287244627, 42.001867713643769 ], [ -87.953600663923453, 42.001966596294835 ], [ -87.953638800187562, 42.002068758711154 ], [ -87.953663328760285, 42.00217321717426 ], [ -87.953674013388706, 42.002278965852362 ], [ -87.953695327162947, 42.002887065444781 ], [ -87.953692062838272, 42.002993107567207 ], [ -87.953674877197443, 42.003098400253329 ], [ -87.953643935722496, 42.003201929212111 ], [ -87.953599536409911, 42.003302697137642 ], [ -87.953542106902475, 42.003399733316783 ], [ -87.953472200371891, 42.00349210298053 ], [ -87.953390490192007, 42.003578916309309 ], [ -87.953297763453477, 42.003659337005587 ], [ -87.953194913382717, 42.003732590350694 ], [ -87.953082930737921, 42.003797970668792 ], [ -87.952962894264857, 42.003854848125535 ], [ -87.952835960304839, 42.003902674796301 ], [ -87.952703351654478, 42.003940989945278 ], [ -87.952566345784959, 42.003969424464408 ], [ -87.952426262534232, 42.003987704429875 ], [ -87.952284451390639, 42.003995653741207 ] ] ] } },
{ "type": "Feature", "properties": { "analysis_unit_id": "site_00616", "taxonomy_group_id": "industrial_park_warehouse_style_colo", "screening_geometry_basis": "reference_building_union_buffer", "buffer_m": 120, "screening_geometry_confidence": "low", "screening_area_m2": 137601.6, "overlap_with_other_screening_masks_m2": 18840.8, "neighbor_contamination_flag": true }, "geometry": { "type": "Polygon", "coordinates": [ [ [ -87.959039306360779, 42.000627078697249 ], [ -87.956592265016724, 42.000672679887444 ], [ -87.956450128225896, 42.000670121998176 ], [ -87.956309011943901, 42.000657184977115 ], [ -87.956170275126667, 42.000633993407646 ], [ -87.956035253812516, 42.00060077062475 ], [ -87.955905248254297, 42.000557836564056 ], [ -87.955781510396278, 42.000505604680292 ], [ -87.955665231816781, 42.000444577965389 ], [ -87.955557532252328, 42.00037534410388 ], [ -87.955459448814125, 42.000298569812934 ], [ -87.955371926000709, 42.000214994421199 ], [ -87.955295806602976, 42.000125422748312 ], [ -87.955231823588989, 42.000030717354022 ], [ -87.95518059304699, 41.999931790231088 ], [ -87.955142608254263, 41.999829594022422 ], [ -87.955118234929074, 41.999725112846953 ], [ -87.955107707711122, 41.9996193528223 ], [ -87.955077827878569, 41.998728952241308 ], [ -87.955081250246849, 41.998622909942178 ], [ -87.955098592546619, 41.998517628681633 ], [ -87.955129687642753, 41.998414122685197 ], [ -87.955174235916445, 41.998313389071534 ], [ -87.955231808154025, 41.998216398247123 ], [ -87.955301849683877, 41.998124084558292 ], [ -87.955383685721827, 41.998037337290945 ], [ -87.955476527873032, 41.997956992104349 ], [ -87.955579481727952, 41.99788382298177 ], [ -87.95569155547912, 41.997818534775156 ], [ -87.955811669475679, 41.997761756415997 ], [ -87.955938666623567, 41.997714034857331 ], [ -87.956071323531418, 41.997675829805701 ], [ -87.95620836229449, 41.997647509293166 ], [ -87.956348462803561, 41.997629346132747 ], [ -87.956490275459913, 41.997621515290646 ], [ -87.958937234118736, 41.997576216475814 ], [ -87.959079350500389, 41.997578788038524 ], [ -87.95922044493274, 41.997591736387974 ], [ -87.959359159053818, 41.997614936865475 ], [ -87.959494157414468, 41.997648166111681 ], [ -87.959624140333275, 41.997691104216557 ], [ -87.959747856407617, 41.997743337798966 ], [ -87.95986411456002, 41.997804363985779 ], [ -87.959971795504188, 41.997873595252713 ], [ -87.960069862520484, 41.997950365079944 ], [ -87.960157371436651, 41.998033934368294 ], [ -87.960233479718326, 41.998123498554079 ], [ -87.960297454581351, 41.998218195354397 ], [ -87.960348680048028, 41.998317113068111 ], [ -87.960386662879102, 41.998419299352726 ], [ -87.960411037324604, 41.998523770392616 ], [ -87.960421568647405, 41.998629520370571 ], [ -87.960451488807905, 41.999519619788536 ], [ -87.960448073697961, 41.999625649681015 ], [ -87.960430741593683, 41.999730919271819 ], [ -87.960399659358046, 41.999834414674403 ], [ -87.96035512628977, 41.999935139085238 ], [ -87.960297571243146, 42.000032122384617 ], [ -87.960227548499759, 42.000124430480689 ], [ -87.960145732431826, 42.000211174306735 ], [ -87.960052911008631, 42.000291518384799 ], [ -87.959949978208186, 42.000364688873333 ], [ -87.959837925407598, 42.000429981021291 ], [ -87.959717831834709, 42.000486765956659 ], [ -87.959590854173129, 42.000534496744422 ], [ -87.959458215420796, 42.00057271365494 ], [ -87.959321193109432, 42.000601048592756 ], [ -87.959181106998244, 42.00061922864235 ], [ -87.959039306360779, 42.000627078697249 ] ] ] } },
{ "type": "Feature", "properties": { "analysis_unit_id": "site_00617", "taxonomy_group_id": "industrial_park_warehouse_style_colo", "screening_geometry_basis": "reference_building_union_buffer", "buffer_m": 120, "screening_geometry_confidence": "low", "screening_area_m2": 132858.4, "overlap_with_other_screening_masks_m2": 96688.2, "neighbor_contamination_flag": true }, "geometry": { "type": "Polygon", "coordinates": [ [ [ -87.978450436169268, 42.022770537062442 ], [ -87.97844544915904, 42.02334233698808 ], [ -87.978437545218469, 42.023448236490992 ], [ -87.978415757296517, 42.023553048280185 ], [ -87.978380295186739, 42.023655762807856 ], [ -87.978331500396877, 42.023755390722222 ], [ -87.978269842861735, 42.023850972397319 ], [ -87.97819591641894, 42.023941587176758 ], [ -87.978110433090734, 42.024026362242132 ], [ -87.978014216227166, 42.024104481020821 ], [ -87.977908192576351, 42.024175191052066 ], [ -87.977793383358375, 42.024237811235693 ], [ -87.977670894428726, 42.024291738393288 ], [ -87.977541905625955, 42.024336453079037 ], [ -87.977407659406282, 42.024371524583763 ], [ -87.977269448874708, 42.024396615084363 ], [ -87.977128605327778, 42.024411482898273 ], [ -87.976986485428299, 42.024415984811768 ], [ -87.974102736579752, 42.024401685085195 ], [ -87.973960732725217, 42.024395775982235 ], [ -87.9738201893107, 42.024379517921552 ], [ -87.973682459664573, 42.02435306745555 ], [ -87.973548870016899, 42.024316679281711 ], [ -87.973420706726998, 42.024270703789803 ], [ -87.973299203895408, 42.024215583687372 ], [ -87.973185531479302, 42.024151849736285 ], [ -87.973080784025839, 42.024080115641283 ], [ -87.972985970132427, 42.024001072139818 ], [ -87.972902002734742, 42.02391548035007 ], [ -87.972829690316615, 42.0238241644414 ], [ -87.972769729126014, 42.023728003697649 ], [ -87.972722696472346, 42.023627924049727 ], [ -87.972689045169318, 42.023524889159404 ], [ -87.972669099176969, 42.023419891139689 ], [ -87.972663050484627, 42.023313941001518 ], [ -87.972668063467538, 42.022742440928013 ], [ -87.972675971589979, 42.022636548878168 ], [ -87.972697761463138, 42.022531744699002 ], [ -87.972733223171161, 42.022429037710516 ], [ -87.972782015135394, 42.022329417030889 ], [ -87.97284366740638, 42.022233842051023 ], [ -87.972917586191784, 42.022143233195756 ], [ -87.973003059576683, 42.022058463060304 ], [ -87.973099264380991, 42.021980348007517 ], [ -87.973205274087931, 42.021909640306774 ], [ -87.973320067767204, 42.021847020890142 ], [ -87.973442539906983, 42.021793092795541 ], [ -87.973571511059745, 42.02174837536014 ], [ -87.9737057391999, 42.021713299219613 ], [ -87.973843931683589, 42.021688202161705 ], [ -87.973984757695433, 42.021673325873742 ], [ -87.974126861062828, 42.021668813615463 ], [ -87.977010512218001, 42.021682813893932 ], [ -87.977152526653668, 42.021688705699987 ], [ -87.977293082788265, 42.021704948532054 ], [ -87.977430827010949, 42.021731385964678 ], [ -87.977564432786835, 42.021767763394173 ], [ -87.977692613430392, 42.021813730490379 ], [ -87.977814134495134, 42.021868844569845 ], [ -87.977927825660828, 42.021932574858695 ], [ -87.978032592003402, 42.02200430760346 ], [ -87.97812742453921, 42.022083351981145 ], [ -87.978211409942205, 42.022168946751485 ], [ -87.978283739340256, 42.022260267587384 ], [ -87.978343716106082, 42.02235643501291 ], [ -87.97839076256767, 42.022456522872595 ], [ -87.978424425573351, 42.022559567250269 ], [ -87.978444380858207, 42.022664575751861 ], [ -87.978450436169268, 42.022770537062442 ] ] ] } },
{ "type": "Feature", "properties": { "analysis_unit_id": "site_01560", "taxonomy_group_id": "industrial_park_warehouse_style_colo", "screening_geometry_basis": "reference_building_union_buffer", "buffer_m": 120, "screening_geometry_confidence": "low", "screening_area_m2": 170808.0, "overlap_with_other_screening_masks_m2": 0.0, "neighbor_contamination_flag": false }, "geometry": { "type": "Polygon", "coordinates": [ [ [ -87.672092800720819, 41.842134471549215 ], [ -87.672099348479932, 41.842163928509208 ], [ -87.67210890147706, 41.842266536923276 ], [ -87.67211900923273, 41.842611536740705 ], [ -87.672115002079281, 41.842719035221883 ], [ -87.672096728118916, 41.84282570377222 ], [ -87.672095004536317, 41.842831284801612 ], [ -87.672094504340521, 41.842869649780702 ], [ -87.672078845630068, 41.842976449737527 ], [ -87.672049083595567, 41.843081559443021 ], [ -87.672005512283292, 41.84318394018095 ], [ -87.671948562211227, 41.843282580198391 ], [ -87.671878796117028, 41.843376504704686 ], [ -87.671796903398828, 41.843464785505084 ], [ -87.67170369330411, 41.843546550174111 ], [ -87.671600086933637, 41.843620990678126 ], [ -87.671487108139445, 41.843687371361185 ], [ -87.671365873407026, 41.843745036216134 ], [ -87.671237580821355, 41.843793415368161 ], [ -87.671103498226202, 41.84383203070751 ], [ -87.67096495069346, 41.843860500614888 ], [ -87.670823307426545, 41.843878543733524 ], [ -87.670679968227404, 41.843885981750077 ], [ -87.670550066043276, 41.84388788179762 ], [ -87.67040680953464, 41.843884662683571 ], [ -87.670264683697383, 41.843870850465144 ], [ -87.670125086020718, 41.843846580954043 ], [ -87.670031869200074, 41.843822889368276 ], [ -87.669436409538051, 41.843834121055004 ], [ -87.669333768162517, 41.843863636753781 ], [ -87.669195753708777, 41.843891983753338 ], [ -87.669054666494645, 41.843909984910141 ], [ -87.668911890024532, 41.843917463703775 ], [ -87.668728386939407, 41.843920263772816 ], [ -87.668587569640636, 41.843917277838983 ], [ -87.66844780995757, 41.84390405544692 ], [ -87.668310435581489, 41.843880722206471 ], [ -87.6681767515405, 41.843847499778541 ], [ -87.668048027800239, 41.843804703769038 ], [ -87.667925487197977, 41.843752740730352 ], [ -87.667825049317713, 41.843699871428853 ], [ -87.667780618586008, 41.843708469773873 ], [ -87.66763879764855, 41.843724921887201 ], [ -87.667495493821605, 41.843730775875059 ], [ -87.667440992904517, 41.843730975885087 ], [ -87.667300601310941, 41.843726382827221 ], [ -87.667161469786734, 41.843711616952795 ], [ -87.667024913540772, 41.843686817843057 ], [ -87.666999445657765, 41.843680177304208 ], [ -87.666926218405465, 41.843667345856211 ], [ -87.666792222152367, 41.843633232204567 ], [ -87.66666333109643, 41.843589481286564 ], [ -87.666540781449072, 41.843536512726416 ], [ -87.666425748591848, 41.843474834555607 ], [ -87.666319335802356, 41.84340503833981 ], [ -87.66622256367198, 41.84332779350423 ], [ -87.666136360317324, 41.843243840912436 ], [ -87.666061552478993, 41.843153985759962 ], [ -87.66599885759311, 41.843059089850783 ], [ -87.665948876911713, 41.842960063331255 ], [ -87.665912089737816, 41.842857855960155 ], [ -87.665888848830534, 41.842753447999186 ], [ -87.665879377023941, 41.842647840810947 ], [ -87.665876308024821, 41.84252021950963 ], [ -87.66586745930978, 41.84250495558981 ], [ -87.665823211707362, 41.842400956243168 ], [ -87.665793215849064, 41.842294150311467 ], [ -87.66577777752012, 41.842185626855297 ], [ -87.665769579990567, 41.842075226735503 ], [ -87.66576852833397, 41.841971809016393 ], [ -87.665780700316148, 41.841868789606465 ], [ -87.6658059844207, 41.841767111806718 ], [ -87.665844149072214, 41.841667706629252 ], [ -87.665894844759023, 41.841571484272677 ], [ -87.665957607235441, 41.841479325788228 ], [ -87.665968879174841, 41.841466081020826 ], [ -87.665978607935941, 41.8414437651371 ], [ -87.666017648077926, 41.841377642503517 ], [ -87.666048060403398, 41.841276577080379 ], [ -87.66609251254593, 41.841176048252144 ], [ -87.66614990570227, 41.84107925438903 ], [ -87.666219688991106, 41.840987124458721 ], [ -87.666301192626619, 41.840900542663448 ], [ -87.666393634348097, 41.840820339954675 ], [ -87.666496126928749, 41.840747286058743 ], [ -87.66660768669125, 41.840682082090417 ], [ -87.666727242948582, 41.84062535382489 ], [ -87.666853648279442, 41.840577645692719 ], [ -87.666985689539572, 41.840539415555533 ], [ -87.667122099503544, 41.840511030312427 ], [ -87.66726156902503, 41.840492762379384 ], [ -87.667402759599213, 41.840484787075113 ], [ -87.668668838326155, 41.840459787646004 ], [ -87.668809654870088, 41.84046214040238 ], [ -87.668949496507778, 41.840474731725287 ], [ -87.669087035176119, 41.840497442035648 ], [ -87.669220964679951, 41.840530055655137 ], [ -87.669350013095226, 41.840572262854188 ], [ -87.669472954846782, 41.840623662793128 ], [ -87.669588622346396, 41.840683767328315 ], [ -87.669695917080432, 41.840752005647531 ], [ -87.669793820041946, 41.840827729690304 ], [ -87.669797054697526, 41.840830776333306 ], [ -87.670282904661462, 41.840822180879094 ], [ -87.670621093469506, 41.840814863378235 ], [ -87.670762870031169, 41.840816999601223 ], [ -87.670903684294743, 41.840829514747938 ], [ -87.671042180804662, 41.840852288349097 ], [ -87.671177026412465, 41.840885101189038 ], [ -87.671306923107764, 41.840927637415525 ], [ -87.671430620511046, 41.84097948757978 ], [ -87.67154692790858, 41.841040152577186 ], [ -87.67165472571304, 41.841109048450953 ], [ -87.671752976240185, 41.841185512012729 ], [ -87.671840733697437, 41.841268807225546 ], [ -87.671917153288462, 41.841358132288249 ], [ -87.671981499346074, 41.841452627352894 ], [ -87.67203315241504, 41.841551382801043 ], [ -87.672071615216709, 41.841653447999242 ], [ -87.672096517437893, 41.841757840449411 ], [ -87.67210761929779, 41.841863555246228 ], [ -87.672110420903934, 41.841935055199635 ], [ -87.672107602336027, 41.842041216941432 ], [ -87.672092800720819, 41.842134471549215 ] ] ] } },
{ "type": "Feature", "properties": { "analysis_unit_id": "site_01842", "taxonomy_group_id": "industrial_park_warehouse_style_colo", "screening_geometry_basis": "reference_building_union_buffer", "buffer_m": 120, "screening_geometry_confidence": "low", "screening_area_m2": 117672.0, "overlap_with_other_screening_masks_m2": 47864.7, "neighbor_contamination_flag": true }, "geometry": { "type": "Polygon", "coordinates": [ [ [ -87.956393458073435, 42.002473246707083 ], [ -87.956373895806067, 42.00248987610626 ], [ -87.95627177083577, 42.002561184710906 ], [ -87.956247515825893, 42.002586408224914 ], [ -87.956153718297372, 42.002666115061551 ], [ -87.956049897869576, 42.002738580609225 ], [ -87.955937054379717, 42.002803106969338 ], [ -87.955816274574147, 42.002859072701554 ], [ -87.955688721642062, 42.00290593880959 ], [ -87.955555624012234, 42.002943253932841 ], [ -87.955418263521196, 42.002970658693904 ], [ -87.955277963066635, 42.002987889160238 ], [ -87.955136073865063, 42.002994779386526 ], [ -87.95465616574954, 42.003000479565458 ], [ -87.954514056323788, 42.002996962720566 ], [ -87.954373093358441, 42.002983073436241 ], [ -87.954234634413822, 42.002958945474184 ], [ -87.954100012931576, 42.002924811200749 ], [ -87.953970525390986, 42.00288099934879 ], [ -87.953847418821667, 42.00282793185135 ], [ -87.953731878792624, 42.002766119777718 ], [ -87.953625017993673, 42.002696158410778 ], [ -87.953527865519348, 42.002618721513606 ], [ -87.95344135695801, 42.002534554839968 ], [ -87.953366325382262, 42.002444468951623 ], [ -87.953303493326928, 42.002349331411587 ], [ -87.953253465832134, 42.002250058428451 ], [ -87.953216724618244, 42.002147606032395 ], [ -87.953193623448868, 42.002042960867797 ], [ -87.953184384726242, 42.001937130691203 ], [ -87.953168426518502, 42.00119025301656 ], [ -87.953146983397218, 42.001157709269549 ], [ -87.953097065231219, 42.001058365771335 ], [ -87.953060446624932, 42.000955850172666 ], [ -87.953037480411012, 42.000851150426378 ], [ -87.953028387848804, 42.000745275529383 ], [ -87.953027488871328, 42.00070017550761 ], [ -87.953032346355457, 42.000594245491527 ], [ -87.95305109195391, 42.000489179854178 ], [ -87.95308354528926, 42.000385989197 ], [ -87.953129394136397, 42.000285666081659 ], [ -87.953188197428233, 42.000189175483101 ], [ -87.953259389500374, 42.000097445508267 ], [ -87.953342285533893, 42.000011358469507 ], [ -87.953436088143803, 41.999931742398623 ], [ -87.953539895049886, 41.999859363083075 ], [ -87.953652707755936, 41.999794916700992 ], [ -87.953773441153928, 41.999739023125677 ], [ -87.953900933960895, 41.99969221996426 ], [ -87.95403395988788, 41.99965495738725 ], [ -87.954171239433862, 41.999627593799403 ], [ -87.954311452191007, 41.999610392392761 ], [ -87.954453249543235, 41.99960351861575 ], [ -87.954537489486995, 41.999602523132261 ], [ -87.954590536947464, 41.999577949889563 ], [ -87.954718090196593, 41.999531099239967 ], [ -87.954851185351799, 41.999493799513488 ], [ -87.954988540756503, 41.999466409889607 ], [ -87.955128833735884, 41.999449194117396 ], [ -87.955270713331984, 41.999442317976126 ], [ -87.955330112327573, 41.99944161799823 ], [ -87.95547230110796, 41.999445153098314 ], [ -87.955613339631626, 41.999459072988778 ], [ -87.955636144231278, 41.999463051953008 ], [ -87.955880189759625, 41.999460123123292 ], [ -87.95602228453545, 41.999463621429477 ], [ -87.956163235574067, 41.999477490876636 ], [ -87.956301685708667, 41.999501597920208 ], [ -87.95643630184928, 41.999535710441336 ], [ -87.956565787816913, 41.99957949998155 ], [ -87.956688896822499, 41.999632544905026 ], [ -87.956804443470517, 41.999694334457807 ], [ -87.956911315172022, 41.999764273685031 ], [ -87.957008482856935, 41.999841689158991 ], [ -87.957095010882767, 41.999925835462633 ], [ -87.957170066044085, 42.000015902366243 ], [ -87.957232925596259, 42.000111022628346 ], [ -87.957282984215993, 42.000210280345613 ], [ -87.95731975983162, 42.000312719771323 ], [ -87.957342898267015, 42.000417354517701 ], [ -87.957352176654268, 42.000523177053523 ], [ -87.957371997311043, 42.001434376593132 ], [ -87.957367326359503, 42.00154036678358 ], [ -87.957348750958886, 42.001645505220104 ], [ -87.957316449902962, 42.001748779528505 ], [ -87.957270734153127, 42.001849195279341 ], [ -87.957212043846624, 42.001945785563684 ], [ -87.95714094406064, 42.002037620303874 ], [ -87.957058119373031, 42.002123815209949 ], [ -87.956964367271894, 42.002203540295206 ], [ -87.956860590477604, 42.002276027868923 ], [ -87.95674778825088, 42.002340579929452 ], [ -87.95662704677089, 42.002396574886149 ], [ -87.956499528675977, 42.002443473545533 ], [ -87.956393458073435, 42.002473246707083 ] ] ] } },
{ "type": "Feature", "properties": { "analysis_unit_id": "site_01881", "taxonomy_group_id": "industrial_park_warehouse_style_colo", "screening_geometry_basis": "reference_building_union_buffer", "buffer_m": 120, "screening_geometry_confidence": "low", "screening_area_m2": 194838.0, "overlap_with_other_screening_masks_m2": 107023.1, "neighbor_contamination_flag": true }, "geometry": { "type": "Polygon", "coordinates": [ [ [ -87.964970806792351, 41.993906600919196 ], [ -87.96499595797178, 41.995083278974931 ], [ -87.964991246388351, 41.995189280322521 ], [ -87.964972628895438, 41.995294426700788 ], [ -87.964940284733302, 41.995397705426527 ], [ -87.964894525349905, 41.995498121799351 ], [ -87.964835791403885, 41.995594708682219 ], [ -87.964764648522547, 41.99568653581666 ], [ -87.964681781856086, 41.995772718782796 ], [ -87.964587989480108, 41.995852427518308 ], [ -87.96448417471025, 41.995924894313625 ], [ -87.964371337402554, 41.995989421206914 ], [ -87.964250564323592, 41.996045386707138 ], [ -87.964123018683068, 41.996092251780674 ], [ -87.963989928929649, 41.996129565043766 ], [ -87.963852576918072, 41.996156967110544 ], [ -87.963712285561371, 41.996174194055101 ], [ -87.963570406087555, 41.996181079953807 ], [ -87.960976562234549, 41.996211780922799 ], [ -87.960834475405349, 41.996208257115939 ], [ -87.960693535702333, 41.996194361949591 ], [ -87.960555100327511, 41.996170229228881 ], [ -87.960420502363647, 41.996136091343011 ], [ -87.96029103793532, 41.996092277027095 ], [ -87.960167953726213, 41.996039208196152 ], [ -87.960052434972724, 41.995977395881724 ], [ -87.959945594049785, 41.995907435310201 ], [ -87.959848459758703, 41.995830000170301 ], [ -87.959761967420235, 41.995745836125067 ], [ -87.959686949868342, 41.995655753630828 ], [ -87.959624129431418, 41.995560620132061 ], [ -87.95957411097784, 41.995461351707846 ], [ -87.959537376093323, 41.995358904249862 ], [ -87.959514278445539, 41.995254264257362 ], [ -87.959511963619534, 41.995227747238317 ], [ -87.959234887500514, 41.995024874474808 ], [ -87.959141010851013, 41.994949251720037 ], [ -87.959057218423354, 41.994867301759633 ], [ -87.958984272321302, 41.994779769978209 ], [ -87.958922835986328, 41.994687452527437 ], [ -87.958873468164413, 41.994591189083962 ], [ -87.958836617825426, 41.994491855211614 ], [ -87.958812620081261, 41.994390354397233 ], [ -87.958801693139961, 41.99428760983276 ], [ -87.958803936323037, 41.994184556018169 ], [ -87.95881932916447, 41.994082130261702 ], [ -87.958847731599178, 41.993981264154748 ], [ -87.95888888523919, 41.993882875098933 ], [ -87.958942415725829, 41.993787857962268 ], [ -87.959007836136635, 41.993697076940613 ], [ -87.9590845514157, 41.993611357698065 ], [ -87.959171863787134, 41.993531479857936 ], [ -87.95946726594093, 41.993286114088484 ], [ -87.959484408112985, 41.993189292312969 ], [ -87.959516754830929, 41.99308600328159 ], [ -87.959562518687036, 41.992985577223379 ], [ -87.95962125878124, 41.992888981530641 ], [ -87.959692409222043, 41.992797146693967 ], [ -87.959775284579678, 41.992710957339405 ], [ -87.959869086490144, 41.992631243707741 ], [ -87.959972911346838, 41.992558773657606 ], [ -87.960085759005324, 41.992494245269739 ], [ -87.960206542417652, 41.992438280123274 ], [ -87.960334098103274, 41.992391417308959 ], [ -87.960467197355769, 41.992354108237102 ], [ -87.960604558077378, 41.992326712289767 ], [ -87.960744857127452, 41.992309493359627 ], [ -87.960886743066197, 41.992302617308283 ], [ -87.963593897301024, 41.992270718317286 ], [ -87.963735942322742, 41.992274244263285 ], [ -87.963876840684051, 41.992288136412725 ], [ -87.964015236342476, 41.992312261063283 ], [ -87.964149797338735, 41.99234638603221 ], [ -87.964279228614174, 41.992390182890666 ], [ -87.964402284473252, 41.992443230124174 ], [ -87.9645177805712, 41.992505017188854 ], [ -87.964624605311627, 41.992574949424466 ], [ -87.964721730544625, 41.992652353776911 ], [ -87.96480822146188, 41.992736485275231 ], [ -87.964883245594137, 41.992826534200802 ], [ -87.964946080824262, 41.992921633879703 ], [ -87.964996122338391, 41.993020869023283 ], [ -87.96503288844886, 41.993123284536878 ], [ -87.965056025232144, 41.993227894711602 ], [ -87.965065309937685, 41.993333692711047 ], [ -87.965068913674486, 41.993498592627162 ], [ -87.965064253592345, 41.993604589979221 ], [ -87.965045688917272, 41.993709736206256 ], [ -87.965013398363041, 41.993813018727394 ], [ -87.964970806792351, 41.993906600919196 ] ] ] } },
{ "type": "Feature", "properties": { "analysis_unit_id": "site_01928", "taxonomy_group_id": "industrial_park_warehouse_style_colo", "screening_geometry_basis": "reference_building_union_buffer", "buffer_m": 120, "screening_geometry_confidence": "low", "screening_area_m2": 110011.7, "overlap_with_other_screening_masks_m2": 0.0, "neighbor_contamination_flag": false }, "geometry": { "type": "Polygon", "coordinates": [ [ [ -87.647734941471228, 41.848898549534255 ], [ -87.647735104471124, 41.849072351207305 ], [ -87.647727959509837, 41.849180438738173 ], [ -87.647706393476241, 41.849287450176604 ], [ -87.647670622521616, 41.849392312617596 ], [ -87.647621005221495, 41.84949397469704 ], [ -87.64755803898305, 41.849591417133205 ], [ -87.647482355060404, 41.849683662946632 ], [ -87.647394712227495, 41.849769787256243 ], [ -87.647295989171909, 41.84984892655325 ], [ -87.647187175686014, 41.849920287359552 ], [ -87.647069362743494, 41.849983154184336 ], [ -87.646943731560881, 41.850036896698661 ], [ -87.646811541753763, 41.850080976056155 ], [ -87.646674118706414, 41.850114950296437 ], [ -87.646532840281537, 41.850138478777026 ], [ -87.646389123003445, 41.850151325589252 ], [ -87.645383206213083, 41.850203226569406 ], [ -87.645345151279244, 41.850203825437724 ], [ -87.645309319880326, 41.850207020710229 ], [ -87.644656808988998, 41.850240721346481 ], [ -87.64451562164048, 41.850242843246114 ], [ -87.644374831115584, 41.850234654618269 ], [ -87.644235781128685, 41.850216233615264 ], [ -87.644099798780019, 41.850187756047809 ], [ -87.643968181887885, 41.850149493706773 ], [ -87.643842186600637, 41.85010181176893 ], [ -87.643723015406508, 41.850045165311144 ], [ -87.643611805656136, 41.849980094966583 ], [ -87.643509618706886, 41.849907221764269 ], [ -87.643417429793189, 41.849827241201368 ], [ -87.643336118719048, 41.849740916604524 ], [ -87.643266461461948, 41.84964907184429 ], [ -87.643209122768113, 41.849552583471301 ], [ -87.643164649809691, 41.849452372350157 ], [ -87.643133466964528, 41.849349394870295 ], [ -87.643115871768089, 41.84924463381796 ], [ -87.643072881168266, 41.848822833218343 ], [ -87.643072364766269, 41.848817598801269 ], [ -87.643067165982259, 41.848763098728234 ], [ -87.643064055090761, 41.848656350795537 ], [ -87.643075046585707, 41.848549894272004 ], [ -87.643100033122721, 41.848444768150713 ], [ -87.643138770771685, 41.848341998435266 ], [ -87.643190881400031, 41.848242588126467 ], [ -87.643255856365514, 41.848147507433893 ], [ -87.643333061482579, 41.848057684307285 ], [ -87.643421743213437, 41.847973995380855 ], [ -87.643521036023685, 41.847897257418403 ], [ -87.643629970830347, 41.84782821934278 ], [ -87.643747484460107, 41.847767554927579 ], [ -87.643872430025283, 41.847715856222166 ], [ -87.644003588116263, 41.847673627774469 ], [ -87.644139678701293, 41.847641281707332 ], [ -87.64427937361755, 41.847619133697251 ], [ -87.644401567151832, 41.847604433041987 ], [ -87.644512932127739, 41.847590038949548 ], [ -87.644621025007467, 41.847574585128434 ], [ -87.644724820465527, 41.84755883687761 ], [ -87.64483385861179, 41.847540037215104 ], [ -87.644938670032502, 41.847521632136853 ], [ -87.645028397328687, 41.847503743269655 ], [ -87.645129966911554, 41.847481584103548 ], [ -87.645199870656711, 41.847465425909732 ], [ -87.645223216167537, 41.847460190419227 ], [ -87.6452610514893, 41.847451964731199 ], [ -87.645327672841134, 41.847413879517021 ], [ -87.64544678602158, 41.847358572289728 ], [ -87.645574584741524, 41.847305473071486 ], [ -87.645698103565962, 41.847259771673606 ], [ -87.645826881698895, 41.847223073337162 ], [ -87.64595974856887, 41.847195711641334 ], [ -87.646095496444204, 41.847177935296877 ], [ -87.646232891409539, 41.847169905885863 ], [ -87.646356389334812, 41.847167105947044 ], [ -87.646499115179296, 41.847169142950314 ], [ -87.646640876322849, 41.847181696306244 ], [ -87.646780290199573, 41.84720464358417 ], [ -87.646915997132609, 41.84723776098361 ], [ -87.647046673593096, 41.847280725516626 ], [ -87.647171045106504, 41.84733311815743 ], [ -87.647287898681256, 41.847394427928542 ], [ -87.647396094637756, 41.847464056883631 ], [ -87.647494577723165, 41.847541325938465 ], [ -87.64758238740302, 41.847625481493289 ], [ -87.647658667229805, 41.847715702781812 ], [ -87.647722673196654, 41.847811109875394 ], [ -87.64777378099501, 41.847910772264314 ], [ -87.647811492105347, 41.848013717932453 ], [ -87.647835438661247, 41.848118942836933 ], [ -87.647845387039766, 41.848225420700302 ], [ -87.647851592167498, 41.848453420587006 ], [ -87.647847454321052, 41.848560026779673 ], [ -87.647829284150532, 41.848665809003705 ], [ -87.647797258520313, 41.848769737198239 ], [ -87.647751689217017, 41.848870799351204 ], [ -87.647734941471228, 41.848898549534255 ] ] ] } },
{ "type": "Feature", "properties": { "analysis_unit_id": "site_01940", "taxonomy_group_id": "industrial_park_warehouse_style_colo", "screening_geometry_basis": "reference_building_union_buffer", "buffer_m": 120, "screening_geometry_confidence": "low", "screening_area_m2": 81250.9, "overlap_with_other_screening_masks_m2": 0.0, "neighbor_contamination_flag": false }, "geometry": { "type": "Polygon", "coordinates": [ [ [ -87.974717497901977, 41.812237930621897 ], [ -87.97473860915872, 41.812740030239702 ], [ -87.974736105769935, 41.812846100434335 ], [ -87.974719713714492, 41.812951475991781 ], [ -87.974689590870625, 41.81305514156368 ], [ -87.974646027423319, 41.813156098273431 ], [ -87.974589443070712, 41.813253373341261 ], [ -87.974520382982263, 41.813346029457875 ], [ -87.974439512547647, 41.813433173816648 ], [ -87.97434761096676, 41.813513966717039 ], [ -87.974245563742755, 41.813587629656347 ], [ -87.974134354150323, 41.813653452832021 ], [ -87.974015053761192, 41.813710801981799 ], [ -87.973888812118545, 41.813759124496194 ], [ -87.973816996416986, 41.813780255810485 ], [ -87.973705746415689, 41.813822814377851 ], [ -87.973573878551974, 41.813861597085364 ], [ -87.973437566316662, 41.813890528968436 ], [ -87.973298121068225, 41.813909331693289 ], [ -87.973156884310313, 41.813917824371366 ], [ -87.972474572865636, 41.813933724757234 ], [ -87.972332852356047, 41.813931822286342 ], [ -87.972192063254496, 41.813919538893956 ], [ -87.972053560970622, 41.813896992834465 ], [ -87.97191867889525, 41.813864401163201 ], [ -87.971788715561715, 41.813822077646599 ], [ -87.971664922143148, 41.813770429740977 ], [ -87.971548490405709, 41.813709954669463 ], [ -87.971440541234543, 41.813641234634488 ], [ -87.971342113842198, 41.813564931212142 ], [ -87.971254155764015, 41.813481778982428 ], [ -87.971177513736336, 41.813392578456671 ], [ -87.971112925545967, 41.813298188370162 ], [ -87.971061012928502, 41.813199517414468 ], [ -87.971022275584758, 41.813097515488941 ], [ -87.970997086372023, 41.812993164555444 ], [ -87.970985687716905, 41.812887469184773 ], [ -87.97096210030098, 41.812326168757764 ], [ -87.970964604873416, 41.812220113199544 ], [ -87.970980994079554, 41.812114752123769 ], [ -87.971011109978448, 41.812011100447812 ], [ -87.971054662406743, 41.811910156617991 ], [ -87.971111231776277, 41.811812892992101 ], [ -87.971180273118023, 41.811720246473413 ], [ -87.971261121333427, 41.811633109486387 ], [ -87.971352997602679, 41.811552321380951 ], [ -87.97145501688783, 41.811478660348101 ], [ -87.971566196458653, 41.811412835924678 ], [ -87.971685465359073, 41.811355482159506 ], [ -87.971811674722844, 41.811307151506746 ], [ -87.971943608839339, 41.811268309505081 ], [ -87.972079996862732, 41.811239330293994 ], [ -87.972219525051884, 41.81122049301058 ], [ -87.972360849423112, 41.811211979101145 ], [ -87.973228434871587, 41.811191679593179 ], [ -87.973370163294092, 41.811193568450754 ], [ -87.973510961987756, 41.811205839972359 ], [ -87.973649475323384, 41.811228376005381 ], [ -87.973784369672458, 41.811260959568955 ], [ -87.973914346245678, 41.81130327694278 ], [ -87.974038153596382, 41.811354920687336 ], [ -87.974154599668395, 41.811415393566158 ], [ -87.974262563272433, 41.811484113332838 ], [ -87.97436100488072, 41.811560418336228 ], [ -87.974448976635671, 41.8116435738904 ], [ -87.974525631476524, 41.811732779347516 ], [ -87.974590231295949, 41.811827175806172 ], [ -87.974642154048013, 41.811925854380405 ], [ -87.974680899739155, 41.812027864950267 ], [ -87.974706095244358, 41.812132225309398 ], [ -87.974717497901977, 41.812237930621897 ] ] ] } },
{ "type": "Feature", "properties": { "analysis_unit_id": "site_02009", "taxonomy_group_id": "industrial_park_warehouse_style_colo", "screening_geometry_basis": "reference_building_union_buffer", "buffer_m": 120, "screening_geometry_confidence": "low", "screening_area_m2": 135489.6, "overlap_with_other_screening_masks_m2": 53048.2, "neighbor_contamination_flag": true }, "geometry": { "type": "Polygon", "coordinates": [ [ [ -87.958808057691854, 41.993983704643867 ], [ -87.957678338581289, 41.993987804910027 ], [ -87.957536303748427, 41.993983115371712 ], [ -87.957395569126106, 41.993968062548745 ], [ -87.957257490197108, 41.993942791421453 ], [ -87.957123396862357, 41.99390754538743 ], [ -87.956994580630209, 41.993862663916929 ], [ -87.956872282175794, 41.993808579282799 ], [ -87.956757679390478, 41.993745812396575 ], [ -87.956651876036091, 41.993674967790739 ], [ -87.956555891113879, 41.993596727795456 ], [ -87.956470649050132, 41.993511845966175 ], [ -87.956396970793222, 41.993421139825074 ], [ -87.956335565907779, 41.993325482986563 ], [ -87.956287025742043, 41.993225796742678 ], [ -87.956251817734227, 41.993123041189257 ], [ -87.956230280912678, 41.993018205978593 ], [ -87.956222622632907, 41.992912300787687 ], [ -87.956219072127425, 41.992360938302291 ], [ -87.956194526984817, 41.99233648686775 ], [ -87.956120884603251, 41.99224578874508 ], [ -87.956059511743021, 41.992150143267231 ], [ -87.956029732260589, 41.992088959506866 ], [ -87.956026567297528, 41.992085805194705 ], [ -87.955952967682506, 41.991995120524962 ], [ -87.955891632251621, 41.991899492724471 ], [ -87.955843151147974, 41.991799841969446 ], [ -87.955807990817149, 41.991697127142679 ], [ -87.955786489520975, 41.99159233660621 ], [ -87.955778854084912, 41.991486478690554 ], [ -87.955777558755798, 41.991280478626138 ], [ -87.955783867587201, 41.991174531989479 ], [ -87.955804065352467, 41.991069556749231 ], [ -87.955837957489777, 41.990966563761958 ], [ -87.95588521757179, 41.990866544791373 ], [ -87.955945390451234, 41.990770462958437 ], [ -87.956017896646017, 41.990679243467746 ], [ -87.956102037920942, 41.990593764698779 ], [ -87.956197004012807, 41.99051484974845 ], [ -87.956301880433642, 41.990443258505977 ], [ -87.956415657277162, 41.990379680336453 ], [ -87.956537238943469, 41.9903247274436 ], [ -87.956665454688462, 41.990278928975428 ], [ -87.956799069896405, 41.990242725929697 ], [ -87.956936797967003, 41.990216466908088 ], [ -87.957077312702836, 41.99020040475996 ], [ -87.957219261077597, 41.990194694148094 ], [ -87.958783334621373, 41.990189094515266 ], [ -87.958925350189176, 41.990193788512592 ], [ -87.959066065340934, 41.990208843876466 ], [ -87.959204125115392, 41.990234115636525 ], [ -87.959338200116534, 41.990269360447499 ], [ -87.959466999312781, 41.990314238932072 ], [ -87.959589282466993, 41.990368318948342 ], [ -87.959703872077682, 41.990431079750465 ], [ -87.959809664716559, 41.990501917002348 ], [ -87.959905641653251, 41.99058014859623 ], [ -87.959990878664939, 41.990665021220146 ], [ -87.960064554936423, 41.990755717610988 ], [ -87.960125960964916, 41.99085136442347 ], [ -87.960174505393482, 41.99095104063921 ], [ -87.96020972070724, 41.991053786434954 ], [ -87.960231267737228, 41.991158612424627 ], [ -87.960238938928882, 41.99126450918623 ], [ -87.96024967596145, 41.992897708669034 ], [ -87.960243396482909, 41.993003662821245 ], [ -87.960223225592486, 41.993108647599719 ], [ -87.960189357484154, 41.993211651916425 ], [ -87.960142118271236, 41.993311683751969 ], [ -87.960081962847951, 41.993407779709969 ], [ -87.960009470510641, 41.993499014295701 ], [ -87.959925339380405, 41.993584508830189 ], [ -87.959830379680952, 41.993663439913313 ], [ -87.959725505936447, 41.993735047354754 ], [ -87.959611728164191, 41.993798641496042 ], [ -87.959490142147331, 41.993853609853609 ], [ -87.959361918880816, 41.99389942301832 ], [ -87.959228293292725, 41.993935639754966 ], [ -87.959090552349338, 41.993961911252491 ], [ -87.958950022658641, 41.993977984483948 ], [ -87.958808057691854, 41.993983704643867 ] ] ] } },
{ "type": "Feature", "properties": { "analysis_unit_id": "site_02019", "taxonomy_group_id": "industrial_park_warehouse_style_colo", "screening_geometry_basis": "reference_building_union_buffer", "buffer_m": 120, "screening_geometry_confidence": "low", "screening_area_m2": 135645.8, "overlap_with_other_screening_masks_m2": 0.0, "neighbor_contamination_flag": false }, "geometry": { "type": "Polygon", "coordinates": [ [ [ -87.975036479516106, 41.995018049727349 ], [ -87.972114630183583, 41.995081951314688 ], [ -87.971972499289905, 41.995079852697991 ], [ -87.971831328425012, 41.995067372731043 ], [ -87.971692476944, 41.995044631584555 ], [ -87.971557281865174, 41.995011848235556 ], [ -87.971427044993803, 41.99496933835853 ], [ -87.971303020385363, 41.99491751128528 ], [ -87.971186402268856, 41.994856866062968 ], [ -87.971078313546414, 41.994787986648113 ], [ -87.970979794980451, 41.994711536282914 ], [ -87.970891795171923, 41.99462825110826 ], [ -87.970815161426728, 41.994538933074551 ], [ -87.970750631597795, 41.994444442219105 ], [ -87.970698826981661, 41.994345688384279 ], [ -87.970660246337715, 41.99424362245594 ], [ -87.970635261087764, 41.994139227207171 ], [ -87.970624111741984, 41.994033507834878 ], [ -87.970600025556806, 41.993423107389404 ], [ -87.970602824752547, 41.993317024203527 ], [ -87.970619555127371, 41.993211657058104 ], [ -87.970650055347093, 41.993108021597465 ], [ -87.970694031352281, 41.993007116769078 ], [ -87.970751059195095, 41.992909915195177 ], [ -87.970820589127925, 41.992817353797861 ], [ -87.970901950904505, 41.99273032476875 ], [ -87.970994360241676, 41.992649666969847 ], [ -87.97109692638044, 41.992576157848525 ], [ -87.971208660672303, 41.992510505944523 ], [ -87.971328486109172, 41.992453344061289 ], [ -87.971455247704043, 41.992405223167196 ], [ -87.971587723623074, 41.992366607085607 ], [ -87.971696462805696, 41.992343781991217 ], [ -87.971720261067148, 41.992337816430897 ], [ -87.971869707650399, 41.992313067388658 ], [ -87.972021820586576, 41.992300220964012 ], [ -87.972046420173299, 41.992299120986708 ], [ -87.972198513102114, 41.992298287027964 ], [ -87.972349885015149, 41.992309353409055 ], [ -87.972352389033347, 41.992309737373219 ], [ -87.974595504270383, 41.992265338630233 ], [ -87.974611831748831, 41.992262168739856 ], [ -87.974758332630515, 41.992245400196126 ], [ -87.974906363440013, 41.992239886143274 ], [ -87.975054374739472, 41.992245684296066 ], [ -87.975200817295516, 41.992262733964417 ], [ -87.975344158292515, 41.992290856688584 ], [ -87.975482897374263, 41.992329758106862 ], [ -87.975518296922544, 41.992341257935053 ], [ -87.975631218902265, 41.992382375556588 ], [ -87.975738939978115, 41.992430638331015 ], [ -87.975840649734394, 41.992485683168979 ], [ -87.975871549573824, 41.992503982930806 ], [ -87.975976892179929, 41.99257281667019 ], [ -87.976072833780577, 41.992648916423256 ], [ -87.976158477854099, 41.99273157110639 ], [ -87.976233024090561, 41.992820008383276 ], [ -87.976295775870852, 41.992913401881232 ], [ -87.976346146777146, 41.993010878912173 ], [ -87.97638366607417, 41.993111528626685 ], [ -87.976407983109738, 41.993214410524814 ], [ -87.976418870593392, 41.993318563243932 ], [ -87.976442083887562, 41.993905962814281 ], [ -87.976439294557309, 41.994012007400052 ], [ -87.976422583915976, 41.994117337295343 ], [ -87.976392112855152, 41.994220937943489 ], [ -87.976348174812856, 41.994321811439349 ], [ -87.976291192949489, 41.994418986141717 ], [ -87.976221716074207, 41.994511526032788 ], [ -87.976140413360454, 41.99459853973476 ], [ -87.976048067901772, 41.994679189096459 ], [ -87.975945569170023, 41.994752697267522 ], [ -87.975833904448251, 41.994818356182016 ], [ -87.975714149320993, 41.994875533379634 ], [ -87.975587457313495, 41.994923678098573 ], [ -87.975455048779807, 41.994962326581472 ], [ -87.9753181991465, 41.994991106543196 ], [ -87.975178226625815, 41.995009740757396 ], [ -87.975036479516106, 41.995018049727349 ] ] ] } },
{ "type": "Feature", "properties": { "analysis_unit_id": "site_02031", "taxonomy_group_id": "industrial_park_warehouse_style_colo", "screening_geometry_basis": "reference_building_union_buffer", "buffer_m": 120, "screening_geometry_confidence": "low", "screening_area_m2": 98566.9, "overlap_with_other_screening_masks_m2": 0.0, "neighbor_contamination_flag": false }, "geometry": { "type": "Polygon", "coordinates": [ [ [ -87.860646452772215, 41.929640137491674 ], [ -87.860627791126134, 41.929649062461628 ], [ -87.860501448073919, 41.929697176875322 ], [ -87.860369405087695, 41.929735825994236 ], [ -87.860232930187465, 41.92976463866448 ], [ -87.860093333959824, 41.929783338192586 ], [ -87.85995195697069, 41.929791745003016 ], [ -87.858852438449773, 41.929816745592753 ], [ -87.858710447753126, 41.929814767950788 ], [ -87.858569400238693, 41.929802407967877 ], [ -87.858430654058182, 41.929779784658145 ], [ -87.858422881846138, 41.929777905372724 ], [ -87.858367819336578, 41.929768917043994 ], [ -87.858232704894007, 41.929736219513231 ], [ -87.858102533207628, 41.929693789635259 ], [ -87.857978557994301, 41.929642036065836 ], [ -87.857884441307718, 41.929593131931391 ], [ -87.857819388808693, 41.929565929485626 ], [ -87.857702894914638, 41.9295053080522 ], [ -87.85759491684388, 41.929436454007224 ], [ -87.857496493921133, 41.929360030111305 ], [ -87.85740857348722, 41.92927677198697 ], [ -87.857332001780719, 41.929187481037197 ], [ -87.857267515793367, 41.929093016730683 ], [ -87.857215736177437, 41.928994288328454 ], [ -87.857177161273285, 41.928892246131227 ], [ -87.857152162314705, 41.928787872331803 ], [ -87.857140979857945, 41.928682171560752 ], [ -87.857114494843344, 41.928017871091257 ], [ -87.857117239794377, 41.927911824692593 ], [ -87.857133891639606, 41.927806489929054 ], [ -87.857164289924896, 41.927702881356183 ], [ -87.85720814179777, 41.927601996898424 ], [ -87.857265024830525, 41.927504808237842 ], [ -87.85733439109103, 41.9274122514556 ], [ -87.857415572422212, 41.927325218016442 ], [ -87.857507786878998, 41.927244546183331 ], [ -87.857610146260711, 41.927171012944214 ], [ -87.85772166466657, 41.927105326529286 ], [ -87.857841267991517, 41.927048119590474 ], [ -87.857967804271198, 41.926999943108747 ], [ -87.85810005477633, 41.926961261088245 ], [ -87.858236745749764, 41.926932446087726 ], [ -87.85837656067298, 41.926913775632947 ], [ -87.858518152944427, 41.926905429544121 ], [ -87.859009744663453, 41.926894529803114 ], [ -87.859156080687427, 41.926896814560749 ], [ -87.859301359305121, 41.926910125574736 ], [ -87.8594440945717, 41.926934326696092 ], [ -87.85958282655271, 41.926969170389086 ], [ -87.859673862911407, 41.926999989320308 ], [ -87.859875242662, 41.926995201228074 ], [ -87.860017234645042, 41.926997030898164 ], [ -87.860158302905702, 41.927009244121805 ], [ -87.860297089150478, 41.927031723301774 ], [ -87.860432257055407, 41.92706425199372 ], [ -87.860562505131313, 41.927106516989838 ], [ -87.860686579253723, 41.927158111334315 ], [ -87.860803284737187, 41.927218538241171 ], [ -87.860911497837563, 41.927287215877151 ], [ -87.861010176571767, 41.927363482963251 ], [ -87.861098370750568, 41.92744660514127 ], [ -87.861175231128215, 41.927535782044131 ], [ -87.861240017580485, 41.927630155001758 ], [ -87.861292106232384, 41.927728815308207 ], [ -87.861330995467128, 41.927830812971095 ], [ -87.861356310758111, 41.927935165858365 ], [ -87.861367808277549, 41.928040869154898 ], [ -87.861394322242006, 41.928660068694278 ], [ -87.861391897151961, 41.928766038044742 ], [ -87.861375584115919, 41.928871320459123 ], [ -87.861345539949383, 41.928974903429683 ], [ -87.861302053524554, 41.9290757907875 ], [ -87.861245542994624, 41.92917301228303 ], [ -87.861176551774605, 41.929265632917598 ], [ -87.861095743317051, 41.929352761935888 ], [ -87.861003894733116, 41.929433561393253 ], [ -87.860901889319962, 41.929507254215153 ], [ -87.860790708066617, 41.929573131671177 ], [ -87.860671420219674, 41.929630560191939 ], [ -87.860646452772215, 41.929640137491674 ] ] ] } },
{ "type": "Feature", "properties": { "analysis_unit_id": "site_02109", "taxonomy_group_id": "industrial_park_warehouse_style_colo", "screening_geometry_basis": "reference_building_union_buffer", "buffer_m": 120, "screening_geometry_confidence": "low", "screening_area_m2": 166608.0, "overlap_with_other_screening_masks_m2": 0.0, "neighbor_contamination_flag": false }, "geometry": { "type": "Polygon", "coordinates": [ [ [ -88.096050417059388, 41.804227828490724 ], [ -88.09385968031151, 41.804272329670077 ], [ -88.093717982288766, 41.804270001757423 ], [ -88.093577271406701, 41.804257294080053 ], [ -88.093438902573652, 41.804234328999655 ], [ -88.093304208143152, 41.804201327646631 ], [ -88.093174485082884, 41.804158607790391 ], [ -88.093050982484698, 41.804106580779298 ], [ -88.092934889535755, 41.804045747579195 ], [ -88.092827324067088, 41.803976693948997 ], [ -88.092729321789477, 41.803900084799857 ], [ -88.092641826320673, 41.803816657792012 ], [ -88.092565680099796, 41.803727216231266 ], [ -88.092501616276422, 41.803632621333293 ], [ -88.092450251652551, 41.803533783930561 ], [ -88.092412080745163, 41.803431655701523 ], [ -88.092387471026669, 41.803327220006572 ], [ -88.092376659388947, 41.803221482419275 ], [ -88.092316196563104, 41.80156318122301 ], [ -88.09231928959079, 41.801457133758859 ], [ -88.092336261351818, 41.801351823963728 ], [ -88.092366948285473, 41.801248266311909 ], [ -88.092411054713153, 41.801147458394006 ], [ -88.092468155689033, 41.801050371307326 ], [ -88.092537701095893, 41.800957940301508 ], [ -88.092619020946373, 41.800871055769733 ], [ -88.09271133183853, 41.800790554672083 ], [ -88.092813744503516, 41.800717212473835 ], [ -88.092925272372653, 41.800651735676077 ], [ -88.093044841081166, 41.800594755010749 ], [ -88.093171298817339, 41.800546819365692 ], [ -88.09330342741714, 41.800508390497775 ], [ -88.093439954097605, 41.800479838585602 ], [ -88.093579563716077, 41.800461438664087 ], [ -88.093720911437018, 41.800453367975543 ], [ -88.095911574693019, 41.800408969153168 ], [ -88.096053260730287, 41.800411300705569 ], [ -88.096193959346721, 41.800424011168289 ], [ -88.096332315949041, 41.800446978168914 ], [ -88.096466998488793, 41.800479980588946 ], [ -88.096596710285141, 41.800522700692113 ], [ -88.096720202507242, 41.800574727183225 ], [ -88.096836286196293, 41.800635559167368 ], [ -88.096943843711614, 41.800704610971763 ], [ -88.097041839490359, 41.800781217783744 ], [ -88.097129330017651, 41.800864642050776 ], [ -88.097205472910886, 41.800954080580638 ], [ -88.097269535030847, 41.801048672273708 ], [ -88.097320899541572, 41.801147506412761 ], [ -88.09735907185069, 41.801249631430757 ], [ -88.09738368437354, 41.801354064071823 ], [ -88.097394500074302, 41.801459798857714 ], [ -88.097455037245908, 41.803117997659584 ], [ -88.097451949833527, 41.803224039391914 ], [ -88.09743498470975, 41.803329343961863 ], [ -88.097404305220095, 41.803432897043891 ], [ -88.097360206814585, 41.803533701178473 ], [ -88.097303114204323, 41.803630785380307 ], [ -88.097233577272675, 41.803723214491647 ], [ -88.097152265780494, 41.80381009819056 ], [ -88.097059962916219, 41.803890599567715 ], [ -88.096957557752901, 41.803963943188485 ], [ -88.096846036684937, 41.804029422563175 ], [ -88.096726473926751, 41.804086406952997 ], [ -88.096600021165116, 41.804134347446556 ], [ -88.096467896464745, 41.804172782247903 ], [ -88.096331372534024, 41.804201341125584 ], [ -88.096191764464137, 41.804219748979371 ], [ -88.096050417059388, 41.804227828490724 ] ] ] } },
{ "type": "Feature", "properties": { "analysis_unit_id": "site_02132", "taxonomy_group_id": "large_purpose_built_data_center", "screening_geometry_basis": "reference_building_union_buffer", "buffer_m": 120, "screening_geometry_confidence": "low", "screening_area_m2": 163389.0, "overlap_with_other_screening_masks_m2": 0.0, "neighbor_contamination_flag": false }, "geometry": { "type": "Polygon", "coordinates": [ [ [ -87.919539236081604, 41.921075477722461 ], [ -87.919631387127552, 41.92110837440692 ], [ -87.919752892802251, 41.921163272327135 ], [ -87.919866608650608, 41.921226800428663 ], [ -87.919971439537264, 41.921298346919833 ], [ -87.920066375881419, 41.921377222787861 ], [ -87.920150503379503, 41.921462668433534 ], [ -87.920223011810677, 41.921553860985568 ], [ -87.920283202840594, 41.92164992222461 ], [ -87.920330496748008, 41.921749927039954 ], [ -87.920364438009557, 41.92185291233838 ], [ -87.920384699688711, 41.92195788631858 ], [ -87.92039108658679, 41.922063838022417 ], [ -87.920379434580283, 41.924187337689609 ], [ -87.920371876839326, 41.924293305426801 ], [ -87.920350439574065, 41.924398208790741 ], [ -87.920315329402399, 41.924501036364887 ], [ -87.920266884772516, 41.924600796741537 ], [ -87.92020557270223, 41.924696528080595 ], [ -87.920131984278299, 41.924787307383767 ], [ -87.920046828959315, 41.924872259394149 ], [ -87.91995092773675, 41.924950565035829 ], [ -87.919845205220327, 41.925021469311709 ], [ -87.919730680723816, 41.92508428858379 ], [ -87.91960845843721, 41.925138417165186 ], [ -87.919479716780103, 41.925183333160895 ], [ -87.91934569703885, 41.925218603500262 ], [ -87.919207691397276, 41.925243888113243 ], [ -87.919067030476256, 41.925258943209748 ], [ -87.918925070502297, 41.92526362363057 ], [ -87.918817868692756, 41.925263223641899 ], [ -87.918675986433456, 41.925257484745288 ], [ -87.918535541734457, 41.9252413825498 ], [ -87.91850990805618, 41.925236483085193 ], [ -87.917576664163747, 41.925233628257352 ], [ -87.917434846601608, 41.925227989694299 ], [ -87.917294452048111, 41.925211997288109 ], [ -87.91715683264168, 41.92518580506087 ], [ -87.917023313789457, 41.925149665268876 ], [ -87.916895181400704, 41.925103925972856 ], [ -87.91677366950077, 41.925049027685297 ], [ -87.916659948345014, 41.924985499127395 ], [ -87.916555113147453, 41.924913952136329 ], [ -87.916460173532442, 41.924835075771981 ], [ -87.916376043811312, 41.924749629680008 ], [ -87.916303534177132, 41.924658436775069 ], [ -87.916243342903115, 41.924562375314778 ], [ -87.91619604961889, 41.924462370440736 ], [ -87.916162109730251, 41.924359385268261 ], [ -87.916141850035245, 41.924254411610342 ], [ -87.916135465579359, 41.924148460425535 ], [ -87.916148820336815, 41.921725660047571 ], [ -87.916156371776367, 41.921619755475582 ], [ -87.916177785550715, 41.921514913585277 ], [ -87.916212855382909, 41.921412143978522 ], [ -87.916261243495754, 41.921312436296844 ], [ -87.916322483866765, 41.921216750691777 ], [ -87.916395986718058, 41.921126008579321 ], [ -87.916481044197369, 41.921041083767733 ], [ -87.91657683719589, 41.920962794043668 ], [ -87.916682443236951, 41.920891893297991 ], [ -87.916796845359485, 41.920829064266954 ], [ -87.916918941910993, 41.920774911958475 ], [ -87.917047557155513, 41.920729957826993 ], [ -87.917181452594477, 41.92069463475287 ], [ -87.91731933889163, 41.92066928287452 ], [ -87.91745988828697, 41.920654146313616 ], [ -87.917601747380587, 41.920649370824691 ], [ -87.918397933942629, 41.920651770918319 ], [ -87.918539751302475, 41.9206574026136 ], [ -87.918680146581295, 41.920673389259669 ], [ -87.918817767585921, 41.920699576883266 ], [ -87.918951288839352, 41.920735713262033 ], [ -87.919079424345085, 41.920781450353353 ], [ -87.919200939971589, 41.920836347646123 ], [ -87.919314665337438, 41.920899876402792 ], [ -87.919419505083027, 41.920971424751336 ], [ -87.919514449420006, 41.921050303577651 ], [ -87.919539236081604, 41.921075477722461 ] ] ] } },
{ "type": "Feature", "properties": { "analysis_unit_id": "site_02186", "taxonomy_group_id": "industrial_park_warehouse_style_colo", "screening_geometry_basis": "reference_building_union_buffer", "buffer_m": 120, "screening_geometry_confidence": "low", "screening_area_m2": 165601.5, "overlap_with_other_screening_masks_m2": 78159.2, "neighbor_contamination_flag": true }, "geometry": { "type": "Polygon", "coordinates": [ [ [ -87.96704602985875, 41.995622837381219 ], [ -87.96704488173053, 41.995626593205344 ], [ -87.966999838278724, 41.995727185521808 ], [ -87.966941794109644, 41.995824000015062 ], [ -87.966871308166589, 41.995916104301614 ], [ -87.96678905922326, 41.996002611356261 ], [ -87.966695839348333, 41.996082688055253 ], [ -87.966592546278349, 41.99615556320061 ], [ -87.966480174772556, 41.996220534948044 ], [ -87.966359807032887, 41.996276977566971 ], [ -87.966232602281195, 41.996324347467564 ], [ -87.966099785594366, 41.996362188436613 ], [ -87.965962636104777, 41.996390136031863 ], [ -87.965822474679669, 41.996407921092441 ], [ -87.965680651198383, 41.996415372331498 ], [ -87.964183525898264, 41.996439072991507 ], [ -87.964041211629635, 41.996436105587669 ], [ -87.963899975003216, 41.996422732694356 ], [ -87.963803884500138, 41.996406359884958 ], [ -87.963682328337924, 41.996394852989368 ], [ -87.963543751457067, 41.996371261227175 ], [ -87.963408940801102, 41.996337653165327 ], [ -87.963279194074289, 41.996294352320056 ], [ -87.963155760228005, 41.996241775511365 ], [ -87.963039827436816, 41.996180428850032 ], [ -87.962932511660057, 41.996110902865155 ], [ -87.962834845899081, 41.996033866818962 ], [ -87.962747770253415, 41.995950062263724 ], [ -87.962672122871822, 41.995860295902773 ], [ -87.962608631885004, 41.995765431824488 ], [ -87.962557908398111, 41.995666383183959 ], [ -87.962520440609921, 41.995564103412327 ], [ -87.962496589115503, 41.995459577038758 ], [ -87.962486583437496, 41.995353810213103 ], [ -87.962457406498118, 41.994335809609105 ], [ -87.962461348993983, 41.994229761296523 ], [ -87.962479210841096, 41.994124512304559 ], [ -87.962510819847125, 41.994021076855702 ], [ -87.962555871350162, 41.993920451691508 ], [ -87.962613931157094, 41.99382360646802 ], [ -87.962646749159248, 41.993780723919038 ], [ -87.962635625453146, 41.993391121994811 ], [ -87.96263957646778, 41.993285102475028 ], [ -87.962657439060351, 41.993179882411205 ], [ -87.962689041124236, 41.993076475200091 ], [ -87.962734078228777, 41.992975876773592 ], [ -87.962792116553757, 41.992879056007176 ], [ -87.962862597069801, 41.992786945388822 ], [ -87.962944840924266, 41.992700432038795 ], [ -87.963038055980959, 41.992620349166302 ], [ -87.963141344450207, 41.992547468045629 ], [ -87.963253711536183, 41.992482490588714 ], [ -87.963374075017924, 41.992426042585791 ], [ -87.96350127567186, 41.992378667679311 ], [ -87.963634088435469, 41.992340822128739 ], [ -87.963771234204643, 41.992312870417102 ], [ -87.963911392151104, 41.992295081741162 ], [ -87.964053212441357, 41.992287627419266 ], [ -87.965345490605046, 41.992267127989606 ], [ -87.965487588028452, 41.992270077099306 ], [ -87.96562861394878, 41.992283401114598 ], [ -87.965767210545522, 41.992306971749002 ], [ -87.965902043384787, 41.992340562059809 ], [ -87.966031814265705, 41.992383848632763 ], [ -87.966155273718101, 41.992436414695618 ], [ -87.966271233031449, 41.992497754130298 ], [ -87.966378575699153, 41.992567276345397 ], [ -87.966476268168066, 41.992644311961726 ], [ -87.966563369789782, 41.992728119256626 ], [ -87.966618023172984, 41.992792956221024 ], [ -87.966724915942038, 41.992838480217415 ], [ -87.966840865899016, 41.992899828888717 ], [ -87.966948198058176, 41.992969359499931 ], [ -87.967045878982773, 41.993046402600896 ], [ -87.967132968149429, 41.993130216407863 ], [ -87.967208627004027, 41.993219993944706 ], [ -87.967272127036424, 41.993314870811972 ], [ -87.967322856795903, 41.993413933508833 ], [ -87.967360327780241, 41.993516228227946 ], [ -87.967384179141106, 41.99362077003849 ], [ -87.96739418116077, 41.993726552369054 ], [ -87.967426907075065, 41.994870551690362 ], [ -87.967422961592121, 41.994976573519118 ], [ -87.967405103462056, 41.995081796257871 ], [ -87.967373504621534, 41.995185206428758 ], [ -87.967328469357753, 41.995285808007282 ], [ -87.9672704313803, 41.995382632016003 ], [ -87.96719994964576, 41.995474745858111 ], [ -87.967117702975898, 41.995561262300583 ], [ -87.96704602985875, 41.995622837381219 ] ] ] } },
{ "type": "Feature", "properties": { "analysis_unit_id": "site_02187", "taxonomy_group_id": "industrial_park_warehouse_style_colo", "screening_geometry_basis": "reference_building_union_buffer", "buffer_m": 120, "screening_geometry_confidence": "low", "screening_area_m2": 157033.7, "overlap_with_other_screening_masks_m2": 64833.7, "neighbor_contamination_flag": true }, "geometry": { "type": "Polygon", "coordinates": [ [ [ -87.960064143346884, 41.9943921654476 ], [ -87.960067142367521, 41.994530881701053 ], [ -87.96006245677556, 41.994636883650955 ], [ -87.960043865209016, 41.99474203252786 ], [ -87.960011546657952, 41.994845315627003 ], [ -87.959965812322949, 41.994945738208386 ], [ -87.959907102620249, 41.99504233307762 ], [ -87.9598541978893, 41.99511064897375 ], [ -87.959862668154429, 41.99550625005228 ], [ -87.959857960159539, 41.995612253186458 ], [ -87.959839345698938, 41.995717401586639 ], [ -87.959807003989084, 41.995820682519259 ], [ -87.959761246463856, 41.995921101232405 ], [ -87.959702513777387, 41.996017690537023 ], [ -87.959631371562097, 41.99610952012295 ], [ -87.959548504982621, 41.99619570551981 ], [ -87.959454712138097, 41.996275416616541 ], [ -87.959350896376122, 41.996347885657443 ], [ -87.959238057592756, 41.996412414637817 ], [ -87.959117282601952, 41.996468382027537 ], [ -87.958989734667227, 41.996515248758449 ], [ -87.958856642296794, 41.996552563417005 ], [ -87.958719287409593, 41.996579966593011 ], [ -87.95857899298673, 41.99659719434181 ], [ -87.958437110326898, 41.996604080726961 ], [ -87.957187489199768, 41.996618881193022 ], [ -87.957045393380525, 41.996615358858747 ], [ -87.956904444642291, 41.996601463991581 ], [ -87.956766000425475, 41.996577330408684 ], [ -87.956631394046639, 41.99654319053348 ], [ -87.956501921855974, 41.996499373156887 ], [ -87.956378830750907, 41.996446300270485 ], [ -87.956263306166463, 41.996384483001854 ], [ -87.956156460657752, 41.996314516691449 ], [ -87.956059323184988, 41.996237075158433 ], [ -87.955972829203859, 41.996152904210568 ], [ -87.955897811657024, 41.99606281446102 ], [ -87.955834992953356, 41.995967673520873 ], [ -87.955784978012019, 41.995868397643051 ], [ -87.955748248438582, 41.995765942897606 ], [ -87.955725157888963, 41.995661295963991 ], [ -87.95571592866601, 41.995555464628467 ], [ -87.955714741441383, 41.995499681196598 ], [ -87.955699197497978, 41.995484548781242 ], [ -87.955624214578947, 41.995394466324512 ], [ -87.955561426945636, 41.995299335963303 ], [ -87.955511438995359, 41.995200073511214 ], [ -87.955474731896501, 41.995097634557048 ], [ -87.955451658958438, 41.994993005264902 ], [ -87.955442442232595, 41.994887192880142 ], [ -87.95541437224945, 41.993562692219804 ], [ -87.955419104083489, 41.993456681912825 ], [ -87.955437743664348, 41.993351528220686 ], [ -87.955470111373543, 41.993248244062102 ], [ -87.955515895356896, 41.993147824342287 ], [ -87.955574654530906, 41.993051236369432 ], [ -87.955645822833844, 41.992959410537622 ], [ -87.955728714680163, 41.992873231365117 ], [ -87.955822531566056, 41.992793528974836 ], [ -87.955926369762196, 41.992721071098899 ], [ -87.956039229019467, 41.992656555684157 ], [ -87.956160022204088, 41.99260060416993 ], [ -87.95628758576909, 41.99255375550289 ], [ -87.95642069096138, 41.992516460946305 ], [ -87.956558055656515, 41.992489079733886 ], [ -87.956698356707079, 41.992471875610079 ], [ -87.956840242686155, 41.992465014289955 ], [ -87.95833911734681, 41.992447514844606 ], [ -87.958481177726583, 41.992451057856698 ], [ -87.95862208892818, 41.99246496921684 ], [ -87.958760494487848, 41.992489115008439 ], [ -87.958895062058616, 41.992523262794286 ], [ -87.959024496234278, 41.992567083853807 ], [ -87.95914755101785, 41.992620156347023 ], [ -87.959183891331435, 41.992639606448996 ], [ -87.959225589091432, 41.992653734379672 ], [ -87.959348660087215, 41.992706852973136 ], [ -87.959464158383724, 41.992768715721859 ], [ -87.959570971417847, 41.992838726730767 ], [ -87.959668070277786, 41.992916211614464 ], [ -87.959754519614066, 41.993000423992598 ], [ -87.959829486649824, 41.99309055267873 ], [ -87.959837108555178, 41.993102110999985 ], [ -87.959895610030188, 41.993172412961805 ], [ -87.959958340302137, 41.993267466315409 ], [ -87.960008292783286, 41.993366645023876 ], [ -87.960044987335095, 41.993468995909915 ], [ -87.96006807123139, 41.99357353530489 ], [ -87.960077322550589, 41.993679258502162 ], [ -87.960088133867941, 41.994178658250121 ], [ -87.960083436343638, 41.994284796660615 ], [ -87.960064797178831, 41.994390078706829 ], [ -87.960064143346884, 41.9943921654476 ] ] ] } },
{ "type": "Feature", "properties": { "analysis_unit_id": "site_02253", "taxonomy_group_id": "large_purpose_built_data_center", "screening_geometry_basis": "reference_building_union_buffer", "buffer_m": 120, "screening_geometry_confidence": "low", "screening_area_m2": 165281.4, "overlap_with_other_screening_masks_m2": 0.0, "neighbor_contamination_flag": false }, "geometry": { "type": "Polygon", "coordinates": [ [ [ -87.96589090027949, 42.008343385426599 ], [ -87.963502638106135, 42.00837702161212 ], [ -87.96336093023146, 42.008373842458845 ], [ -87.963220317193006, 42.0083603504495 ], [ -87.963082145052525, 42.008336674739859 ], [ -87.962947736502286, 42.008303041972148 ], [ -87.962818378201277, 42.008259774105184 ], [ -87.962695308456944, 42.008207285331949 ], [ -87.962579705369734, 42.008146078114024 ], [ -87.962472675554721, 42.008076738371102 ], [ -87.96237524354774, 42.007999929871374 ], [ -87.962288341997777, 42.007916387876911 ], [ -87.962212802739515, 42.00782691210437 ], [ -87.962149348831232, 42.007732359068996 ], [ -87.962098587634685, 42.007633633884822 ], [ -87.962061005002681, 42.007531681599907 ], [ -87.9620369606303, 42.007427478149232 ], [ -87.962026684614003, 42.007322021012314 ], [ -87.961999004427327, 42.00644772046094 ], [ -87.962002696377041, 42.006341010177856 ], [ -87.962020485013696, 42.006235092082946 ], [ -87.96205219671954, 42.006130999526199 ], [ -87.962097522045497, 42.006029748042458 ], [ -87.9621560187326, 42.005932325444057 ], [ -87.962227116029112, 42.005839682184209 ], [ -87.962310120260611, 42.00575272208485 ], [ -87.962404221599087, 42.005672293519773 ], [ -87.962508501964678, 42.005599181138606 ], [ -87.962621943983066, 42.005534098212649 ], [ -87.96274344091097, 42.005477679677099 ], [ -87.962871807433146, 42.005430475937516 ], [ -87.963005791225243, 42.005392947500837 ], [ -87.963144085170157, 42.005365460483453 ], [ -87.963285340108399, 42.005348283039964 ], [ -87.963428177998424, 42.005341582747597 ], [ -87.966863619884947, 42.005307183928196 ], [ -87.967005277776821, 42.005310934946294 ], [ -87.967145766492223, 42.005324991296021 ], [ -87.967283741632883, 42.005349218465291 ], [ -87.967417882850611, 42.005383384612898 ], [ -87.967546906480578, 42.005427162786695 ], [ -87.967669577823742, 42.005480134052007 ], [ -87.967784722961085, 42.00554179150005 ], [ -87.967891239986599, 42.005611545098176 ], [ -87.967988109551513, 42.005688727335595 ], [ -87.968074404619017, 42.00577259961031 ], [ -87.968149299336076, 42.005862359296657 ], [ -87.968212076937405, 42.005957147425313 ], [ -87.968262136605929, 42.006056056902722 ], [ -87.968298999224174, 42.006158141191143 ], [ -87.968322311961316, 42.006262423366181 ], [ -87.968331851651925, 42.006367905465467 ], [ -87.968354672601407, 42.007291904962109 ], [ -87.968350402605211, 42.007397063373574 ], [ -87.968332443185375, 42.007501413837893 ], [ -87.968300964475503, 42.007603967432878 ], [ -87.96825626473418, 42.007703752260518 ], [ -87.968198767520761, 42.007799822657844 ], [ -87.968129017683452, 42.007891268159369 ], [ -87.968047676197543, 42.007977222126286 ], [ -87.967955513902751, 42.008056869960129 ], [ -87.967853404199005, 42.008129456823632 ], [ -87.967742314769723, 42.008194294795047 ], [ -87.967623298411112, 42.008250769388496 ], [ -87.967497483054359, 42.008298345378364 ], [ -87.967366061075353, 42.008336571872263 ], [ -87.967230277993139, 42.008365086585044 ], [ -87.967091420664488, 42.008383619272642 ], [ -87.966950805086299, 42.00839199429376 ], [ -87.966414496028747, 42.008404394595743 ], [ -87.966274340226093, 42.008402575625603 ], [ -87.966135075920661, 42.008390664866127 ], [ -87.965998006436038, 42.008368773785051 ], [ -87.96589090027949, 42.008343385426599 ] ] ] } },
{ "type": "Feature", "properties": { "analysis_unit_id": "site_02613", "taxonomy_group_id": "hyperscale_greenfield_campus", "screening_geometry_basis": "reference_campus_geometry", "buffer_m": 0, "screening_geometry_confidence": "medium", "screening_area_m2": 195472.3, "overlap_with_other_screening_masks_m2": 0.0, "neighbor_contamination_flag": false }, "geometry": { "type": "Polygon", "coordinates": [ [ [ -88.1361183, 42.074585 ], [ -88.1328708, 42.074629499999979 ], [ -88.1315619, 42.0746454 ], [ -88.1316607, 42.079298700000024 ], [ -88.1362082, 42.079280899999979 ], [ -88.1361183, 42.074585 ] ] ] } }
]
}
